<?xml version="1.0" encoding="UTF-8"?>
<gpx xmlns="http://www.topografix.com/GPX/1/1" xmlns:gpxtpx="http://www.garmin.com/xmlschemas/TrackPointExtension/v1" xmlns:xsi="http://www.w3.org/2001/XMLSchema-instance" xsi:schemaLocation="http://www.topografix.com/GPX/1/1 http://www.topografix.com/GPX/1/1/gpx.xsd" version="1.1" creator="gpx.py -- https://github.com/tkrajina/gpxpy">
  <trk>
    <name>gpx from codoon</name>
    <type>Run</type>
    <trkseg>
      <trkpt lat="39.8745481" lon="116.665522">
        <ele>23.23354</ele>
        <time>2026-07-23T22:33:08Z</time>
      </trkpt>
      <trkpt lat="39.8745956" lon="116.6656337">
        <ele>23.36887</ele>
        <time>2026-07-23T22:33:14Z</time>
      </trkpt>
      <trkpt lat="39.8746379" lon="116.6657407">
        <ele>23.44162</ele>
        <time>2026-07-23T22:33:18Z</time>
      </trkpt>
      <trkpt lat="39.8746883" lon="116.66585">
        <ele>23.48561</ele>
        <time>2026-07-23T22:33:22Z</time>
      </trkpt>
      <trkpt lat="39.8747461" lon="116.6659636">
        <ele>23.41272</ele>
        <time>2026-07-23T22:33:26Z</time>
      </trkpt>
      <trkpt lat="39.8748058" lon="116.6660884">
        <ele>23.11813</ele>
        <time>2026-07-23T22:33:30.288000Z</time>
      </trkpt>
      <trkpt lat="39.8748618" lon="116.6662029">
        <ele>22.89701</ele>
        <time>2026-07-23T22:33:34.270000Z</time>
      </trkpt>
      <trkpt lat="39.8749151" lon="116.6663172">
        <ele>22.86511</ele>
        <time>2026-07-23T22:33:38.251000Z</time>
      </trkpt>
      <trkpt lat="39.8749628" lon="116.6664335">
        <ele>23.00074</ele>
        <time>2026-07-23T22:33:42.232000Z</time>
      </trkpt>
      <trkpt lat="39.8750163" lon="116.6665458">
        <ele>23.26295</ele>
        <time>2026-07-23T22:33:46.214000Z</time>
      </trkpt>
      <trkpt lat="39.8750744" lon="116.6666448">
        <ele>23.55248</ele>
        <time>2026-07-23T22:33:50Z</time>
      </trkpt>
      <trkpt lat="39.8751366" lon="116.6667518">
        <ele>23.73201</ele>
        <time>2026-07-23T22:33:54Z</time>
      </trkpt>
      <trkpt lat="39.8752033" lon="116.6668583">
        <ele>23.79634</ele>
        <time>2026-07-23T22:33:58Z</time>
      </trkpt>
      <trkpt lat="39.8752725" lon="116.6669579">
        <ele>23.82463</ele>
        <time>2026-07-23T22:34:02Z</time>
      </trkpt>
      <trkpt lat="39.8753424" lon="116.6670488">
        <ele>23.8397</ele>
        <time>2026-07-23T22:34:06Z</time>
      </trkpt>
      <trkpt lat="39.8754133" lon="116.6671383">
        <ele>23.84863</ele>
        <time>2026-07-23T22:34:10Z</time>
      </trkpt>
      <trkpt lat="39.8754858" lon="116.667229">
        <ele>23.84088</ele>
        <time>2026-07-23T22:34:14Z</time>
      </trkpt>
      <trkpt lat="39.8755511" lon="116.6673307">
        <ele>23.83083</ele>
        <time>2026-07-23T22:34:18Z</time>
      </trkpt>
      <trkpt lat="39.8756138" lon="116.6674317">
        <ele>23.83449</ele>
        <time>2026-07-23T22:34:22Z</time>
      </trkpt>
      <trkpt lat="39.8756822" lon="116.6675262">
        <ele>23.86378</ele>
        <time>2026-07-23T22:34:26Z</time>
      </trkpt>
      <trkpt lat="39.8757474" lon="116.6676256">
        <ele>23.93508</ele>
        <time>2026-07-23T22:34:30Z</time>
      </trkpt>
      <trkpt lat="39.8758165" lon="116.6677251">
        <ele>24.06606</ele>
        <time>2026-07-23T22:34:33.990000Z</time>
      </trkpt>
      <trkpt lat="39.8758839" lon="116.6678181">
        <ele>24.20176</ele>
        <time>2026-07-23T22:34:37.971000Z</time>
      </trkpt>
      <trkpt lat="39.8759511" lon="116.6679094">
        <ele>24.29856</ele>
        <time>2026-07-23T22:34:41.953000Z</time>
      </trkpt>
      <trkpt lat="39.8760148" lon="116.6680028">
        <ele>24.34871</ele>
        <time>2026-07-23T22:34:45.934000Z</time>
      </trkpt>
      <trkpt lat="39.8760778" lon="116.6680969">
        <ele>24.3542</ele>
        <time>2026-07-23T22:34:49.915000Z</time>
      </trkpt>
      <trkpt lat="39.876146" lon="116.6681858">
        <ele>24.33766</ele>
        <time>2026-07-23T22:34:53.897000Z</time>
      </trkpt>
      <trkpt lat="39.8762195" lon="116.6682643">
        <ele>24.32312</ele>
        <time>2026-07-23T22:34:57.878000Z</time>
      </trkpt>
      <trkpt lat="39.8762977" lon="116.6683422">
        <ele>24.34237</ele>
        <time>2026-07-23T22:35:01.859000Z</time>
      </trkpt>
      <trkpt lat="39.8763749" lon="116.6684229">
        <ele>24.40482</ele>
        <time>2026-07-23T22:35:05.841000Z</time>
      </trkpt>
      <trkpt lat="39.8764529" lon="116.6685125">
        <ele>24.50071</ele>
        <time>2026-07-23T22:35:09.822000Z</time>
      </trkpt>
      <trkpt lat="39.8765287" lon="116.6686105">
        <ele>24.58484</ele>
        <time>2026-07-23T22:35:13.803000Z</time>
      </trkpt>
      <trkpt lat="39.8765986" lon="116.6687183">
        <ele>24.62054</ele>
        <time>2026-07-23T22:35:17.785000Z</time>
      </trkpt>
      <trkpt lat="39.8766666" lon="116.6688271">
        <ele>24.61165</ele>
        <time>2026-07-23T22:35:21.766000Z</time>
      </trkpt>
      <trkpt lat="39.8767407" lon="116.6689231">
        <ele>24.60491</ele>
        <time>2026-07-23T22:35:25.747000Z</time>
      </trkpt>
      <trkpt lat="39.8768116" lon="116.6690242">
        <ele>24.63535</ele>
        <time>2026-07-23T22:35:29.729000Z</time>
      </trkpt>
      <trkpt lat="39.87688" lon="116.669124">
        <ele>24.6768</ele>
        <time>2026-07-23T22:35:33.710000Z</time>
      </trkpt>
      <trkpt lat="39.8769434" lon="116.6692217">
        <ele>24.70831</ele>
        <time>2026-07-23T22:35:37.691000Z</time>
      </trkpt>
      <trkpt lat="39.8769952" lon="116.6693283">
        <ele>24.70234</ele>
        <time>2026-07-23T22:35:41.672000Z</time>
      </trkpt>
      <trkpt lat="39.8770269" lon="116.6694495">
        <ele>24.63728</ele>
        <time>2026-07-23T22:35:45.654000Z</time>
      </trkpt>
      <trkpt lat="39.8770264" lon="116.669571">
        <ele>24.53166</ele>
        <time>2026-07-23T22:35:49.635000Z</time>
      </trkpt>
      <trkpt lat="39.8769785" lon="116.6696759">
        <ele>24.41034</ele>
        <time>2026-07-23T22:35:53.616000Z</time>
      </trkpt>
      <trkpt lat="39.8769195" lon="116.6697771">
        <ele>24.31181</ele>
        <time>2026-07-23T22:35:57.598000Z</time>
      </trkpt>
      <trkpt lat="39.8768538" lon="116.6698759">
        <ele>24.26026</ele>
        <time>2026-07-23T22:36:01.579000Z</time>
      </trkpt>
      <trkpt lat="39.8767847" lon="116.6699675">
        <ele>24.2408</ele>
        <time>2026-07-23T22:36:05.560000Z</time>
      </trkpt>
      <trkpt lat="39.8767215" lon="116.6700622">
        <ele>24.23198</ele>
        <time>2026-07-23T22:36:09.541000Z</time>
      </trkpt>
      <trkpt lat="39.8766554" lon="116.6701534">
        <ele>24.20759</ele>
        <time>2026-07-23T22:36:13.523000Z</time>
      </trkpt>
      <trkpt lat="39.8765844" lon="116.6702457">
        <ele>24.14957</ele>
        <time>2026-07-23T22:36:17.504000Z</time>
      </trkpt>
      <trkpt lat="39.8765127" lon="116.6703382">
        <ele>24.07821</ele>
        <time>2026-07-23T22:36:21.485000Z</time>
      </trkpt>
      <trkpt lat="39.876437" lon="116.6704301">
        <ele>24.02012</ele>
        <time>2026-07-23T22:36:25.467000Z</time>
      </trkpt>
      <trkpt lat="39.8763587" lon="116.670524">
        <ele>23.9784</ele>
        <time>2026-07-23T22:36:29.448000Z</time>
      </trkpt>
      <trkpt lat="39.8762822" lon="116.670614">
        <ele>23.96258</ele>
        <time>2026-07-23T22:36:33.429000Z</time>
      </trkpt>
      <trkpt lat="39.8762014" lon="116.6707038">
        <ele>23.99716</ele>
        <time>2026-07-23T22:36:37.410000Z</time>
      </trkpt>
      <trkpt lat="39.8761198" lon="116.6707943">
        <ele>24.07636</ele>
        <time>2026-07-23T22:36:41.392000Z</time>
      </trkpt>
      <trkpt lat="39.8760387" lon="116.6708858">
        <ele>24.16569</ele>
        <time>2026-07-23T22:36:45.373000Z</time>
      </trkpt>
      <trkpt lat="39.8759594" lon="116.6709768">
        <ele>24.22521</ele>
        <time>2026-07-23T22:36:49.354000Z</time>
      </trkpt>
      <trkpt lat="39.8758818" lon="116.6710674">
        <ele>24.22739</ele>
        <time>2026-07-23T22:36:53.335000Z</time>
      </trkpt>
      <trkpt lat="39.875806" lon="116.6711555">
        <ele>24.18797</ele>
        <time>2026-07-23T22:36:57.317000Z</time>
      </trkpt>
      <trkpt lat="39.8757319" lon="116.6712462">
        <ele>24.12757</ele>
        <time>2026-07-23T22:37:01.298000Z</time>
      </trkpt>
      <trkpt lat="39.8756581" lon="116.6713397">
        <ele>24.04141</ele>
        <time>2026-07-23T22:37:05.279000Z</time>
      </trkpt>
      <trkpt lat="39.8755828" lon="116.6714388">
        <ele>23.95434</ele>
        <time>2026-07-23T22:37:09.261000Z</time>
      </trkpt>
      <trkpt lat="39.8755059" lon="116.6715386">
        <ele>23.92938</ele>
        <time>2026-07-23T22:37:13.242000Z</time>
      </trkpt>
      <trkpt lat="39.8754296" lon="116.6716379">
        <ele>23.97903</ele>
        <time>2026-07-23T22:37:17.223000Z</time>
      </trkpt>
      <trkpt lat="39.8753507" lon="116.6717353">
        <ele>24.07446</ele>
        <time>2026-07-23T22:37:21.204000Z</time>
      </trkpt>
      <trkpt lat="39.875274" lon="116.6718253">
        <ele>24.17308</ele>
        <time>2026-07-23T22:37:25Z</time>
      </trkpt>
      <trkpt lat="39.8751901" lon="116.6719106">
        <ele>24.26273</ele>
        <time>2026-07-23T22:37:29Z</time>
      </trkpt>
      <trkpt lat="39.8750914" lon="116.6719705">
        <ele>24.30055</ele>
        <time>2026-07-23T22:37:33Z</time>
      </trkpt>
      <trkpt lat="39.8749829" lon="116.6719935">
        <ele>24.28206</ele>
        <time>2026-07-23T22:37:37Z</time>
      </trkpt>
      <trkpt lat="39.8748747" lon="116.6720032">
        <ele>24.25506</ele>
        <time>2026-07-23T22:37:41Z</time>
      </trkpt>
      <trkpt lat="39.8747765" lon="116.6719859">
        <ele>24.26323</ele>
        <time>2026-07-23T22:37:45Z</time>
      </trkpt>
      <trkpt lat="39.8746993" lon="116.6718985">
        <ele>24.31275</ele>
        <time>2026-07-23T22:37:49Z</time>
      </trkpt>
      <trkpt lat="39.8746829" lon="116.6717574">
        <ele>24.37615</ele>
        <time>2026-07-23T22:37:53.054000Z</time>
      </trkpt>
      <trkpt lat="39.8747311" lon="116.6716363">
        <ele>24.39248</ele>
        <time>2026-07-23T22:37:57Z</time>
      </trkpt>
      <trkpt lat="39.8748019" lon="116.6715353">
        <ele>24.36035</ele>
        <time>2026-07-23T22:38:01.017000Z</time>
      </trkpt>
      <trkpt lat="39.8748675" lon="116.6714342">
        <ele>24.31489</ele>
        <time>2026-07-23T22:38:04.998000Z</time>
      </trkpt>
      <trkpt lat="39.8749044" lon="116.6713122">
        <ele>24.24577</ele>
        <time>2026-07-23T22:38:08.979000Z</time>
      </trkpt>
      <trkpt lat="39.8749154" lon="116.671177">
        <ele>24.14506</ele>
        <time>2026-07-23T22:38:12.961000Z</time>
      </trkpt>
      <trkpt lat="39.8749252" lon="116.6710396">
        <ele>24.01169</ele>
        <time>2026-07-23T22:38:16.942000Z</time>
      </trkpt>
      <trkpt lat="39.8749419" lon="116.6709026">
        <ele>23.8776</ele>
        <time>2026-07-23T22:38:20.923000Z</time>
      </trkpt>
      <trkpt lat="39.8749536" lon="116.6707667">
        <ele>23.78206</ele>
        <time>2026-07-23T22:38:24.904000Z</time>
      </trkpt>
      <trkpt lat="39.8749371" lon="116.6706422">
        <ele>23.74701</ele>
        <time>2026-07-23T22:38:28.886000Z</time>
      </trkpt>
      <trkpt lat="39.874869" lon="116.6705619">
        <ele>23.73525</ele>
        <time>2026-07-23T22:38:32.867000Z</time>
      </trkpt>
      <trkpt lat="39.8747706" lon="116.6705426">
        <ele>23.71006</ele>
        <time>2026-07-23T22:38:36.848000Z</time>
      </trkpt>
      <trkpt lat="39.8746743" lon="116.6705406">
        <ele>23.65853</ele>
        <time>2026-07-23T22:38:40.829000Z</time>
      </trkpt>
      <trkpt lat="39.8745766" lon="116.6705412">
        <ele>23.59205</ele>
        <time>2026-07-23T22:38:44.811000Z</time>
      </trkpt>
      <trkpt lat="39.8744782" lon="116.6705466">
        <ele>23.53352</ele>
        <time>2026-07-23T22:38:48.792000Z</time>
      </trkpt>
      <trkpt lat="39.8743761" lon="116.6705535">
        <ele>23.50325</ele>
        <time>2026-07-23T22:38:52.773000Z</time>
      </trkpt>
      <trkpt lat="39.8742731" lon="116.6705569">
        <ele>23.51387</ele>
        <time>2026-07-23T22:38:56.754000Z</time>
      </trkpt>
      <trkpt lat="39.8741684" lon="116.6705611">
        <ele>23.51479</ele>
        <time>2026-07-23T22:39:00.735000Z</time>
      </trkpt>
      <trkpt lat="39.8740621" lon="116.6705705">
        <ele>23.53008</ele>
        <time>2026-07-23T22:39:04.717000Z</time>
      </trkpt>
      <trkpt lat="39.873957" lon="116.6705784">
        <ele>23.59368</ele>
        <time>2026-07-23T22:39:08.698000Z</time>
      </trkpt>
      <trkpt lat="39.8738545" lon="116.6705886">
        <ele>23.64522</ele>
        <time>2026-07-23T22:39:12.679000Z</time>
      </trkpt>
      <trkpt lat="39.8737544" lon="116.6705993">
        <ele>23.60944</ele>
        <time>2026-07-23T22:39:16.660000Z</time>
      </trkpt>
      <trkpt lat="39.8736561" lon="116.6706087">
        <ele>23.47719</ele>
        <time>2026-07-23T22:39:20.641000Z</time>
      </trkpt>
      <trkpt lat="39.8735529" lon="116.6706206">
        <ele>23.33108</ele>
        <time>2026-07-23T22:39:24.623000Z</time>
      </trkpt>
      <trkpt lat="39.8734462" lon="116.6706283">
        <ele>23.2491</ele>
        <time>2026-07-23T22:39:28.604000Z</time>
      </trkpt>
      <trkpt lat="39.8733417" lon="116.6706347">
        <ele>23.23026</ele>
        <time>2026-07-23T22:39:32.585000Z</time>
      </trkpt>
      <trkpt lat="39.8732353" lon="116.6706356">
        <ele>23.2073</ele>
        <time>2026-07-23T22:39:36.566000Z</time>
      </trkpt>
      <trkpt lat="39.8731309" lon="116.6706332">
        <ele>23.12806</ele>
        <time>2026-07-23T22:39:40.557000Z</time>
      </trkpt>
      <trkpt lat="39.8730264" lon="116.6706369">
        <ele>23.01966</ele>
        <time>2026-07-23T22:39:44.539000Z</time>
      </trkpt>
      <trkpt lat="39.8729339" lon="116.6706668">
        <ele>22.95231</ele>
        <time>2026-07-23T22:39:48.520000Z</time>
      </trkpt>
      <trkpt lat="39.8728725" lon="116.6707809">
        <ele>22.93673</ele>
        <time>2026-07-23T22:39:53.496000Z</time>
      </trkpt>
      <trkpt lat="39.8728065" lon="116.6708945">
        <ele>22.95221</ele>
        <time>2026-07-23T22:39:58.473000Z</time>
      </trkpt>
      <trkpt lat="39.8727078" lon="116.6709058">
        <ele>23.00076</ele>
        <time>2026-07-23T22:40:02.454000Z</time>
      </trkpt>
      <trkpt lat="39.8726003" lon="116.6708909">
        <ele>23.08254</ele>
        <time>2026-07-23T22:40:06.435000Z</time>
      </trkpt>
      <trkpt lat="39.8724956" lon="116.6708884">
        <ele>23.16181</ele>
        <time>2026-07-23T22:40:10.416000Z</time>
      </trkpt>
      <trkpt lat="39.8724002" lon="116.6709249">
        <ele>23.22211</ele>
        <time>2026-07-23T22:40:14.397000Z</time>
      </trkpt>
      <trkpt lat="39.8723336" lon="116.6710148">
        <ele>23.28237</ele>
        <time>2026-07-23T22:40:18.379000Z</time>
      </trkpt>
      <trkpt lat="39.8723008" lon="116.6711382">
        <ele>23.31722</ele>
        <time>2026-07-23T22:40:22.360000Z</time>
      </trkpt>
      <trkpt lat="39.8722941" lon="116.6712675">
        <ele>23.29224</ele>
        <time>2026-07-23T22:40:26.341000Z</time>
      </trkpt>
      <trkpt lat="39.8723047" lon="116.6713994">
        <ele>23.20966</ele>
        <time>2026-07-23T22:40:30.322000Z</time>
      </trkpt>
      <trkpt lat="39.8723135" lon="116.6715316">
        <ele>23.14679</ele>
        <time>2026-07-23T22:40:34.303000Z</time>
      </trkpt>
      <trkpt lat="39.8723193" lon="116.6716681">
        <ele>23.12282</ele>
        <time>2026-07-23T22:40:38.284000Z</time>
      </trkpt>
      <trkpt lat="39.8723199" lon="116.6718125">
        <ele>23.11203</ele>
        <time>2026-07-23T22:40:42.266000Z</time>
      </trkpt>
      <trkpt lat="39.8723028" lon="116.6719523">
        <ele>23.12815</ele>
        <time>2026-07-23T22:40:46.247000Z</time>
      </trkpt>
      <trkpt lat="39.8722636" lon="116.6720814">
        <ele>23.24126</ele>
        <time>2026-07-23T22:40:50.228000Z</time>
      </trkpt>
      <trkpt lat="39.8722123" lon="116.6721973">
        <ele>23.44724</ele>
        <time>2026-07-23T22:40:54.209000Z</time>
      </trkpt>
      <trkpt lat="39.8721602" lon="116.6723057">
        <ele>23.655</ele>
        <time>2026-07-23T22:40:58Z</time>
      </trkpt>
      <trkpt lat="39.8721098" lon="116.6724229">
        <ele>23.73827</ele>
        <time>2026-07-23T22:41:02Z</time>
      </trkpt>
      <trkpt lat="39.8720652" lon="116.6725462">
        <ele>23.68224</ele>
        <time>2026-07-23T22:41:06Z</time>
      </trkpt>
      <trkpt lat="39.8720297" lon="116.6726721">
        <ele>23.56448</ele>
        <time>2026-07-23T22:41:10.134000Z</time>
      </trkpt>
      <trkpt lat="39.8720119" lon="116.6727994">
        <ele>23.49627</ele>
        <time>2026-07-23T22:41:14.115000Z</time>
      </trkpt>
      <trkpt lat="39.8720142" lon="116.6729327">
        <ele>23.55349</ele>
        <time>2026-07-23T22:41:18.096000Z</time>
      </trkpt>
      <trkpt lat="39.8720327" lon="116.6730652">
        <ele>23.70675</ele>
        <time>2026-07-23T22:41:22.077000Z</time>
      </trkpt>
      <trkpt lat="39.8720611" lon="116.6731942">
        <ele>23.83542</ele>
        <time>2026-07-23T22:41:26.058000Z</time>
      </trkpt>
      <trkpt lat="39.8721027" lon="116.6733097">
        <ele>23.85658</ele>
        <time>2026-07-23T22:41:30.040000Z</time>
      </trkpt>
      <trkpt lat="39.8721654" lon="116.6733977">
        <ele>23.8559</ele>
        <time>2026-07-23T22:41:34Z</time>
      </trkpt>
      <trkpt lat="39.8722527" lon="116.6734507">
        <ele>23.96465</ele>
        <time>2026-07-23T22:41:38Z</time>
      </trkpt>
      <trkpt lat="39.8723496" lon="116.6734694">
        <ele>24.14094</ele>
        <time>2026-07-23T22:41:41.983000Z</time>
      </trkpt>
      <trkpt lat="39.8724456" lon="116.6734601">
        <ele>24.27768</ele>
        <time>2026-07-23T22:41:45.964000Z</time>
      </trkpt>
      <trkpt lat="39.8725341" lon="116.6734188">
        <ele>24.36593</ele>
        <time>2026-07-23T22:41:49.945000Z</time>
      </trkpt>
      <trkpt lat="39.8726172" lon="116.6733508">
        <ele>24.42916</ele>
        <time>2026-07-23T22:41:53.926000Z</time>
      </trkpt>
      <trkpt lat="39.8726879" lon="116.6732634">
        <ele>24.46491</ele>
        <time>2026-07-23T22:41:57.908000Z</time>
      </trkpt>
      <trkpt lat="39.8727506" lon="116.6731622">
        <ele>24.47319</ele>
        <time>2026-07-23T22:42:01.889000Z</time>
      </trkpt>
      <trkpt lat="39.8728141" lon="116.6730656">
        <ele>24.44664</ele>
        <time>2026-07-23T22:42:05.870000Z</time>
      </trkpt>
      <trkpt lat="39.8728849" lon="116.6729697">
        <ele>24.41905</ele>
        <time>2026-07-23T22:42:09.851000Z</time>
      </trkpt>
      <trkpt lat="39.8729642" lon="116.672885">
        <ele>24.43019</ele>
        <time>2026-07-23T22:42:13.832000Z</time>
      </trkpt>
      <trkpt lat="39.8730557" lon="116.6728219">
        <ele>24.48783</ele>
        <time>2026-07-23T22:42:17.813000Z</time>
      </trkpt>
      <trkpt lat="39.8731471" lon="116.6727597">
        <ele>24.53527</ele>
        <time>2026-07-23T22:42:21.794000Z</time>
      </trkpt>
      <trkpt lat="39.8732335" lon="116.6726847">
        <ele>24.54249</ele>
        <time>2026-07-23T22:42:25.775000Z</time>
      </trkpt>
      <trkpt lat="39.8733004" lon="116.6725888">
        <ele>24.53567</ele>
        <time>2026-07-23T22:42:29.757000Z</time>
      </trkpt>
      <trkpt lat="39.8733489" lon="116.6724703">
        <ele>24.51878</ele>
        <time>2026-07-23T22:42:33.738000Z</time>
      </trkpt>
      <trkpt lat="39.8734031" lon="116.6723596">
        <ele>24.48985</ele>
        <time>2026-07-23T22:42:37.719000Z</time>
      </trkpt>
      <trkpt lat="39.8734763" lon="116.6722662">
        <ele>24.47868</ele>
        <time>2026-07-23T22:42:41.700000Z</time>
      </trkpt>
      <trkpt lat="39.8735634" lon="116.6721894">
        <ele>24.51517</ele>
        <time>2026-07-23T22:42:45.681000Z</time>
      </trkpt>
      <trkpt lat="39.873662" lon="116.6721431">
        <ele>24.6329</ele>
        <time>2026-07-23T22:42:49.662000Z</time>
      </trkpt>
      <trkpt lat="39.8737647" lon="116.6721195">
        <ele>24.82522</ele>
        <time>2026-07-23T22:42:53.643000Z</time>
      </trkpt>
      <trkpt lat="39.8738648" lon="116.6720927">
        <ele>25.07884</ele>
        <time>2026-07-23T22:42:57.624000Z</time>
      </trkpt>
      <trkpt lat="39.8739506" lon="116.6720292">
        <ele>25.32279</ele>
        <time>2026-07-23T22:43:01.605000Z</time>
      </trkpt>
      <trkpt lat="39.8740194" lon="116.6719433">
        <ele>25.44455</ele>
        <time>2026-07-23T22:43:05.587000Z</time>
      </trkpt>
      <trkpt lat="39.8740521" lon="116.6718099">
        <ele>25.27733</ele>
        <time>2026-07-23T22:43:10.563000Z</time>
      </trkpt>
      <trkpt lat="39.8740878" lon="116.6716736">
        <ele>24.85163</ele>
        <time>2026-07-23T22:43:15.539000Z</time>
      </trkpt>
      <trkpt lat="39.8741329" lon="116.6715557">
        <ele>24.42356</ele>
        <time>2026-07-23T22:43:20.516000Z</time>
      </trkpt>
      <trkpt lat="39.874243" lon="116.6715547">
        <ele>24.07693</ele>
        <time>2026-07-23T22:43:25.492000Z</time>
      </trkpt>
      <trkpt lat="39.8743356" lon="116.6716126">
        <ele>23.87277</ele>
        <time>2026-07-23T22:43:29.473000Z</time>
      </trkpt>
      <trkpt lat="39.8744296" lon="116.6716699">
        <ele>23.74019</ele>
        <time>2026-07-23T22:43:33.454000Z</time>
      </trkpt>
      <trkpt lat="39.8745309" lon="116.6716984">
        <ele>23.68256</ele>
        <time>2026-07-23T22:43:37.435000Z</time>
      </trkpt>
      <trkpt lat="39.8746187" lon="116.6717585">
        <ele>23.69158</ele>
        <time>2026-07-23T22:43:41.416000Z</time>
      </trkpt>
      <trkpt lat="39.8746697" lon="116.6718631">
        <ele>23.7793</ele>
        <time>2026-07-23T22:43:45.398000Z</time>
      </trkpt>
      <trkpt lat="39.8746434" lon="116.6720048">
        <ele>24.10633</ele>
        <time>2026-07-23T22:43:50.374000Z</time>
      </trkpt>
      <trkpt lat="39.8745661" lon="116.6720873">
        <ele>24.50678</ele>
        <time>2026-07-23T22:43:54.355000Z</time>
      </trkpt>
      <trkpt lat="39.874483" lon="116.672159">
        <ele>24.90686</ele>
        <time>2026-07-23T22:43:58.336000Z</time>
      </trkpt>
      <trkpt lat="39.8744097" lon="116.6722455">
        <ele>25.20735</ele>
        <time>2026-07-23T22:44:02.317000Z</time>
      </trkpt>
      <trkpt lat="39.8743434" lon="116.6723399">
        <ele>25.36698</ele>
        <time>2026-07-23T22:44:06.298000Z</time>
      </trkpt>
      <trkpt lat="39.874279" lon="116.6724387">
        <ele>25.41505</ele>
        <time>2026-07-23T22:44:10.279000Z</time>
      </trkpt>
      <trkpt lat="39.8742071" lon="116.6725395">
        <ele>25.43641</ele>
        <time>2026-07-23T22:44:14.260000Z</time>
      </trkpt>
      <trkpt lat="39.8741346" lon="116.6726358">
        <ele>25.47775</ele>
        <time>2026-07-23T22:44:18.242000Z</time>
      </trkpt>
      <trkpt lat="39.8740661" lon="116.6727342">
        <ele>25.46369</ele>
        <time>2026-07-23T22:44:22.223000Z</time>
      </trkpt>
      <trkpt lat="39.8739969" lon="116.6728268">
        <ele>25.37693</ele>
        <time>2026-07-23T22:44:26.204000Z</time>
      </trkpt>
      <trkpt lat="39.8739161" lon="116.6729186">
        <ele>25.27073</ele>
        <time>2026-07-23T22:44:30.185000Z</time>
      </trkpt>
      <trkpt lat="39.8738282" lon="116.6729882">
        <ele>25.14157</ele>
        <time>2026-07-23T22:44:34.166000Z</time>
      </trkpt>
      <trkpt lat="39.8737344" lon="116.6730421">
        <ele>24.95736</ele>
        <time>2026-07-23T22:44:38.147000Z</time>
      </trkpt>
      <trkpt lat="39.8736513" lon="116.6731114">
        <ele>24.80636</ele>
        <time>2026-07-23T22:44:42Z</time>
      </trkpt>
      <trkpt lat="39.873588" lon="116.6732069">
        <ele>24.78523</ele>
        <time>2026-07-23T22:44:46Z</time>
      </trkpt>
      <trkpt lat="39.8735639" lon="116.6733446">
        <ele>24.85796</ele>
        <time>2026-07-23T22:44:51Z</time>
      </trkpt>
      <trkpt lat="39.8735837" lon="116.67346">
        <ele>24.93465</ele>
        <time>2026-07-23T22:44:55Z</time>
      </trkpt>
      <trkpt lat="39.8736083" lon="116.6735748">
        <ele>25.02439</ele>
        <time>2026-07-23T22:44:59Z</time>
      </trkpt>
      <trkpt lat="39.8736059" lon="116.673698">
        <ele>25.13258</ele>
        <time>2026-07-23T22:45:03Z</time>
      </trkpt>
      <trkpt lat="39.8735572" lon="116.6737995">
        <ele>25.26214</ele>
        <time>2026-07-23T22:45:07Z</time>
      </trkpt>
      <trkpt lat="39.8734761" lon="116.673873">
        <ele>25.38367</ele>
        <time>2026-07-23T22:45:10.991000Z</time>
      </trkpt>
      <trkpt lat="39.8733875" lon="116.6739391">
        <ele>25.47965</ele>
        <time>2026-07-23T22:45:14.972000Z</time>
      </trkpt>
      <trkpt lat="39.8733014" lon="116.6740136">
        <ele>25.54795</ele>
        <time>2026-07-23T22:45:18.953000Z</time>
      </trkpt>
      <trkpt lat="39.873225" lon="116.6740918">
        <ele>25.57666</ele>
        <time>2026-07-23T22:45:22.934000Z</time>
      </trkpt>
      <trkpt lat="39.873156" lon="116.6741843">
        <ele>25.5412</ele>
        <time>2026-07-23T22:45:26.915000Z</time>
      </trkpt>
      <trkpt lat="39.8730954" lon="116.6742912">
        <ele>25.47779</ele>
        <time>2026-07-23T22:45:30.896000Z</time>
      </trkpt>
      <trkpt lat="39.8730232" lon="116.6743778">
        <ele>25.40473</ele>
        <time>2026-07-23T22:45:34.877000Z</time>
      </trkpt>
      <trkpt lat="39.8729457" lon="116.6744489">
        <ele>25.38484</ele>
        <time>2026-07-23T22:45:38.858000Z</time>
      </trkpt>
      <trkpt lat="39.8728716" lon="116.6745345">
        <ele>25.43524</ele>
        <time>2026-07-23T22:45:42.840000Z</time>
      </trkpt>
      <trkpt lat="39.8728169" lon="116.6746345">
        <ele>25.46166</ele>
        <time>2026-07-23T22:45:46.821000Z</time>
      </trkpt>
      <trkpt lat="39.8727661" lon="116.6747502">
        <ele>25.39164</ele>
        <time>2026-07-23T22:45:51.797000Z</time>
      </trkpt>
      <trkpt lat="39.8726649" lon="116.6747744">
        <ele>25.26492</ele>
        <time>2026-07-23T22:45:56.773000Z</time>
      </trkpt>
      <trkpt lat="39.8725649" lon="116.6747801">
        <ele>25.12636</ele>
        <time>2026-07-23T22:46:00.754000Z</time>
      </trkpt>
      <trkpt lat="39.8724622" lon="116.6747819">
        <ele>24.92699</ele>
        <time>2026-07-23T22:46:04.735000Z</time>
      </trkpt>
      <trkpt lat="39.8723639" lon="116.6747864">
        <ele>24.73001</ele>
        <time>2026-07-23T22:46:08.717000Z</time>
      </trkpt>
      <trkpt lat="39.8722585" lon="116.6748248">
        <ele>24.58278</ele>
        <time>2026-07-23T22:46:13.693000Z</time>
      </trkpt>
      <trkpt lat="39.8721622" lon="116.6748858">
        <ele>24.53799</ele>
        <time>2026-07-23T22:46:18.679000Z</time>
      </trkpt>
      <trkpt lat="39.8720809" lon="116.6749613">
        <ele>24.51897</ele>
        <time>2026-07-23T22:46:23.655000Z</time>
      </trkpt>
      <trkpt lat="39.8721347" lon="116.675065">
        <ele>24.48757</ele>
        <time>2026-07-23T22:46:29.627000Z</time>
      </trkpt>
      <trkpt lat="39.8722329" lon="116.6750823">
        <ele>24.51</ele>
        <time>2026-07-23T22:46:33.608000Z</time>
      </trkpt>
      <trkpt lat="39.8723326" lon="116.6750783">
        <ele>24.56909</ele>
        <time>2026-07-23T22:46:37.589000Z</time>
      </trkpt>
      <trkpt lat="39.8724324" lon="116.6750729">
        <ele>24.64248</ele>
        <time>2026-07-23T22:46:41.570000Z</time>
      </trkpt>
      <trkpt lat="39.8725314" lon="116.6750718">
        <ele>24.69169</ele>
        <time>2026-07-23T22:46:45.551000Z</time>
      </trkpt>
      <trkpt lat="39.872636" lon="116.6751001">
        <ele>24.70018</ele>
        <time>2026-07-23T22:46:50.528000Z</time>
      </trkpt>
      <trkpt lat="39.872624" lon="116.6752404">
        <ele>24.72871</ele>
        <time>2026-07-23T22:46:56.499000Z</time>
      </trkpt>
      <trkpt lat="39.8725621" lon="116.6753486">
        <ele>24.72822</ele>
        <time>2026-07-23T22:47:00.480000Z</time>
      </trkpt>
      <trkpt lat="39.8725004" lon="116.6754573">
        <ele>24.70119</ele>
        <time>2026-07-23T22:47:04.462000Z</time>
      </trkpt>
      <trkpt lat="39.8724429" lon="116.6755635">
        <ele>24.65187</ele>
        <time>2026-07-23T22:47:08.443000Z</time>
      </trkpt>
      <trkpt lat="39.872384" lon="116.675669">
        <ele>24.57792</ele>
        <time>2026-07-23T22:47:12.424000Z</time>
      </trkpt>
      <trkpt lat="39.8723256" lon="116.6757798">
        <ele>24.46292</ele>
        <time>2026-07-23T22:47:16.405000Z</time>
      </trkpt>
      <trkpt lat="39.872273" lon="116.6758938">
        <ele>24.31148</ele>
        <time>2026-07-23T22:47:20.386000Z</time>
      </trkpt>
      <trkpt lat="39.8722246" lon="116.6760102">
        <ele>24.1562</ele>
        <time>2026-07-23T22:47:24.367000Z</time>
      </trkpt>
      <trkpt lat="39.8721766" lon="116.6761268">
        <ele>24.04127</ele>
        <time>2026-07-23T22:47:28.348000Z</time>
      </trkpt>
      <trkpt lat="39.8721319" lon="116.6762457">
        <ele>24.00158</ele>
        <time>2026-07-23T22:47:32.329000Z</time>
      </trkpt>
      <trkpt lat="39.8720945" lon="116.6763632">
        <ele>24.01124</ele>
        <time>2026-07-23T22:47:36.310000Z</time>
      </trkpt>
      <trkpt lat="39.8720494" lon="116.676479">
        <ele>24.04247</ele>
        <time>2026-07-23T22:47:40.291000Z</time>
      </trkpt>
      <trkpt lat="39.8720017" lon="116.6765957">
        <ele>24.08956</ele>
        <time>2026-07-23T22:47:44.272000Z</time>
      </trkpt>
      <trkpt lat="39.8719517" lon="116.6767068">
        <ele>24.15645</ele>
        <time>2026-07-23T22:47:48.254000Z</time>
      </trkpt>
      <trkpt lat="39.8718959" lon="116.6768126">
        <ele>24.24545</ele>
        <time>2026-07-23T22:47:52.235000Z</time>
      </trkpt>
      <trkpt lat="39.8718411" lon="116.6769254">
        <ele>24.34857</ele>
        <time>2026-07-23T22:47:56.216000Z</time>
      </trkpt>
      <trkpt lat="39.8717912" lon="116.6770433">
        <ele>24.48456</ele>
        <time>2026-07-23T22:48:00.197000Z</time>
      </trkpt>
      <trkpt lat="39.8717417" lon="116.6771584">
        <ele>24.65897</ele>
        <time>2026-07-23T22:48:04.178000Z</time>
      </trkpt>
      <trkpt lat="39.871695" lon="116.6772628">
        <ele>24.70377</ele>
        <time>2026-07-23T22:48:08Z</time>
      </trkpt>
      <trkpt lat="39.8716474" lon="116.6773727">
        <ele>24.50054</ele>
        <time>2026-07-23T22:48:12.140000Z</time>
      </trkpt>
      <trkpt lat="39.8716159" lon="116.677512">
        <ele>24.19716</ele>
        <time>2026-07-23T22:48:17.117000Z</time>
      </trkpt>
      <trkpt lat="39.8715891" lon="116.6776275">
        <ele>24</ele>
        <time>2026-07-23T22:48:21.098000Z</time>
      </trkpt>
      <trkpt lat="39.8715578" lon="116.6777492">
        <ele>23.84065</ele>
        <time>2026-07-23T22:48:25.079000Z</time>
      </trkpt>
      <trkpt lat="39.8715401" lon="116.6778746">
        <ele>23.72644</ele>
        <time>2026-07-23T22:48:29.060000Z</time>
      </trkpt>
      <trkpt lat="39.8715144" lon="116.6779975">
        <ele>23.70809</ele>
        <time>2026-07-23T22:48:33.041000Z</time>
      </trkpt>
      <trkpt lat="39.8714783" lon="116.6781229">
        <ele>23.78991</ele>
        <time>2026-07-23T22:48:37.022000Z</time>
      </trkpt>
      <trkpt lat="39.8714395" lon="116.6782489">
        <ele>23.91826</ele>
        <time>2026-07-23T22:48:41.003000Z</time>
      </trkpt>
      <trkpt lat="39.8714013" lon="116.6783761">
        <ele>24.02805</ele>
        <time>2026-07-23T22:48:44.985000Z</time>
      </trkpt>
      <trkpt lat="39.871363" lon="116.6785036">
        <ele>24.09758</ele>
        <time>2026-07-23T22:48:48.966000Z</time>
      </trkpt>
      <trkpt lat="39.8713265" lon="116.6786336">
        <ele>24.16984</ele>
        <time>2026-07-23T22:48:52.947000Z</time>
      </trkpt>
      <trkpt lat="39.8712946" lon="116.6787589">
        <ele>24.26509</ele>
        <time>2026-07-23T22:48:56.928000Z</time>
      </trkpt>
      <trkpt lat="39.8712641" lon="116.6788868">
        <ele>24.33905</ele>
        <time>2026-07-23T22:49:00.909000Z</time>
      </trkpt>
      <trkpt lat="39.8712304" lon="116.6790149">
        <ele>24.35545</ele>
        <time>2026-07-23T22:49:04.890000Z</time>
      </trkpt>
      <trkpt lat="39.871196" lon="116.6791438">
        <ele>24.34962</ele>
        <time>2026-07-23T22:49:08.872000Z</time>
      </trkpt>
      <trkpt lat="39.8711644" lon="116.6792707">
        <ele>24.36503</ele>
        <time>2026-07-23T22:49:12.853000Z</time>
      </trkpt>
      <trkpt lat="39.8711348" lon="116.6794004">
        <ele>24.39798</ele>
        <time>2026-07-23T22:49:16.834000Z</time>
      </trkpt>
      <trkpt lat="39.8710997" lon="116.6795312">
        <ele>24.42434</ele>
        <time>2026-07-23T22:49:20.815000Z</time>
      </trkpt>
      <trkpt lat="39.8710638" lon="116.6796606">
        <ele>24.42145</ele>
        <time>2026-07-23T22:49:24.796000Z</time>
      </trkpt>
      <trkpt lat="39.8710278" lon="116.6797874">
        <ele>24.39675</ele>
        <time>2026-07-23T22:49:28.777000Z</time>
      </trkpt>
      <trkpt lat="39.870993" lon="116.6799184">
        <ele>24.35668</ele>
        <time>2026-07-23T22:49:32.758000Z</time>
      </trkpt>
      <trkpt lat="39.8709582" lon="116.6800501">
        <ele>24.29181</ele>
        <time>2026-07-23T22:49:36.740000Z</time>
      </trkpt>
      <trkpt lat="39.8709234" lon="116.6801781">
        <ele>24.24566</ele>
        <time>2026-07-23T22:49:40.721000Z</time>
      </trkpt>
      <trkpt lat="39.8708875" lon="116.680311">
        <ele>24.25642</ele>
        <time>2026-07-23T22:49:44.702000Z</time>
      </trkpt>
      <trkpt lat="39.8708548" lon="116.6804398">
        <ele>24.29059</ele>
        <time>2026-07-23T22:49:48.683000Z</time>
      </trkpt>
      <trkpt lat="39.8708192" lon="116.6805693">
        <ele>24.29717</ele>
        <time>2026-07-23T22:49:52.664000Z</time>
      </trkpt>
      <trkpt lat="39.8707862" lon="116.6807019">
        <ele>24.24565</ele>
        <time>2026-07-23T22:49:56.645000Z</time>
      </trkpt>
      <trkpt lat="39.8707572" lon="116.6808334">
        <ele>24.09787</ele>
        <time>2026-07-23T22:50:00.627000Z</time>
      </trkpt>
      <trkpt lat="39.8707266" lon="116.6809593">
        <ele>23.88278</ele>
        <time>2026-07-23T22:50:04.608000Z</time>
      </trkpt>
      <trkpt lat="39.8706894" lon="116.6810723">
        <ele>23.6535</ele>
        <time>2026-07-23T22:50:08.589000Z</time>
      </trkpt>
      <trkpt lat="39.8706513" lon="116.6811834">
        <ele>23.44107</ele>
        <time>2026-07-23T22:50:12.570000Z</time>
      </trkpt>
      <trkpt lat="39.8706164" lon="116.6813046">
        <ele>23.27039</ele>
        <time>2026-07-23T22:50:16.551000Z</time>
      </trkpt>
      <trkpt lat="39.8705804" lon="116.6814281">
        <ele>23.10618</ele>
        <time>2026-07-23T22:50:20.533000Z</time>
      </trkpt>
      <trkpt lat="39.8705465" lon="116.6815559">
        <ele>22.92889</ele>
        <time>2026-07-23T22:50:24.514000Z</time>
      </trkpt>
      <trkpt lat="39.8705215" lon="116.6816824">
        <ele>22.75746</ele>
        <time>2026-07-23T22:50:28.495000Z</time>
      </trkpt>
      <trkpt lat="39.8704921" lon="116.6818093">
        <ele>22.6319</ele>
        <time>2026-07-23T22:50:32.476000Z</time>
      </trkpt>
      <trkpt lat="39.8704593" lon="116.681942">
        <ele>22.55986</ele>
        <time>2026-07-23T22:50:36.457000Z</time>
      </trkpt>
      <trkpt lat="39.8704226" lon="116.6820714">
        <ele>22.53151</ele>
        <time>2026-07-23T22:50:40.439000Z</time>
      </trkpt>
      <trkpt lat="39.8703868" lon="116.6822016">
        <ele>22.51767</ele>
        <time>2026-07-23T22:50:44.420000Z</time>
      </trkpt>
      <trkpt lat="39.8703521" lon="116.6823337">
        <ele>22.45884</ele>
        <time>2026-07-23T22:50:48.401000Z</time>
      </trkpt>
      <trkpt lat="39.8703123" lon="116.6824641">
        <ele>22.37705</ele>
        <time>2026-07-23T22:50:52.382000Z</time>
      </trkpt>
      <trkpt lat="39.8702702" lon="116.6825976">
        <ele>22.32018</ele>
        <time>2026-07-23T22:50:56.363000Z</time>
      </trkpt>
      <trkpt lat="39.8702324" lon="116.6827285">
        <ele>22.26906</ele>
        <time>2026-07-23T22:51:00.344000Z</time>
      </trkpt>
      <trkpt lat="39.8701952" lon="116.6828569">
        <ele>22.23706</ele>
        <time>2026-07-23T22:51:04.326000Z</time>
      </trkpt>
      <trkpt lat="39.8701565" lon="116.6829876">
        <ele>22.22909</ele>
        <time>2026-07-23T22:51:08.307000Z</time>
      </trkpt>
      <trkpt lat="39.8701183" lon="116.683119">
        <ele>22.21893</ele>
        <time>2026-07-23T22:51:12.288000Z</time>
      </trkpt>
      <trkpt lat="39.8700833" lon="116.6832532">
        <ele>22.19022</ele>
        <time>2026-07-23T22:51:16.269000Z</time>
      </trkpt>
      <trkpt lat="39.8700537" lon="116.6833893">
        <ele>22.15152</ele>
        <time>2026-07-23T22:51:20.250000Z</time>
      </trkpt>
      <trkpt lat="39.8700219" lon="116.6835249">
        <ele>22.12807</ele>
        <time>2026-07-23T22:51:24.232000Z</time>
      </trkpt>
      <trkpt lat="39.8699873" lon="116.6836585">
        <ele>22.15826</ele>
        <time>2026-07-23T22:51:28.213000Z</time>
      </trkpt>
      <trkpt lat="39.8699539" lon="116.6837942">
        <ele>22.26917</ele>
        <time>2026-07-23T22:51:32.194000Z</time>
      </trkpt>
      <trkpt lat="39.8699179" lon="116.6839303">
        <ele>22.47364</ele>
        <time>2026-07-23T22:51:36.175000Z</time>
      </trkpt>
      <trkpt lat="39.8698765" lon="116.6840621">
        <ele>22.75633</ele>
        <time>2026-07-23T22:51:40.156000Z</time>
      </trkpt>
      <trkpt lat="39.8698388" lon="116.6841848">
        <ele>22.98021</ele>
        <time>2026-07-23T22:51:44Z</time>
      </trkpt>
      <trkpt lat="39.8698011" lon="116.6843109">
        <ele>23.03903</ele>
        <time>2026-07-23T22:51:48Z</time>
      </trkpt>
      <trkpt lat="39.8697643" lon="116.6844374">
        <ele>22.97331</ele>
        <time>2026-07-23T22:51:52Z</time>
      </trkpt>
      <trkpt lat="39.8697243" lon="116.6845699">
        <ele>22.86904</ele>
        <time>2026-07-23T22:51:56.081000Z</time>
      </trkpt>
      <trkpt lat="39.8696862" lon="116.6846995">
        <ele>22.81802</ele>
        <time>2026-07-23T22:52:00.062000Z</time>
      </trkpt>
      <trkpt lat="39.869653" lon="116.6848299">
        <ele>22.80204</ele>
        <time>2026-07-23T22:52:04.043000Z</time>
      </trkpt>
      <trkpt lat="39.8696214" lon="116.6849604">
        <ele>22.77979</ele>
        <time>2026-07-23T22:52:08.025000Z</time>
      </trkpt>
      <trkpt lat="39.8695892" lon="116.6850923">
        <ele>22.72936</ele>
        <time>2026-07-23T22:52:12Z</time>
      </trkpt>
      <trkpt lat="39.8695573" lon="116.6852222">
        <ele>22.58747</ele>
        <time>2026-07-23T22:52:15.987000Z</time>
      </trkpt>
      <trkpt lat="39.8695251" lon="116.6853494">
        <ele>22.39858</ele>
        <time>2026-07-23T22:52:19.968000Z</time>
      </trkpt>
      <trkpt lat="39.8694912" lon="116.6854778">
        <ele>22.22561</ele>
        <time>2026-07-23T22:52:23.949000Z</time>
      </trkpt>
      <trkpt lat="39.8694586" lon="116.6856031">
        <ele>22.12973</ele>
        <time>2026-07-23T22:52:27.930000Z</time>
      </trkpt>
      <trkpt lat="39.8694287" lon="116.6857299">
        <ele>22.11821</ele>
        <time>2026-07-23T22:52:31.912000Z</time>
      </trkpt>
      <trkpt lat="39.8694053" lon="116.6858568">
        <ele>22.16844</ele>
        <time>2026-07-23T22:52:35.893000Z</time>
      </trkpt>
      <trkpt lat="39.8693801" lon="116.6859831">
        <ele>22.23459</ele>
        <time>2026-07-23T22:52:39.874000Z</time>
      </trkpt>
      <trkpt lat="39.8693556" lon="116.686106">
        <ele>22.28057</ele>
        <time>2026-07-23T22:52:43.855000Z</time>
      </trkpt>
      <trkpt lat="39.8693294" lon="116.6862274">
        <ele>22.29341</ele>
        <time>2026-07-23T22:52:47.836000Z</time>
      </trkpt>
      <trkpt lat="39.8693011" lon="116.6863505">
        <ele>22.31384</ele>
        <time>2026-07-23T22:52:51.818000Z</time>
      </trkpt>
      <trkpt lat="39.8692708" lon="116.6864767">
        <ele>22.38311</ele>
        <time>2026-07-23T22:52:55.799000Z</time>
      </trkpt>
      <trkpt lat="39.869238" lon="116.6866023">
        <ele>22.48533</ele>
        <time>2026-07-23T22:52:59.780000Z</time>
      </trkpt>
      <trkpt lat="39.8692039" lon="116.6867327">
        <ele>22.58025</ele>
        <time>2026-07-23T22:53:03.761000Z</time>
      </trkpt>
      <trkpt lat="39.8691681" lon="116.6868611">
        <ele>22.6589</ele>
        <time>2026-07-23T22:53:07.742000Z</time>
      </trkpt>
      <trkpt lat="39.8691333" lon="116.6869873">
        <ele>22.74684</ele>
        <time>2026-07-23T22:53:11.724000Z</time>
      </trkpt>
      <trkpt lat="39.8690998" lon="116.6871153">
        <ele>22.85394</ele>
        <time>2026-07-23T22:53:15.705000Z</time>
      </trkpt>
      <trkpt lat="39.8690638" lon="116.687242">
        <ele>22.96324</ele>
        <time>2026-07-23T22:53:19.686000Z</time>
      </trkpt>
      <trkpt lat="39.8690269" lon="116.6873679">
        <ele>23.04384</ele>
        <time>2026-07-23T22:53:23.667000Z</time>
      </trkpt>
      <trkpt lat="39.8689903" lon="116.6874943">
        <ele>23.07501</ele>
        <time>2026-07-23T22:53:27.648000Z</time>
      </trkpt>
      <trkpt lat="39.8689521" lon="116.6876201">
        <ele>23.02485</ele>
        <time>2026-07-23T22:53:31.630000Z</time>
      </trkpt>
      <trkpt lat="39.8689158" lon="116.6877403">
        <ele>22.88087</ele>
        <time>2026-07-23T22:53:35.611000Z</time>
      </trkpt>
      <trkpt lat="39.868886" lon="116.68786">
        <ele>22.68486</ele>
        <time>2026-07-23T22:53:39.592000Z</time>
      </trkpt>
      <trkpt lat="39.8688568" lon="116.6879738">
        <ele>22.49786</ele>
        <time>2026-07-23T22:53:43.573000Z</time>
      </trkpt>
      <trkpt lat="39.868825" lon="116.6880953">
        <ele>22.34893</ele>
        <time>2026-07-23T22:53:47.554000Z</time>
      </trkpt>
      <trkpt lat="39.8687938" lon="116.6882197">
        <ele>22.26425</ele>
        <time>2026-07-23T22:53:51.535000Z</time>
      </trkpt>
      <trkpt lat="39.8687597" lon="116.6883441">
        <ele>22.22548</ele>
        <time>2026-07-23T22:53:55.517000Z</time>
      </trkpt>
      <trkpt lat="39.8687228" lon="116.6884699">
        <ele>22.20405</ele>
        <time>2026-07-23T22:53:59.498000Z</time>
      </trkpt>
      <trkpt lat="39.8686884" lon="116.6885922">
        <ele>22.2214</ele>
        <time>2026-07-23T22:54:03.479000Z</time>
      </trkpt>
      <trkpt lat="39.8686523" lon="116.688714">
        <ele>22.30312</ele>
        <time>2026-07-23T22:54:07.460000Z</time>
      </trkpt>
      <trkpt lat="39.8686047" lon="116.6888248">
        <ele>22.4576</ele>
        <time>2026-07-23T22:54:11.441000Z</time>
      </trkpt>
      <trkpt lat="39.8685248" lon="116.6888911">
        <ele>22.63537</ele>
        <time>2026-07-23T22:54:15.423000Z</time>
      </trkpt>
      <trkpt lat="39.8684212" lon="116.6889023">
        <ele>22.77486</ele>
        <time>2026-07-23T22:54:19.404000Z</time>
      </trkpt>
      <trkpt lat="39.8683149" lon="116.6888893">
        <ele>22.86986</ele>
        <time>2026-07-23T22:54:23.385000Z</time>
      </trkpt>
      <trkpt lat="39.8682082" lon="116.6888752">
        <ele>22.93289</ele>
        <time>2026-07-23T22:54:27.366000Z</time>
      </trkpt>
      <trkpt lat="39.8681005" lon="116.6888621">
        <ele>22.96969</ele>
        <time>2026-07-23T22:54:31.348000Z</time>
      </trkpt>
      <trkpt lat="39.8679925" lon="116.6888545">
        <ele>22.96848</ele>
        <time>2026-07-23T22:54:35.329000Z</time>
      </trkpt>
      <trkpt lat="39.8678855" lon="116.6888526">
        <ele>22.91924</ele>
        <time>2026-07-23T22:54:39.310000Z</time>
      </trkpt>
      <trkpt lat="39.8677788" lon="116.688858">
        <ele>22.82693</ele>
        <time>2026-07-23T22:54:43.291000Z</time>
      </trkpt>
      <trkpt lat="39.8676721" lon="116.6888703">
        <ele>22.72218</ele>
        <time>2026-07-23T22:54:47.272000Z</time>
      </trkpt>
      <trkpt lat="39.8675657" lon="116.6888884">
        <ele>22.62701</ele>
        <time>2026-07-23T22:54:51.254000Z</time>
      </trkpt>
      <trkpt lat="39.8674586" lon="116.6889096">
        <ele>22.5457</ele>
        <time>2026-07-23T22:54:55.235000Z</time>
      </trkpt>
      <trkpt lat="39.8673531" lon="116.6889308">
        <ele>22.47226</ele>
        <time>2026-07-23T22:54:59.216000Z</time>
      </trkpt>
      <trkpt lat="39.8672489" lon="116.6889541">
        <ele>22.43202</ele>
        <time>2026-07-23T22:55:03.197000Z</time>
      </trkpt>
      <trkpt lat="39.8671472" lon="116.688988">
        <ele>22.44556</ele>
        <time>2026-07-23T22:55:07.178000Z</time>
      </trkpt>
      <trkpt lat="39.8670495" lon="116.6890234">
        <ele>22.49486</ele>
        <time>2026-07-23T22:55:11.001000Z</time>
      </trkpt>
      <trkpt lat="39.8669457" lon="116.6890528">
        <ele>22.51774</ele>
        <time>2026-07-23T22:55:15.001000Z</time>
      </trkpt>
      <trkpt lat="39.8668468" lon="116.6890873">
        <ele>22.48974</ele>
        <time>2026-07-23T22:55:19.001000Z</time>
      </trkpt>
      <trkpt lat="39.8667502" lon="116.6891339">
        <ele>22.42068</ele>
        <time>2026-07-23T22:55:23.001000Z</time>
      </trkpt>
      <trkpt lat="39.8666534" lon="116.6891793">
        <ele>22.33683</ele>
        <time>2026-07-23T22:55:27.001000Z</time>
      </trkpt>
      <trkpt lat="39.866553" lon="116.6892241">
        <ele>22.25513</ele>
        <time>2026-07-23T22:55:31.001000Z</time>
      </trkpt>
      <trkpt lat="39.8664512" lon="116.689266">
        <ele>22.17744</ele>
        <time>2026-07-23T22:55:35.001000Z</time>
      </trkpt>
      <trkpt lat="39.8663517" lon="116.6893057">
        <ele>22.09798</ele>
        <time>2026-07-23T22:55:39.001000Z</time>
      </trkpt>
      <trkpt lat="39.8662528" lon="116.6893454">
        <ele>22.03168</ele>
        <time>2026-07-23T22:55:43.001000Z</time>
      </trkpt>
      <trkpt lat="39.8661559" lon="116.6893907">
        <ele>21.98219</ele>
        <time>2026-07-23T22:55:46.990000Z</time>
      </trkpt>
      <trkpt lat="39.8660594" lon="116.689445">
        <ele>21.96895</ele>
        <time>2026-07-23T22:55:50.972000Z</time>
      </trkpt>
      <trkpt lat="39.8659628" lon="116.6895007">
        <ele>22.00231</ele>
        <time>2026-07-23T22:55:54.953000Z</time>
      </trkpt>
      <trkpt lat="39.8658666" lon="116.6895504">
        <ele>22.05075</ele>
        <time>2026-07-23T22:55:58.934000Z</time>
      </trkpt>
      <trkpt lat="39.865772" lon="116.6895968">
        <ele>22.08243</ele>
        <time>2026-07-23T22:56:02.915000Z</time>
      </trkpt>
      <trkpt lat="39.8656757" lon="116.6896448">
        <ele>22.12648</ele>
        <time>2026-07-23T22:56:06.896000Z</time>
      </trkpt>
      <trkpt lat="39.865579" lon="116.6896964">
        <ele>22.1837</ele>
        <time>2026-07-23T22:56:10.878000Z</time>
      </trkpt>
      <trkpt lat="39.8654847" lon="116.6897485">
        <ele>22.19504</ele>
        <time>2026-07-23T22:56:14.859000Z</time>
      </trkpt>
      <trkpt lat="39.8653904" lon="116.6898012">
        <ele>22.13673</ele>
        <time>2026-07-23T22:56:18.840000Z</time>
      </trkpt>
      <trkpt lat="39.8652976" lon="116.6898599">
        <ele>22.02374</ele>
        <time>2026-07-23T22:56:22.821000Z</time>
      </trkpt>
      <trkpt lat="39.865204" lon="116.6899081">
        <ele>21.89795</ele>
        <time>2026-07-23T22:56:26.802000Z</time>
      </trkpt>
      <trkpt lat="39.8651067" lon="116.6899491">
        <ele>21.77372</ele>
        <time>2026-07-23T22:56:30.784000Z</time>
      </trkpt>
      <trkpt lat="39.8650088" lon="116.689986">
        <ele>21.66301</ele>
        <time>2026-07-23T22:56:34.765000Z</time>
      </trkpt>
      <trkpt lat="39.8649088" lon="116.6900222">
        <ele>21.56505</ele>
        <time>2026-07-23T22:56:38.746000Z</time>
      </trkpt>
      <trkpt lat="39.8648105" lon="116.6900588">
        <ele>21.48141</ele>
        <time>2026-07-23T22:56:42.727000Z</time>
      </trkpt>
      <trkpt lat="39.8647104" lon="116.6900974">
        <ele>21.41598</ele>
        <time>2026-07-23T22:56:46.708000Z</time>
      </trkpt>
      <trkpt lat="39.8646097" lon="116.6901386">
        <ele>21.37716</ele>
        <time>2026-07-23T22:56:50.690000Z</time>
      </trkpt>
      <trkpt lat="39.8645096" lon="116.6901879">
        <ele>21.36754</ele>
        <time>2026-07-23T22:56:54.671000Z</time>
      </trkpt>
      <trkpt lat="39.8644111" lon="116.690239">
        <ele>21.40191</ele>
        <time>2026-07-23T22:56:58.652000Z</time>
      </trkpt>
      <trkpt lat="39.8643106" lon="116.6902861">
        <ele>21.47881</ele>
        <time>2026-07-23T22:57:02.633000Z</time>
      </trkpt>
      <trkpt lat="39.8642078" lon="116.6903287">
        <ele>21.57689</ele>
        <time>2026-07-23T22:57:06.614000Z</time>
      </trkpt>
      <trkpt lat="39.8641066" lon="116.6903766">
        <ele>21.65057</ele>
        <time>2026-07-23T22:57:10.596000Z</time>
      </trkpt>
      <trkpt lat="39.8640059" lon="116.6904246">
        <ele>21.69461</ele>
        <time>2026-07-23T22:57:14.577000Z</time>
      </trkpt>
      <trkpt lat="39.8639041" lon="116.6904693">
        <ele>21.72434</ele>
        <time>2026-07-23T22:57:18.558000Z</time>
      </trkpt>
      <trkpt lat="39.8638018" lon="116.6905097">
        <ele>21.76578</ele>
        <time>2026-07-23T22:57:22.539000Z</time>
      </trkpt>
      <trkpt lat="39.8637005" lon="116.6905518">
        <ele>21.83965</ele>
        <time>2026-07-23T22:57:26.520000Z</time>
      </trkpt>
      <trkpt lat="39.8635983" lon="116.6905976">
        <ele>21.90776</ele>
        <time>2026-07-23T22:57:30.502000Z</time>
      </trkpt>
      <trkpt lat="39.8634966" lon="116.6906398">
        <ele>21.93938</ele>
        <time>2026-07-23T22:57:34.483000Z</time>
      </trkpt>
      <trkpt lat="39.8633953" lon="116.690686">
        <ele>21.95635</ele>
        <time>2026-07-23T22:57:38.464000Z</time>
      </trkpt>
      <trkpt lat="39.8632933" lon="116.6907318">
        <ele>21.98795</ele>
        <time>2026-07-23T22:57:42.445000Z</time>
      </trkpt>
      <trkpt lat="39.8631919" lon="116.6907765">
        <ele>22.04266</ele>
        <time>2026-07-23T22:57:46.427000Z</time>
      </trkpt>
      <trkpt lat="39.8630948" lon="116.6908151">
        <ele>22.07264</ele>
        <time>2026-07-23T22:57:50.408000Z</time>
      </trkpt>
      <trkpt lat="39.8629961" lon="116.690856">
        <ele>22.05512</ele>
        <time>2026-07-23T22:57:54.389000Z</time>
      </trkpt>
      <trkpt lat="39.8628957" lon="116.6908964">
        <ele>22.00591</ele>
        <time>2026-07-23T22:57:58.370000Z</time>
      </trkpt>
      <trkpt lat="39.8627922" lon="116.6909226">
        <ele>21.95334</ele>
        <time>2026-07-23T22:58:02.351000Z</time>
      </trkpt>
      <trkpt lat="39.8626945" lon="116.6909038">
        <ele>21.92367</ele>
        <time>2026-07-23T22:58:06.333000Z</time>
      </trkpt>
      <trkpt lat="39.862627" lon="116.6908156">
        <ele>21.90283</ele>
        <time>2026-07-23T22:58:10.314000Z</time>
      </trkpt>
      <trkpt lat="39.8625897" lon="116.6907023">
        <ele>21.85016</ele>
        <time>2026-07-23T22:58:14.295000Z</time>
      </trkpt>
      <trkpt lat="39.8625702" lon="116.6905677">
        <ele>21.73371</ele>
        <time>2026-07-23T22:58:19.272000Z</time>
      </trkpt>
      <trkpt lat="39.8625639" lon="116.6904434">
        <ele>21.60728</ele>
        <time>2026-07-23T22:58:24.248000Z</time>
      </trkpt>
      <trkpt lat="39.8625368" lon="116.6903208">
        <ele>21.52417</ele>
        <time>2026-07-23T22:58:29.225000Z</time>
      </trkpt>
      <trkpt lat="39.8624918" lon="116.6902011">
        <ele>21.50865</ele>
        <time>2026-07-23T22:58:34.201000Z</time>
      </trkpt>
      <trkpt lat="39.8624558" lon="116.6900919">
        <ele>21.57057</ele>
        <time>2026-07-23T22:58:39.001000Z</time>
      </trkpt>
      <trkpt lat="39.862418" lon="116.6899736">
        <ele>21.70276</ele>
        <time>2026-07-23T22:58:44.155000Z</time>
      </trkpt>
      <trkpt lat="39.8623799" lon="116.6898563">
        <ele>21.817</ele>
        <time>2026-07-23T22:58:49.001000Z</time>
      </trkpt>
      <trkpt lat="39.8623351" lon="116.6897373">
        <ele>21.8724</ele>
        <time>2026-07-23T22:58:54.001000Z</time>
      </trkpt>
      <trkpt lat="39.8622872" lon="116.6896154">
        <ele>21.88657</ele>
        <time>2026-07-23T22:58:59.001000Z</time>
      </trkpt>
      <trkpt lat="39.8622341" lon="116.6895002">
        <ele>21.85276</ele>
        <time>2026-07-23T22:59:04.061000Z</time>
      </trkpt>
      <trkpt lat="39.8621883" lon="116.6893878">
        <ele>21.82547</ele>
        <time>2026-07-23T22:59:09.038000Z</time>
      </trkpt>
      <trkpt lat="39.8621595" lon="116.6892765">
        <ele>21.88414</ele>
        <time>2026-07-23T22:59:14.014000Z</time>
      </trkpt>
      <trkpt lat="39.8621383" lon="116.6891614">
        <ele>21.95318</ele>
        <time>2026-07-23T22:59:18.991000Z</time>
      </trkpt>
      <trkpt lat="39.8621007" lon="116.6890411">
        <ele>21.93722</ele>
        <time>2026-07-23T22:59:23.967000Z</time>
      </trkpt>
      <trkpt lat="39.8620636" lon="116.6889279">
        <ele>21.89645</ele>
        <time>2026-07-23T22:59:28.944000Z</time>
      </trkpt>
      <trkpt lat="39.8620308" lon="116.6888099">
        <ele>21.85777</ele>
        <time>2026-07-23T22:59:33.921000Z</time>
      </trkpt>
      <trkpt lat="39.861997" lon="116.6886862">
        <ele>21.83609</ele>
        <time>2026-07-23T22:59:38.897000Z</time>
      </trkpt>
      <trkpt lat="39.8619597" lon="116.6885617">
        <ele>21.83286</ele>
        <time>2026-07-23T22:59:43.874000Z</time>
      </trkpt>
      <trkpt lat="39.8619283" lon="116.6884333">
        <ele>21.85183</ele>
        <time>2026-07-23T22:59:48.851000Z</time>
      </trkpt>
      <trkpt lat="39.8618957" lon="116.6883033">
        <ele>21.8411</ele>
        <time>2026-07-23T22:59:53.827000Z</time>
      </trkpt>
      <trkpt lat="39.8618553" lon="116.6881718">
        <ele>21.75228</ele>
        <time>2026-07-23T22:59:58.804000Z</time>
      </trkpt>
      <trkpt lat="39.8618313" lon="116.6880561">
        <ele>21.64752</ele>
        <time>2026-07-23T23:00:02.785000Z</time>
      </trkpt>
      <trkpt lat="39.8618121" lon="116.6879323">
        <ele>21.56746</ele>
        <time>2026-07-23T23:00:06.766000Z</time>
      </trkpt>
      <trkpt lat="39.8617882" lon="116.6878103">
        <ele>21.5573</ele>
        <time>2026-07-23T23:00:10.748000Z</time>
      </trkpt>
      <trkpt lat="39.8617576" lon="116.6876878">
        <ele>21.62366</ele>
        <time>2026-07-23T23:00:14.729000Z</time>
      </trkpt>
      <trkpt lat="39.8617255" lon="116.6875659">
        <ele>21.74408</ele>
        <time>2026-07-23T23:00:18.710000Z</time>
      </trkpt>
      <trkpt lat="39.8616933" lon="116.687443">
        <ele>21.86519</ele>
        <time>2026-07-23T23:00:22.692000Z</time>
      </trkpt>
      <trkpt lat="39.8616666" lon="116.6873204">
        <ele>21.93341</ele>
        <time>2026-07-23T23:00:26.673000Z</time>
      </trkpt>
      <trkpt lat="39.8616531" lon="116.6871955">
        <ele>21.92015</ele>
        <time>2026-07-23T23:00:30.654000Z</time>
      </trkpt>
      <trkpt lat="39.8616432" lon="116.6870746">
        <ele>21.84362</ele>
        <time>2026-07-23T23:00:34.636000Z</time>
      </trkpt>
      <trkpt lat="39.861636" lon="116.686953">
        <ele>21.76115</ele>
        <time>2026-07-23T23:00:38.617000Z</time>
      </trkpt>
      <trkpt lat="39.8616261" lon="116.6868329">
        <ele>21.71669</ele>
        <time>2026-07-23T23:00:42.598000Z</time>
      </trkpt>
      <trkpt lat="39.8616184" lon="116.6867126">
        <ele>21.72521</ele>
        <time>2026-07-23T23:00:46.580000Z</time>
      </trkpt>
      <trkpt lat="39.8616123" lon="116.6865953">
        <ele>21.77915</ele>
        <time>2026-07-23T23:00:50.561000Z</time>
      </trkpt>
      <trkpt lat="39.8616043" lon="116.6864767">
        <ele>21.85404</ele>
        <time>2026-07-23T23:00:54.542000Z</time>
      </trkpt>
      <trkpt lat="39.8615958" lon="116.6863571">
        <ele>21.93819</ele>
        <time>2026-07-23T23:00:58.524000Z</time>
      </trkpt>
      <trkpt lat="39.8615929" lon="116.6862357">
        <ele>22.02601</ele>
        <time>2026-07-23T23:01:02.505000Z</time>
      </trkpt>
      <trkpt lat="39.8615931" lon="116.6861145">
        <ele>22.10686</ele>
        <time>2026-07-23T23:01:06.486000Z</time>
      </trkpt>
      <trkpt lat="39.8615899" lon="116.685993">
        <ele>22.17915</ele>
        <time>2026-07-23T23:01:10.467000Z</time>
      </trkpt>
      <trkpt lat="39.861586" lon="116.6858717">
        <ele>22.23717</ele>
        <time>2026-07-23T23:01:14.449000Z</time>
      </trkpt>
      <trkpt lat="39.8615816" lon="116.6857482">
        <ele>22.26183</ele>
        <time>2026-07-23T23:01:18.430000Z</time>
      </trkpt>
      <trkpt lat="39.8615762" lon="116.6856218">
        <ele>22.24707</ele>
        <time>2026-07-23T23:01:22.411000Z</time>
      </trkpt>
      <trkpt lat="39.8615744" lon="116.6854973">
        <ele>22.21952</ele>
        <time>2026-07-23T23:01:26.393000Z</time>
      </trkpt>
      <trkpt lat="39.8615737" lon="116.6853692">
        <ele>22.22017</ele>
        <time>2026-07-23T23:01:30.374000Z</time>
      </trkpt>
      <trkpt lat="39.8615717" lon="116.6852409">
        <ele>22.2574</ele>
        <time>2026-07-23T23:01:34.355000Z</time>
      </trkpt>
      <trkpt lat="39.8615653" lon="116.685112">
        <ele>22.29592</ele>
        <time>2026-07-23T23:01:38.336000Z</time>
      </trkpt>
      <trkpt lat="39.8615544" lon="116.6849858">
        <ele>22.33262</ele>
        <time>2026-07-23T23:01:42.318000Z</time>
      </trkpt>
      <trkpt lat="39.8615462" lon="116.6848611">
        <ele>22.39415</ele>
        <time>2026-07-23T23:01:46.299000Z</time>
      </trkpt>
      <trkpt lat="39.8615443" lon="116.684738">
        <ele>22.47045</ele>
        <time>2026-07-23T23:01:50.280000Z</time>
      </trkpt>
      <trkpt lat="39.8615419" lon="116.6846165">
        <ele>22.52573</ele>
        <time>2026-07-23T23:01:54.262000Z</time>
      </trkpt>
      <trkpt lat="39.8615373" lon="116.684492">
        <ele>22.60059</ele>
        <time>2026-07-23T23:01:58.243000Z</time>
      </trkpt>
      <trkpt lat="39.8615369" lon="116.684368">
        <ele>22.74387</ele>
        <time>2026-07-23T23:02:02.224000Z</time>
      </trkpt>
      <trkpt lat="39.8615442" lon="116.6842458">
        <ele>22.92172</ele>
        <time>2026-07-23T23:02:06.205000Z</time>
      </trkpt>
      <trkpt lat="39.8615565" lon="116.6841291">
        <ele>23.03789</ele>
        <time>2026-07-23T23:02:10Z</time>
      </trkpt>
      <trkpt lat="39.8615727" lon="116.6840011">
        <ele>22.97904</ele>
        <time>2026-07-23T23:02:14.168000Z</time>
      </trkpt>
      <trkpt lat="39.8615893" lon="116.6838815">
        <ele>22.86147</ele>
        <time>2026-07-23T23:02:18.149000Z</time>
      </trkpt>
      <trkpt lat="39.8616121" lon="116.683758">
        <ele>22.82863</ele>
        <time>2026-07-23T23:02:23.126000Z</time>
      </trkpt>
      <trkpt lat="39.8616589" lon="116.6836567">
        <ele>22.6687</ele>
        <time>2026-07-23T23:02:33.079000Z</time>
      </trkpt>
      <trkpt lat="39.8617501" lon="116.6836302">
        <ele>22.39162</ele>
        <time>2026-07-23T23:02:43.032000Z</time>
      </trkpt>
      <trkpt lat="39.861733" lon="116.6836391">
        <ele>22.51893</ele>
        <time>2026-07-23T23:02:52.985000Z</time>
      </trkpt>
      <trkpt lat="39.8617554" lon="116.68363">
        <ele>22.58382</ele>
        <time>2026-07-23T23:02:57.962000Z</time>
      </trkpt>
      <trkpt lat="39.8618518" lon="116.6836289">
        <ele>22.61596</ele>
        <time>2026-07-23T23:03:03.934000Z</time>
      </trkpt>
      <trkpt lat="39.8619433" lon="116.6836302">
        <ele>22.61719</ele>
        <time>2026-07-23T23:03:07.915000Z</time>
      </trkpt>
      <trkpt lat="39.8620428" lon="116.6836217">
        <ele>22.61909</ele>
        <time>2026-07-23T23:03:11.896000Z</time>
      </trkpt>
      <trkpt lat="39.8621377" lon="116.6836071">
        <ele>22.64311</ele>
        <time>2026-07-23T23:03:15.878000Z</time>
      </trkpt>
      <trkpt lat="39.8622327" lon="116.6836063">
        <ele>22.69207</ele>
        <time>2026-07-23T23:03:19.859000Z</time>
      </trkpt>
      <trkpt lat="39.8623289" lon="116.6836068">
        <ele>22.79262</ele>
        <time>2026-07-23T23:03:23.840000Z</time>
      </trkpt>
      <trkpt lat="39.8624274" lon="116.6836094">
        <ele>22.95059</ele>
        <time>2026-07-23T23:03:27.822000Z</time>
      </trkpt>
      <trkpt lat="39.8625258" lon="116.6836109">
        <ele>23.13005</ele>
        <time>2026-07-23T23:03:31.803000Z</time>
      </trkpt>
      <trkpt lat="39.8626177" lon="116.6836131">
        <ele>23.2717</ele>
        <time>2026-07-23T23:03:35.784000Z</time>
      </trkpt>
      <trkpt lat="39.8627307" lon="116.683616">
        <ele>23.36465</ele>
        <time>2026-07-23T23:03:40.761000Z</time>
      </trkpt>
      <trkpt lat="39.862826" lon="116.6836169">
        <ele>23.39378</ele>
        <time>2026-07-23T23:03:44.742000Z</time>
      </trkpt>
      <trkpt lat="39.862921" lon="116.6836161">
        <ele>23.4204</ele>
        <time>2026-07-23T23:03:48.723000Z</time>
      </trkpt>
      <trkpt lat="39.863019" lon="116.6836085">
        <ele>23.44148</ele>
        <time>2026-07-23T23:03:52.704000Z</time>
      </trkpt>
      <trkpt lat="39.8631164" lon="116.6836025">
        <ele>23.43959</ele>
        <time>2026-07-23T23:03:56.686000Z</time>
      </trkpt>
      <trkpt lat="39.8632098" lon="116.6836067">
        <ele>23.3946</ele>
        <time>2026-07-23T23:04:00.667000Z</time>
      </trkpt>
      <trkpt lat="39.8633198" lon="116.6836182">
        <ele>23.27759</ele>
        <time>2026-07-23T23:04:05.643000Z</time>
      </trkpt>
      <trkpt lat="39.8634192" lon="116.6836189">
        <ele>23.14353</ele>
        <time>2026-07-23T23:04:09.625000Z</time>
      </trkpt>
      <trkpt lat="39.8635182" lon="116.6836179">
        <ele>22.96882</ele>
        <time>2026-07-23T23:04:13.606000Z</time>
      </trkpt>
      <trkpt lat="39.863617" lon="116.6836162">
        <ele>22.79281</ele>
        <time>2026-07-23T23:04:17.587000Z</time>
      </trkpt>
      <trkpt lat="39.8637176" lon="116.6836112">
        <ele>22.64444</ele>
        <time>2026-07-23T23:04:21.568000Z</time>
      </trkpt>
      <trkpt lat="39.8638168" lon="116.6836043">
        <ele>22.5365</ele>
        <time>2026-07-23T23:04:25.550000Z</time>
      </trkpt>
      <trkpt lat="39.8639097" lon="116.6836025">
        <ele>22.47395</ele>
        <time>2026-07-23T23:04:29.531000Z</time>
      </trkpt>
      <trkpt lat="39.8640018" lon="116.6836012">
        <ele>22.43976</ele>
        <time>2026-07-23T23:04:33.512000Z</time>
      </trkpt>
      <trkpt lat="39.8640988" lon="116.6835968">
        <ele>22.41437</ele>
        <time>2026-07-23T23:04:37.493000Z</time>
      </trkpt>
      <trkpt lat="39.864198" lon="116.6835884">
        <ele>22.40694</ele>
        <time>2026-07-23T23:04:41.475000Z</time>
      </trkpt>
      <trkpt lat="39.8642968" lon="116.6835882">
        <ele>22.44187</ele>
        <time>2026-07-23T23:04:45.456000Z</time>
      </trkpt>
      <trkpt lat="39.864394" lon="116.6835919">
        <ele>22.49346</ele>
        <time>2026-07-23T23:04:49.437000Z</time>
      </trkpt>
      <trkpt lat="39.8644926" lon="116.6835967">
        <ele>22.5058</ele>
        <time>2026-07-23T23:04:53.418000Z</time>
      </trkpt>
      <trkpt lat="39.864595" lon="116.6835982">
        <ele>22.46714</ele>
        <time>2026-07-23T23:04:57.400000Z</time>
      </trkpt>
      <trkpt lat="39.8646964" lon="116.6835968">
        <ele>22.43332</ele>
        <time>2026-07-23T23:05:01.381000Z</time>
      </trkpt>
      <trkpt lat="39.8647963" lon="116.6836028">
        <ele>22.43534</ele>
        <time>2026-07-23T23:05:05.362000Z</time>
      </trkpt>
      <trkpt lat="39.8648961" lon="116.683611">
        <ele>22.45804</ele>
        <time>2026-07-23T23:05:09.343000Z</time>
      </trkpt>
      <trkpt lat="39.864998" lon="116.6836266">
        <ele>22.50329</ele>
        <time>2026-07-23T23:05:13.325000Z</time>
      </trkpt>
      <trkpt lat="39.8650988" lon="116.6836457">
        <ele>22.56073</ele>
        <time>2026-07-23T23:05:17.306000Z</time>
      </trkpt>
      <trkpt lat="39.8651949" lon="116.6836531">
        <ele>22.60204</ele>
        <time>2026-07-23T23:05:21.287000Z</time>
      </trkpt>
      <trkpt lat="39.8652731" lon="116.6835743">
        <ele>22.57917</ele>
        <time>2026-07-23T23:05:26.264000Z</time>
      </trkpt>
      <trkpt lat="39.865278" lon="116.6834461">
        <ele>22.50163</ele>
        <time>2026-07-23T23:05:30.245000Z</time>
      </trkpt>
      <trkpt lat="39.8652704" lon="116.6833124">
        <ele>22.38686</ele>
        <time>2026-07-23T23:05:34.226000Z</time>
      </trkpt>
      <trkpt lat="39.8652641" lon="116.6831761">
        <ele>22.25027</ele>
        <time>2026-07-23T23:05:38.207000Z</time>
      </trkpt>
      <trkpt lat="39.8652543" lon="116.6830424">
        <ele>22.10459</ele>
        <time>2026-07-23T23:05:42.189000Z</time>
      </trkpt>
      <trkpt lat="39.865255" lon="116.6829092">
        <ele>21.98252</ele>
        <time>2026-07-23T23:05:46.170000Z</time>
      </trkpt>
      <trkpt lat="39.86526" lon="116.682781">
        <ele>21.96262</ele>
        <time>2026-07-23T23:05:50.151000Z</time>
      </trkpt>
      <trkpt lat="39.8652605" lon="116.6826516">
        <ele>22.10629</ele>
        <time>2026-07-23T23:05:54.132000Z</time>
      </trkpt>
      <trkpt lat="39.8652547" lon="116.6825285">
        <ele>22.37428</ele>
        <time>2026-07-23T23:05:58.114000Z</time>
      </trkpt>
      <trkpt lat="39.865236" lon="116.6823852">
        <ele>22.60832</ele>
        <time>2026-07-23T23:06:03Z</time>
      </trkpt>
      <trkpt lat="39.8652291" lon="116.6822636">
        <ele>22.62446</ele>
        <time>2026-07-23T23:06:07Z</time>
      </trkpt>
      <trkpt lat="39.8652222" lon="116.6821353">
        <ele>22.56164</ele>
        <time>2026-07-23T23:06:11.053000Z</time>
      </trkpt>
      <trkpt lat="39.8652056" lon="116.6820117">
        <ele>22.41954</ele>
        <time>2026-07-23T23:06:15Z</time>
      </trkpt>
      <trkpt lat="39.8652007" lon="116.6818849">
        <ele>22.12194</ele>
        <time>2026-07-23T23:06:19.015000Z</time>
      </trkpt>
      <trkpt lat="39.8652009" lon="116.6817551">
        <ele>21.82046</ele>
        <time>2026-07-23T23:06:22.996000Z</time>
      </trkpt>
      <trkpt lat="39.8652005" lon="116.6816229">
        <ele>21.61953</ele>
        <time>2026-07-23T23:06:26.978000Z</time>
      </trkpt>
      <trkpt lat="39.8652005" lon="116.6814918">
        <ele>21.51748</ele>
        <time>2026-07-23T23:06:30.959000Z</time>
      </trkpt>
      <trkpt lat="39.8651998" lon="116.681361">
        <ele>21.47974</ele>
        <time>2026-07-23T23:06:34.940000Z</time>
      </trkpt>
      <trkpt lat="39.8652003" lon="116.6812311">
        <ele>21.46649</ele>
        <time>2026-07-23T23:06:38.921000Z</time>
      </trkpt>
      <trkpt lat="39.8652022" lon="116.6811006">
        <ele>21.48003</ele>
        <time>2026-07-23T23:06:42.903000Z</time>
      </trkpt>
      <trkpt lat="39.8652031" lon="116.6809726">
        <ele>21.52835</ele>
        <time>2026-07-23T23:06:46.884000Z</time>
      </trkpt>
      <trkpt lat="39.8652009" lon="116.6808434">
        <ele>21.57955</ele>
        <time>2026-07-23T23:06:50.865000Z</time>
      </trkpt>
      <trkpt lat="39.8652001" lon="116.6807161">
        <ele>21.62353</ele>
        <time>2026-07-23T23:06:54.846000Z</time>
      </trkpt>
      <trkpt lat="39.8652006" lon="116.6805865">
        <ele>21.65934</ele>
        <time>2026-07-23T23:06:58.827000Z</time>
      </trkpt>
      <trkpt lat="39.8651994" lon="116.680455">
        <ele>21.68198</ele>
        <time>2026-07-23T23:07:02.809000Z</time>
      </trkpt>
      <trkpt lat="39.865196" lon="116.6803222">
        <ele>21.71732</ele>
        <time>2026-07-23T23:07:06.790000Z</time>
      </trkpt>
      <trkpt lat="39.8651928" lon="116.6801897">
        <ele>21.79386</ele>
        <time>2026-07-23T23:07:10.771000Z</time>
      </trkpt>
      <trkpt lat="39.8651925" lon="116.6800572">
        <ele>21.91213</ele>
        <time>2026-07-23T23:07:14.752000Z</time>
      </trkpt>
      <trkpt lat="39.8651932" lon="116.6799279">
        <ele>22.04051</ele>
        <time>2026-07-23T23:07:18.734000Z</time>
      </trkpt>
      <trkpt lat="39.8651912" lon="116.6797968">
        <ele>22.16852</ele>
        <time>2026-07-23T23:07:22.715000Z</time>
      </trkpt>
      <trkpt lat="39.865188" lon="116.6796622">
        <ele>22.2941</ele>
        <time>2026-07-23T23:07:26.696000Z</time>
      </trkpt>
      <trkpt lat="39.8651879" lon="116.6795278">
        <ele>22.40988</ele>
        <time>2026-07-23T23:07:30.677000Z</time>
      </trkpt>
      <trkpt lat="39.8651878" lon="116.6793886">
        <ele>22.51746</ele>
        <time>2026-07-23T23:07:34.659000Z</time>
      </trkpt>
      <trkpt lat="39.8651833" lon="116.6792523">
        <ele>22.631</ele>
        <time>2026-07-23T23:07:38.640000Z</time>
      </trkpt>
      <trkpt lat="39.8651794" lon="116.6791178">
        <ele>22.77163</ele>
        <time>2026-07-23T23:07:42.621000Z</time>
      </trkpt>
      <trkpt lat="39.8651718" lon="116.6789841">
        <ele>22.93784</ele>
        <time>2026-07-23T23:07:46.602000Z</time>
      </trkpt>
      <trkpt lat="39.8651684" lon="116.6788465">
        <ele>23.09631</ele>
        <time>2026-07-23T23:07:50.584000Z</time>
      </trkpt>
      <trkpt lat="39.8651689" lon="116.6787142">
        <ele>23.17529</ele>
        <time>2026-07-23T23:07:54.565000Z</time>
      </trkpt>
      <trkpt lat="39.8651676" lon="116.6785844">
        <ele>23.17277</ele>
        <time>2026-07-23T23:07:58.546000Z</time>
      </trkpt>
      <trkpt lat="39.8651671" lon="116.6784548">
        <ele>23.12715</ele>
        <time>2026-07-23T23:08:02.527000Z</time>
      </trkpt>
      <trkpt lat="39.8651695" lon="116.6783274">
        <ele>23.1003</ele>
        <time>2026-07-23T23:08:06.508000Z</time>
      </trkpt>
      <trkpt lat="39.8651764" lon="116.6782036">
        <ele>23.13734</ele>
        <time>2026-07-23T23:08:10.490000Z</time>
      </trkpt>
      <trkpt lat="39.8651877" lon="116.6780775">
        <ele>23.25868</ele>
        <time>2026-07-23T23:08:14.471000Z</time>
      </trkpt>
      <trkpt lat="39.8651888" lon="116.6779512">
        <ele>23.42292</ele>
        <time>2026-07-23T23:08:18.452000Z</time>
      </trkpt>
      <trkpt lat="39.8651835" lon="116.6778272">
        <ele>23.56549</ele>
        <time>2026-07-23T23:08:22.433000Z</time>
      </trkpt>
      <trkpt lat="39.8651811" lon="116.6777018">
        <ele>23.67829</ele>
        <time>2026-07-23T23:08:26.415000Z</time>
      </trkpt>
      <trkpt lat="39.8651799" lon="116.6775718">
        <ele>23.77532</ele>
        <time>2026-07-23T23:08:30.396000Z</time>
      </trkpt>
      <trkpt lat="39.8651805" lon="116.6774416">
        <ele>23.8629</ele>
        <time>2026-07-23T23:08:34.377000Z</time>
      </trkpt>
      <trkpt lat="39.8651815" lon="116.6773125">
        <ele>23.93303</ele>
        <time>2026-07-23T23:08:38.358000Z</time>
      </trkpt>
      <trkpt lat="39.8651818" lon="116.6771801">
        <ele>23.97427</ele>
        <time>2026-07-23T23:08:42.339000Z</time>
      </trkpt>
      <trkpt lat="39.8651846" lon="116.6770471">
        <ele>23.96517</ele>
        <time>2026-07-23T23:08:46.321000Z</time>
      </trkpt>
      <trkpt lat="39.8651864" lon="116.6769145">
        <ele>23.93022</ele>
        <time>2026-07-23T23:08:50.302000Z</time>
      </trkpt>
      <trkpt lat="39.8651867" lon="116.6767819">
        <ele>23.89961</ele>
        <time>2026-07-23T23:08:54.283000Z</time>
      </trkpt>
      <trkpt lat="39.8651891" lon="116.6766469">
        <ele>23.90485</ele>
        <time>2026-07-23T23:08:58.264000Z</time>
      </trkpt>
      <trkpt lat="39.8651929" lon="116.6765114">
        <ele>23.95483</ele>
        <time>2026-07-23T23:09:02.246000Z</time>
      </trkpt>
      <trkpt lat="39.8652007" lon="116.6763789">
        <ele>24.04817</ele>
        <time>2026-07-23T23:09:06.227000Z</time>
      </trkpt>
      <trkpt lat="39.8652063" lon="116.6762529">
        <ele>24.1496</ele>
        <time>2026-07-23T23:09:10.208000Z</time>
      </trkpt>
      <trkpt lat="39.8652032" lon="116.6761285">
        <ele>24.21787</ele>
        <time>2026-07-23T23:09:14.189000Z</time>
      </trkpt>
      <trkpt lat="39.8651857" lon="116.6760059">
        <ele>24.23211</ele>
        <time>2026-07-23T23:09:18.170000Z</time>
      </trkpt>
      <trkpt lat="39.8651788" lon="116.6758827">
        <ele>24.21221</ele>
        <time>2026-07-23T23:09:22.152000Z</time>
      </trkpt>
      <trkpt lat="39.865176" lon="116.675756">
        <ele>24.16152</ele>
        <time>2026-07-23T23:09:26.133000Z</time>
      </trkpt>
      <trkpt lat="39.865178" lon="116.6756297">
        <ele>24.08691</ele>
        <time>2026-07-23T23:09:30.114000Z</time>
      </trkpt>
      <trkpt lat="39.8651892" lon="116.6755052">
        <ele>24.00902</ele>
        <time>2026-07-23T23:09:34.095000Z</time>
      </trkpt>
      <trkpt lat="39.8652105" lon="116.6753807">
        <ele>23.96086</ele>
        <time>2026-07-23T23:09:38.077000Z</time>
      </trkpt>
      <trkpt lat="39.8652432" lon="116.6752618">
        <ele>23.9493</ele>
        <time>2026-07-23T23:09:42.058000Z</time>
      </trkpt>
      <trkpt lat="39.8653123" lon="116.6751782">
        <ele>23.96524</ele>
        <time>2026-07-23T23:09:46.039000Z</time>
      </trkpt>
      <trkpt lat="39.86541" lon="116.6751426">
        <ele>23.99894</ele>
        <time>2026-07-23T23:09:50.020000Z</time>
      </trkpt>
      <trkpt lat="39.8655161" lon="116.6751281">
        <ele>24.03784</ele>
        <time>2026-07-23T23:09:54.002000Z</time>
      </trkpt>
      <trkpt lat="39.8656225" lon="116.6751179">
        <ele>24.07258</ele>
        <time>2026-07-23T23:09:57.983000Z</time>
      </trkpt>
      <trkpt lat="39.8657256" lon="116.6751117">
        <ele>24.10687</ele>
        <time>2026-07-23T23:10:01.964000Z</time>
      </trkpt>
      <trkpt lat="39.8658291" lon="116.6751036">
        <ele>24.1604</ele>
        <time>2026-07-23T23:10:05.945000Z</time>
      </trkpt>
      <trkpt lat="39.8659368" lon="116.6750954">
        <ele>24.23171</ele>
        <time>2026-07-23T23:10:09.926000Z</time>
      </trkpt>
      <trkpt lat="39.8660404" lon="116.6750915">
        <ele>24.31717</ele>
        <time>2026-07-23T23:10:13.908000Z</time>
      </trkpt>
      <trkpt lat="39.8661426" lon="116.6750831">
        <ele>24.39604</ele>
        <time>2026-07-23T23:10:17.889000Z</time>
      </trkpt>
      <trkpt lat="39.866243" lon="116.6750839">
        <ele>24.4486</ele>
        <time>2026-07-23T23:10:21.870000Z</time>
      </trkpt>
      <trkpt lat="39.8663453" lon="116.6750863">
        <ele>24.46278</ele>
        <time>2026-07-23T23:10:25.851000Z</time>
      </trkpt>
      <trkpt lat="39.8664479" lon="116.6750833">
        <ele>24.42886</ele>
        <time>2026-07-23T23:10:29.832000Z</time>
      </trkpt>
      <trkpt lat="39.8665468" lon="116.675078">
        <ele>24.37356</ele>
        <time>2026-07-23T23:10:33.814000Z</time>
      </trkpt>
      <trkpt lat="39.8666436" lon="116.6750746">
        <ele>24.32632</ele>
        <time>2026-07-23T23:10:37.795000Z</time>
      </trkpt>
      <trkpt lat="39.8667375" lon="116.6750747">
        <ele>24.29755</ele>
        <time>2026-07-23T23:10:41.776000Z</time>
      </trkpt>
      <trkpt lat="39.8668293" lon="116.6750725">
        <ele>24.2836</ele>
        <time>2026-07-23T23:10:45.757000Z</time>
      </trkpt>
      <trkpt lat="39.8669238" lon="116.6750678">
        <ele>24.26094</ele>
        <time>2026-07-23T23:10:49.738000Z</time>
      </trkpt>
      <trkpt lat="39.8670204" lon="116.6750696">
        <ele>24.1952</ele>
        <time>2026-07-23T23:10:53.720000Z</time>
      </trkpt>
      <trkpt lat="39.8671127" lon="116.675071">
        <ele>24.06328</ele>
        <time>2026-07-23T23:10:57.701000Z</time>
      </trkpt>
      <trkpt lat="39.8672087" lon="116.6750748">
        <ele>23.89582</ele>
        <time>2026-07-23T23:11:01.682000Z</time>
      </trkpt>
      <trkpt lat="39.8673062" lon="116.6750766">
        <ele>23.7342</ele>
        <time>2026-07-23T23:11:05.663000Z</time>
      </trkpt>
      <trkpt lat="39.8674026" lon="116.6750802">
        <ele>23.61881</ele>
        <time>2026-07-23T23:11:09.645000Z</time>
      </trkpt>
      <trkpt lat="39.8675001" lon="116.6750876">
        <ele>23.5611</ele>
        <time>2026-07-23T23:11:13.626000Z</time>
      </trkpt>
      <trkpt lat="39.867595" lon="116.6750964">
        <ele>23.49546</ele>
        <time>2026-07-23T23:11:17.607000Z</time>
      </trkpt>
      <trkpt lat="39.8676939" lon="116.6751043">
        <ele>23.42863</ele>
        <time>2026-07-23T23:11:21.588000Z</time>
      </trkpt>
      <trkpt lat="39.8677951" lon="116.6751143">
        <ele>23.38321</ele>
        <time>2026-07-23T23:11:25.569000Z</time>
      </trkpt>
      <trkpt lat="39.8679005" lon="116.6751281">
        <ele>23.34846</ele>
        <time>2026-07-23T23:11:29.551000Z</time>
      </trkpt>
      <trkpt lat="39.8679964" lon="116.6751133">
        <ele>23.32189</ele>
        <time>2026-07-23T23:11:33.532000Z</time>
      </trkpt>
      <trkpt lat="39.8680621" lon="116.675032">
        <ele>23.31107</ele>
        <time>2026-07-23T23:11:37.513000Z</time>
      </trkpt>
      <trkpt lat="39.8680881" lon="116.674911">
        <ele>23.31287</ele>
        <time>2026-07-23T23:11:41.494000Z</time>
      </trkpt>
      <trkpt lat="39.8681006" lon="116.6747799">
        <ele>23.3112</ele>
        <time>2026-07-23T23:11:45.475000Z</time>
      </trkpt>
      <trkpt lat="39.8681121" lon="116.6746547">
        <ele>23.30386</ele>
        <time>2026-07-23T23:11:49.457000Z</time>
      </trkpt>
      <trkpt lat="39.8681173" lon="116.6745326">
        <ele>23.29705</ele>
        <time>2026-07-23T23:11:53.438000Z</time>
      </trkpt>
      <trkpt lat="39.8681223" lon="116.6744065">
        <ele>23.29747</ele>
        <time>2026-07-23T23:11:57.419000Z</time>
      </trkpt>
      <trkpt lat="39.8681245" lon="116.6742751">
        <ele>23.31644</ele>
        <time>2026-07-23T23:12:01.400000Z</time>
      </trkpt>
      <trkpt lat="39.868126" lon="116.6741429">
        <ele>23.36569</ele>
        <time>2026-07-23T23:12:05.381000Z</time>
      </trkpt>
      <trkpt lat="39.8681288" lon="116.6740094">
        <ele>23.45664</ele>
        <time>2026-07-23T23:12:09.362000Z</time>
      </trkpt>
      <trkpt lat="39.8681296" lon="116.6738784">
        <ele>23.57207</ele>
        <time>2026-07-23T23:12:13.344000Z</time>
      </trkpt>
      <trkpt lat="39.868129" lon="116.6737517">
        <ele>23.68911</ele>
        <time>2026-07-23T23:12:17.325000Z</time>
      </trkpt>
      <trkpt lat="39.868124" lon="116.6736177">
        <ele>23.77412</ele>
        <time>2026-07-23T23:12:21.306000Z</time>
      </trkpt>
      <trkpt lat="39.8681165" lon="116.6734854">
        <ele>23.82024</ele>
        <time>2026-07-23T23:12:25.287000Z</time>
      </trkpt>
      <trkpt lat="39.8681081" lon="116.6733523">
        <ele>23.83912</ele>
        <time>2026-07-23T23:12:29.268000Z</time>
      </trkpt>
      <trkpt lat="39.8681005" lon="116.6732193">
        <ele>23.81906</ele>
        <time>2026-07-23T23:12:33.250000Z</time>
      </trkpt>
      <trkpt lat="39.868097" lon="116.6730812">
        <ele>23.76953</ele>
        <time>2026-07-23T23:12:37.231000Z</time>
      </trkpt>
      <trkpt lat="39.8680935" lon="116.6729438">
        <ele>23.69788</ele>
        <time>2026-07-23T23:12:41.212000Z</time>
      </trkpt>
      <trkpt lat="39.8680913" lon="116.6728074">
        <ele>23.61395</ele>
        <time>2026-07-23T23:12:45.193000Z</time>
      </trkpt>
      <trkpt lat="39.8680893" lon="116.6726724">
        <ele>23.51643</ele>
        <time>2026-07-23T23:12:49.174000Z</time>
      </trkpt>
      <trkpt lat="39.8680862" lon="116.6725381">
        <ele>23.39972</ele>
        <time>2026-07-23T23:12:53.155000Z</time>
      </trkpt>
      <trkpt lat="39.8680846" lon="116.6724042">
        <ele>23.26574</ele>
        <time>2026-07-23T23:12:57.137000Z</time>
      </trkpt>
      <trkpt lat="39.8680833" lon="116.6722707">
        <ele>23.11079</ele>
        <time>2026-07-23T23:13:01.118000Z</time>
      </trkpt>
      <trkpt lat="39.8680848" lon="116.6721301">
        <ele>22.92117</ele>
        <time>2026-07-23T23:13:05.099000Z</time>
      </trkpt>
      <trkpt lat="39.8680823" lon="116.671998">
        <ele>22.67841</ele>
        <time>2026-07-23T23:13:09.080000Z</time>
      </trkpt>
      <trkpt lat="39.868082" lon="116.6718658">
        <ele>22.427</ele>
        <time>2026-07-23T23:13:13Z</time>
      </trkpt>
      <trkpt lat="39.8680863" lon="116.6717272">
        <ele>22.28456</ele>
        <time>2026-07-23T23:13:17Z</time>
      </trkpt>
      <trkpt lat="39.8680906" lon="116.6715869">
        <ele>22.27551</ele>
        <time>2026-07-23T23:13:21Z</time>
      </trkpt>
      <trkpt lat="39.8680984" lon="116.6714422">
        <ele>22.48866</ele>
        <time>2026-07-23T23:13:25Z</time>
      </trkpt>
      <trkpt lat="39.8681066" lon="116.6712953">
        <ele>22.97979</ele>
        <time>2026-07-23T23:13:28.986000Z</time>
      </trkpt>
      <trkpt lat="39.8681095" lon="116.6711503">
        <ele>23.41097</ele>
        <time>2026-07-23T23:13:32.967000Z</time>
      </trkpt>
      <trkpt lat="39.8681087" lon="116.6710046">
        <ele>23.60401</ele>
        <time>2026-07-23T23:13:36.948000Z</time>
      </trkpt>
      <trkpt lat="39.8681058" lon="116.6708552">
        <ele>23.61297</ele>
        <time>2026-07-23T23:13:40.930000Z</time>
      </trkpt>
      <trkpt lat="39.8681037" lon="116.6707058">
        <ele>23.54949</ele>
        <time>2026-07-23T23:13:44.911000Z</time>
      </trkpt>
      <trkpt lat="39.8681054" lon="116.6705576">
        <ele>23.46672</ele>
        <time>2026-07-23T23:13:48.892000Z</time>
      </trkpt>
      <trkpt lat="39.8681102" lon="116.6704135">
        <ele>23.3687</ele>
        <time>2026-07-23T23:13:52.873000Z</time>
      </trkpt>
      <trkpt lat="39.8681125" lon="116.670268">
        <ele>23.26195</ele>
        <time>2026-07-23T23:13:56.854000Z</time>
      </trkpt>
      <trkpt lat="39.8681154" lon="116.6701287">
        <ele>23.16087</ele>
        <time>2026-07-23T23:14:00.835000Z</time>
      </trkpt>
      <trkpt lat="39.8681178" lon="116.6699842">
        <ele>23.08553</ele>
        <time>2026-07-23T23:14:04.817000Z</time>
      </trkpt>
      <trkpt lat="39.86812" lon="116.6698414">
        <ele>23.06064</ele>
        <time>2026-07-23T23:14:08.798000Z</time>
      </trkpt>
      <trkpt lat="39.8681192" lon="116.6696973">
        <ele>23.06669</ele>
        <time>2026-07-23T23:14:12.779000Z</time>
      </trkpt>
      <trkpt lat="39.868113" lon="116.6695587">
        <ele>23.0832</ele>
        <time>2026-07-23T23:14:16.760000Z</time>
      </trkpt>
      <trkpt lat="39.868106" lon="116.6694184">
        <ele>23.10728</ele>
        <time>2026-07-23T23:14:20.741000Z</time>
      </trkpt>
      <trkpt lat="39.8681012" lon="116.6692788">
        <ele>23.11439</ele>
        <time>2026-07-23T23:14:24.722000Z</time>
      </trkpt>
      <trkpt lat="39.868102" lon="116.6691421">
        <ele>23.07103</ele>
        <time>2026-07-23T23:14:28.704000Z</time>
      </trkpt>
      <trkpt lat="39.8681429" lon="116.6690123">
        <ele>22.97805</ele>
        <time>2026-07-23T23:14:33.680000Z</time>
      </trkpt>
      <trkpt lat="39.8682358" lon="116.6689694">
        <ele>22.91501</ele>
        <time>2026-07-23T23:14:37.661000Z</time>
      </trkpt>
      <trkpt lat="39.868342" lon="116.6689586">
        <ele>22.86791</ele>
        <time>2026-07-23T23:14:41.642000Z</time>
      </trkpt>
      <trkpt lat="39.8684509" lon="116.6689632">
        <ele>22.83868</ele>
        <time>2026-07-23T23:14:45.623000Z</time>
      </trkpt>
      <trkpt lat="39.8685592" lon="116.6689736">
        <ele>22.82351</ele>
        <time>2026-07-23T23:14:49.605000Z</time>
      </trkpt>
      <trkpt lat="39.8686655" lon="116.6689841">
        <ele>22.81373</ele>
        <time>2026-07-23T23:14:53.586000Z</time>
      </trkpt>
      <trkpt lat="39.8687701" lon="116.6689932">
        <ele>22.82209</ele>
        <time>2026-07-23T23:14:57.567000Z</time>
      </trkpt>
      <trkpt lat="39.8688721" lon="116.6690138">
        <ele>22.8564</ele>
        <time>2026-07-23T23:15:01.548000Z</time>
      </trkpt>
      <trkpt lat="39.868979" lon="116.6690312">
        <ele>22.89349</ele>
        <time>2026-07-23T23:15:05.529000Z</time>
      </trkpt>
      <trkpt lat="39.8690813" lon="116.6690152">
        <ele>22.91519</ele>
        <time>2026-07-23T23:15:09.510000Z</time>
      </trkpt>
      <trkpt lat="39.8691617" lon="116.6689416">
        <ele>22.90992</ele>
        <time>2026-07-23T23:15:13.492000Z</time>
      </trkpt>
      <trkpt lat="39.8692031" lon="116.6688217">
        <ele>22.87834</ele>
        <time>2026-07-23T23:15:17.473000Z</time>
      </trkpt>
      <trkpt lat="39.8692222" lon="116.668688">
        <ele>22.82977</ele>
        <time>2026-07-23T23:15:21.454000Z</time>
      </trkpt>
      <trkpt lat="39.86924" lon="116.6685554">
        <ele>22.74308</ele>
        <time>2026-07-23T23:15:25.435000Z</time>
      </trkpt>
      <trkpt lat="39.8692789" lon="116.668438">
        <ele>22.60184</ele>
        <time>2026-07-23T23:15:29.416000Z</time>
      </trkpt>
      <trkpt lat="39.869359" lon="116.6683728">
        <ele>22.38835</ele>
        <time>2026-07-23T23:15:33.397000Z</time>
      </trkpt>
      <trkpt lat="39.8694511" lon="116.6683372">
        <ele>22.13</ele>
        <time>2026-07-23T23:15:37.379000Z</time>
      </trkpt>
      <trkpt lat="39.8695485" lon="116.6683592">
        <ele>21.87511</ele>
        <time>2026-07-23T23:15:41.360000Z</time>
      </trkpt>
      <trkpt lat="39.8696522" lon="116.6683757">
        <ele>21.61872</ele>
        <time>2026-07-23T23:15:45.341000Z</time>
      </trkpt>
      <trkpt lat="39.8697582" lon="116.6683542">
        <ele>21.37332</ele>
        <time>2026-07-23T23:15:49.322000Z</time>
      </trkpt>
      <trkpt lat="39.8698613" lon="116.6683299">
        <ele>21.1701</ele>
        <time>2026-07-23T23:15:53.303000Z</time>
      </trkpt>
      <trkpt lat="39.8699673" lon="116.6683202">
        <ele>21.00812</ele>
        <time>2026-07-23T23:15:57.284000Z</time>
      </trkpt>
      <trkpt lat="39.8700713" lon="116.6683126">
        <ele>20.85112</ele>
        <time>2026-07-23T23:16:01.265000Z</time>
      </trkpt>
      <trkpt lat="39.8701735" lon="116.6682886">
        <ele>20.67998</ele>
        <time>2026-07-23T23:16:05.247000Z</time>
      </trkpt>
      <trkpt lat="39.8702693" lon="116.6682408">
        <ele>20.47277</ele>
        <time>2026-07-23T23:16:09.228000Z</time>
      </trkpt>
      <trkpt lat="39.8703606" lon="116.6681773">
        <ele>20.26841</ele>
        <time>2026-07-23T23:16:13.209000Z</time>
      </trkpt>
      <trkpt lat="39.8704565" lon="116.6681235">
        <ele>20.10337</ele>
        <time>2026-07-23T23:16:17.190000Z</time>
      </trkpt>
      <trkpt lat="39.8705538" lon="116.6681027">
        <ele>19.99328</ele>
        <time>2026-07-23T23:16:21Z</time>
      </trkpt>
      <trkpt lat="39.8706583" lon="116.6681135">
        <ele>19.90414</ele>
        <time>2026-07-23T23:16:25Z</time>
      </trkpt>
      <trkpt lat="39.8707638" lon="116.6681343">
        <ele>19.8359</ele>
        <time>2026-07-23T23:16:29Z</time>
      </trkpt>
      <trkpt lat="39.8708799" lon="116.6681385">
        <ele>19.77246</ele>
        <time>2026-07-23T23:16:33.115000Z</time>
      </trkpt>
      <trkpt lat="39.87099" lon="116.6681154">
        <ele>19.70381</ele>
        <time>2026-07-23T23:16:37Z</time>
      </trkpt>
      <trkpt lat="39.8710974" lon="116.6680658">
        <ele>19.74328</ele>
        <time>2026-07-23T23:16:41Z</time>
      </trkpt>
      <trkpt lat="39.8711999" lon="116.6680004">
        <ele>19.94454</ele>
        <time>2026-07-23T23:16:45.058000Z</time>
      </trkpt>
      <trkpt lat="39.8713025" lon="116.6679546">
        <ele>20.06234</ele>
        <time>2026-07-23T23:16:49.039000Z</time>
      </trkpt>
      <trkpt lat="39.8714131" lon="116.6679433">
        <ele>20.0639</ele>
        <time>2026-07-23T23:16:53Z</time>
      </trkpt>
      <trkpt lat="39.8715245" lon="116.6679672">
        <ele>20.1512</ele>
        <time>2026-07-23T23:16:57Z</time>
      </trkpt>
      <trkpt lat="39.8716268" lon="116.6680198">
        <ele>20.29985</ele>
        <time>2026-07-23T23:17:00.983000Z</time>
      </trkpt>
      <trkpt lat="39.8717261" lon="116.6680888">
        <ele>20.43135</ele>
        <time>2026-07-23T23:17:04.964000Z</time>
      </trkpt>
      <trkpt lat="39.8718336" lon="116.6681486">
        <ele>20.54968</ele>
        <time>2026-07-23T23:17:08.945000Z</time>
      </trkpt>
      <trkpt lat="39.8719457" lon="116.6681777">
        <ele>20.68094</ele>
        <time>2026-07-23T23:17:12.926000Z</time>
      </trkpt>
      <trkpt lat="39.8720578" lon="116.6681923">
        <ele>20.85059</ele>
        <time>2026-07-23T23:17:16.907000Z</time>
      </trkpt>
      <trkpt lat="39.872174" lon="116.6681998">
        <ele>21.03154</ele>
        <time>2026-07-23T23:17:20.888000Z</time>
      </trkpt>
      <trkpt lat="39.8722873" lon="116.6682206">
        <ele>21.1873</ele>
        <time>2026-07-23T23:17:24.870000Z</time>
      </trkpt>
      <trkpt lat="39.8723896" lon="116.6682676">
        <ele>21.27843</ele>
        <time>2026-07-23T23:17:28.851000Z</time>
      </trkpt>
      <trkpt lat="39.8724792" lon="116.6682992">
        <ele>21.29686</ele>
        <time>2026-07-23T23:17:32.832000Z</time>
      </trkpt>
      <trkpt lat="39.8725345" lon="116.6681941">
        <ele>21.28035</ele>
        <time>2026-07-23T23:17:37.808000Z</time>
      </trkpt>
      <trkpt lat="39.8725258" lon="116.6680626">
        <ele>21.31991</ele>
        <time>2026-07-23T23:17:41.789000Z</time>
      </trkpt>
      <trkpt lat="39.8725243" lon="116.6679317">
        <ele>21.42863</ele>
        <time>2026-07-23T23:17:45.771000Z</time>
      </trkpt>
      <trkpt lat="39.8725746" lon="116.6678245">
        <ele>21.56822</ele>
        <time>2026-07-23T23:17:49.752000Z</time>
      </trkpt>
      <trkpt lat="39.8726577" lon="116.6677536">
        <ele>21.67926</ele>
        <time>2026-07-23T23:17:53.733000Z</time>
      </trkpt>
      <trkpt lat="39.8727552" lon="116.6677292">
        <ele>21.7513</ele>
        <time>2026-07-23T23:17:57.714000Z</time>
      </trkpt>
      <trkpt lat="39.8728536" lon="116.6677567">
        <ele>21.76278</ele>
        <time>2026-07-23T23:18:01.695000Z</time>
      </trkpt>
      <trkpt lat="39.872956" lon="116.6677825">
        <ele>21.71356</ele>
        <time>2026-07-23T23:18:05.676000Z</time>
      </trkpt>
      <trkpt lat="39.8730618" lon="116.6677921">
        <ele>21.65196</ele>
        <time>2026-07-23T23:18:09.657000Z</time>
      </trkpt>
      <trkpt lat="39.8731632" lon="116.6677596">
        <ele>21.61479</ele>
        <time>2026-07-23T23:18:13.639000Z</time>
      </trkpt>
      <trkpt lat="39.8732654" lon="116.6677022">
        <ele>21.62256</ele>
        <time>2026-07-23T23:18:17.620000Z</time>
      </trkpt>
      <trkpt lat="39.8733713" lon="116.6676638">
        <ele>21.67032</ele>
        <time>2026-07-23T23:18:21.601000Z</time>
      </trkpt>
      <trkpt lat="39.8734766" lon="116.6676675">
        <ele>21.71035</ele>
        <time>2026-07-23T23:18:25.582000Z</time>
      </trkpt>
      <trkpt lat="39.8735843" lon="116.6676927">
        <ele>21.70534</ele>
        <time>2026-07-23T23:18:29.563000Z</time>
      </trkpt>
      <trkpt lat="39.8736964" lon="116.6677189">
        <ele>21.67992</ele>
        <time>2026-07-23T23:18:33.544000Z</time>
      </trkpt>
      <trkpt lat="39.8738081" lon="116.6677357">
        <ele>21.65377</ele>
        <time>2026-07-23T23:18:37.525000Z</time>
      </trkpt>
      <trkpt lat="39.8739211" lon="116.6677318">
        <ele>21.63443</ele>
        <time>2026-07-23T23:18:41.507000Z</time>
      </trkpt>
      <trkpt lat="39.8740291" lon="116.6676957">
        <ele>21.64918</ele>
        <time>2026-07-23T23:18:45.488000Z</time>
      </trkpt>
      <trkpt lat="39.8741316" lon="116.6676405">
        <ele>21.70224</ele>
        <time>2026-07-23T23:18:49.469000Z</time>
      </trkpt>
      <trkpt lat="39.8742273" lon="116.667574">
        <ele>21.78752</ele>
        <time>2026-07-23T23:18:53.450000Z</time>
      </trkpt>
      <trkpt lat="39.8743277" lon="116.6675185">
        <ele>21.91857</ele>
        <time>2026-07-23T23:18:57.431000Z</time>
      </trkpt>
      <trkpt lat="39.8744326" lon="116.667481">
        <ele>22.07921</ele>
        <time>2026-07-23T23:19:01.412000Z</time>
      </trkpt>
      <trkpt lat="39.8745407" lon="116.6674645">
        <ele>22.24514</ele>
        <time>2026-07-23T23:19:05.393000Z</time>
      </trkpt>
      <trkpt lat="39.8746501" lon="116.6674676">
        <ele>22.40606</ele>
        <time>2026-07-23T23:19:09.374000Z</time>
      </trkpt>
      <trkpt lat="39.8747582" lon="116.6674884">
        <ele>22.55742</ele>
        <time>2026-07-23T23:19:13.356000Z</time>
      </trkpt>
      <trkpt lat="39.874862" lon="116.6675267">
        <ele>22.71486</ele>
        <time>2026-07-23T23:19:17.337000Z</time>
      </trkpt>
      <trkpt lat="39.8749655" lon="116.6675789">
        <ele>22.8821</ele>
        <time>2026-07-23T23:19:21.318000Z</time>
      </trkpt>
      <trkpt lat="39.8750622" lon="116.6676549">
        <ele>23.05214</ele>
        <time>2026-07-23T23:19:25.299000Z</time>
      </trkpt>
      <trkpt lat="39.8751422" lon="116.6677527">
        <ele>23.22095</ele>
        <time>2026-07-23T23:19:29.280000Z</time>
      </trkpt>
      <trkpt lat="39.8752171" lon="116.6678538">
        <ele>23.38233</ele>
        <time>2026-07-23T23:19:33.261000Z</time>
      </trkpt>
      <trkpt lat="39.875296" lon="116.6679384">
        <ele>23.53067</ele>
        <time>2026-07-23T23:19:37.242000Z</time>
      </trkpt>
      <trkpt lat="39.8753831" lon="116.6680098">
        <ele>23.64266</ele>
        <time>2026-07-23T23:19:41.224000Z</time>
      </trkpt>
      <trkpt lat="39.8754746" lon="116.6680766">
        <ele>23.67884</ele>
        <time>2026-07-23T23:19:45.205000Z</time>
      </trkpt>
      <trkpt lat="39.8755682" lon="116.6681081">
        <ele>23.60309</ele>
        <time>2026-07-23T23:19:49.186000Z</time>
      </trkpt>
      <trkpt lat="39.875647" lon="116.6680182">
        <ele>23.36707</ele>
        <time>2026-07-23T23:19:54.162000Z</time>
      </trkpt>
      <trkpt lat="39.8756151" lon="116.6678809">
        <ele>23.26784</ele>
        <time>2026-07-23T23:19:59Z</time>
      </trkpt>
      <trkpt lat="39.8755429" lon="116.6677808">
        <ele>23.36192</ele>
        <time>2026-07-23T23:20:03Z</time>
      </trkpt>
      <trkpt lat="39.875462" lon="116.6676817">
        <ele>23.48324</ele>
        <time>2026-07-23T23:20:07Z</time>
      </trkpt>
      <trkpt lat="39.8753835" lon="116.6675779">
        <ele>23.5579</ele>
        <time>2026-07-23T23:20:11Z</time>
      </trkpt>
      <trkpt lat="39.8753114" lon="116.6674639">
        <ele>23.56055</ele>
        <time>2026-07-23T23:20:15Z</time>
      </trkpt>
      <trkpt lat="39.8752705" lon="116.6673334">
        <ele>23.49371</ele>
        <time>2026-07-23T23:20:19Z</time>
      </trkpt>
      <trkpt lat="39.8752603" lon="116.6671942">
        <ele>23.36732</ele>
        <time>2026-07-23T23:20:23Z</time>
      </trkpt>
      <trkpt lat="39.8752444" lon="116.6670658">
        <ele>23.205</ele>
        <time>2026-07-23T23:20:27Z</time>
      </trkpt>
      <trkpt lat="39.8751894" lon="116.6669528">
        <ele>23.01881</ele>
        <time>2026-07-23T23:20:30.988000Z</time>
      </trkpt>
      <trkpt lat="39.8751301" lon="116.6668506">
        <ele>22.85098</ele>
        <time>2026-07-23T23:20:34.969000Z</time>
      </trkpt>
      <trkpt lat="39.8750697" lon="116.6667458">
        <ele>22.73597</ele>
        <time>2026-07-23T23:20:38.950000Z</time>
      </trkpt>
    </trkseg>
  </trk>
</gpx>