<?xml version="1.0" encoding="UTF-8"?>
<gpx xmlns="http://www.topografix.com/GPX/1/1" xmlns:gpxtpx="http://www.garmin.com/xmlschemas/TrackPointExtension/v1" xmlns:xsi="http://www.w3.org/2001/XMLSchema-instance" xsi:schemaLocation="http://www.topografix.com/GPX/1/1 http://www.topografix.com/GPX/1/1/gpx.xsd" version="1.1" creator="gpx.py -- https://github.com/tkrajina/gpxpy">
  <trk>
    <name>gpx from codoon</name>
    <type>Run</type>
    <trkseg>
      <trkpt lat="39.8735643" lon="116.6659339">
        <ele>22.2531</ele>
        <time>2026-07-28T22:24:59.524000Z</time>
      </trkpt>
      <trkpt lat="39.8736446" lon="116.6658796">
        <ele>22.25488</ele>
        <time>2026-07-28T22:25:05.813000Z</time>
      </trkpt>
      <trkpt lat="39.8737259" lon="116.6658061">
        <ele>22.30396</ele>
        <time>2026-07-28T22:25:10.790000Z</time>
      </trkpt>
      <trkpt lat="39.8738224" lon="116.6657324">
        <ele>22.4847</ele>
        <time>2026-07-28T22:25:15.767000Z</time>
      </trkpt>
      <trkpt lat="39.873908" lon="116.6656686">
        <ele>22.69575</ele>
        <time>2026-07-28T22:25:19.749000Z</time>
      </trkpt>
      <trkpt lat="39.8739948" lon="116.6656054">
        <ele>22.9432</ele>
        <time>2026-07-28T22:25:23.731000Z</time>
      </trkpt>
      <trkpt lat="39.874081" lon="116.6655432">
        <ele>23.23679</ele>
        <time>2026-07-28T22:25:27.712000Z</time>
      </trkpt>
      <trkpt lat="39.8741665" lon="116.6654884">
        <ele>23.55223</ele>
        <time>2026-07-28T22:25:31.694000Z</time>
      </trkpt>
      <trkpt lat="39.8742475" lon="116.6654309">
        <ele>23.77251</ele>
        <time>2026-07-28T22:25:35.676000Z</time>
      </trkpt>
      <trkpt lat="39.8743274" lon="116.6653705">
        <ele>23.82222</ele>
        <time>2026-07-28T22:25:39.657000Z</time>
      </trkpt>
      <trkpt lat="39.8744292" lon="116.6653803">
        <ele>23.69117</ele>
        <time>2026-07-28T22:25:44.634000Z</time>
      </trkpt>
      <trkpt lat="39.8744904" lon="116.6654958">
        <ele>23.48806</ele>
        <time>2026-07-28T22:25:48.616000Z</time>
      </trkpt>
      <trkpt lat="39.8745418" lon="116.6656123">
        <ele>23.25758</ele>
        <time>2026-07-28T22:25:52.598000Z</time>
      </trkpt>
      <trkpt lat="39.8745943" lon="116.6657287">
        <ele>23.07742</ele>
        <time>2026-07-28T22:25:56.579000Z</time>
      </trkpt>
      <trkpt lat="39.8746479" lon="116.6658418">
        <ele>22.9456</ele>
        <time>2026-07-28T22:26:00.561000Z</time>
      </trkpt>
      <trkpt lat="39.874699" lon="116.6659507">
        <ele>22.82962</ele>
        <time>2026-07-28T22:26:04.542000Z</time>
      </trkpt>
      <trkpt lat="39.8747538" lon="116.6660573">
        <ele>22.75245</ele>
        <time>2026-07-28T22:26:08.524000Z</time>
      </trkpt>
      <trkpt lat="39.8748099" lon="116.6661543">
        <ele>22.67875</ele>
        <time>2026-07-28T22:26:12.506000Z</time>
      </trkpt>
      <trkpt lat="39.8748645" lon="116.6662493">
        <ele>22.58215</ele>
        <time>2026-07-28T22:26:16.487000Z</time>
      </trkpt>
      <trkpt lat="39.8749146" lon="116.6663517">
        <ele>22.48496</ele>
        <time>2026-07-28T22:26:20.469000Z</time>
      </trkpt>
      <trkpt lat="39.8749583" lon="116.6664584">
        <ele>22.39941</ele>
        <time>2026-07-28T22:26:24.451000Z</time>
      </trkpt>
      <trkpt lat="39.8750061" lon="116.66656">
        <ele>22.3389</ele>
        <time>2026-07-28T22:26:28.432000Z</time>
      </trkpt>
      <trkpt lat="39.8750725" lon="116.6666767">
        <ele>22.31539</ele>
        <time>2026-07-28T22:26:33.409000Z</time>
      </trkpt>
      <trkpt lat="39.875149" lon="116.6667843">
        <ele>22.3964</ele>
        <time>2026-07-28T22:26:38.386000Z</time>
      </trkpt>
      <trkpt lat="39.8752129" lon="116.6668735">
        <ele>22.55461</ele>
        <time>2026-07-28T22:26:42.368000Z</time>
      </trkpt>
      <trkpt lat="39.8752739" lon="116.6669689">
        <ele>22.77103</ele>
        <time>2026-07-28T22:26:46.349000Z</time>
      </trkpt>
      <trkpt lat="39.8753119" lon="116.6670754">
        <ele>23.00243</ele>
        <time>2026-07-28T22:26:50.331000Z</time>
      </trkpt>
      <trkpt lat="39.8753115" lon="116.6671982">
        <ele>23.20162</ele>
        <time>2026-07-28T22:26:54.313000Z</time>
      </trkpt>
      <trkpt lat="39.8753127" lon="116.6673369">
        <ele>23.34493</ele>
        <time>2026-07-28T22:26:59.290000Z</time>
      </trkpt>
      <trkpt lat="39.8753573" lon="116.6674586">
        <ele>23.38969</ele>
        <time>2026-07-28T22:27:04.267000Z</time>
      </trkpt>
      <trkpt lat="39.8754296" lon="116.6675636">
        <ele>23.41261</ele>
        <time>2026-07-28T22:27:09.244000Z</time>
      </trkpt>
      <trkpt lat="39.8755046" lon="116.6676715">
        <ele>23.45091</ele>
        <time>2026-07-28T22:27:14.221000Z</time>
      </trkpt>
      <trkpt lat="39.8755762" lon="116.667782">
        <ele>23.52084</ele>
        <time>2026-07-28T22:27:19.198000Z</time>
      </trkpt>
      <trkpt lat="39.8756391" lon="116.6679001">
        <ele>23.62209</ele>
        <time>2026-07-28T22:27:24.175000Z</time>
      </trkpt>
      <trkpt lat="39.8756659" lon="116.6680299">
        <ele>23.76245</ele>
        <time>2026-07-28T22:27:29.152000Z</time>
      </trkpt>
      <trkpt lat="39.8756135" lon="116.6681332">
        <ele>23.95561</ele>
        <time>2026-07-28T22:27:34.129000Z</time>
      </trkpt>
      <trkpt lat="39.8755097" lon="116.6681187">
        <ele>24.11706</ele>
        <time>2026-07-28T22:27:39.106000Z</time>
      </trkpt>
      <trkpt lat="39.8754065" lon="116.6680593">
        <ele>23.91727</ele>
        <time>2026-07-28T22:27:44Z</time>
      </trkpt>
      <trkpt lat="39.8753181" lon="116.6680163">
        <ele>23.5298</ele>
        <time>2026-07-28T22:27:48Z</time>
      </trkpt>
      <trkpt lat="39.8752371" lon="116.6679594">
        <ele>23.19532</ele>
        <time>2026-07-28T22:27:52Z</time>
      </trkpt>
      <trkpt lat="39.8751781" lon="116.6678623">
        <ele>22.97295</ele>
        <time>2026-07-28T22:27:56Z</time>
      </trkpt>
      <trkpt lat="39.875126" lon="116.6677575">
        <ele>22.83223</ele>
        <time>2026-07-28T22:28:00Z</time>
      </trkpt>
      <trkpt lat="39.8750582" lon="116.6676748">
        <ele>22.72881</ele>
        <time>2026-07-28T22:28:03.990000Z</time>
      </trkpt>
      <trkpt lat="39.8749821" lon="116.6676123">
        <ele>22.64644</ele>
        <time>2026-07-28T22:28:07.972000Z</time>
      </trkpt>
      <trkpt lat="39.8748759" lon="116.667576">
        <ele>22.55215</ele>
        <time>2026-07-28T22:28:12.949000Z</time>
      </trkpt>
      <trkpt lat="39.874768" lon="116.6675587">
        <ele>22.47416</ele>
        <time>2026-07-28T22:28:17.926000Z</time>
      </trkpt>
      <trkpt lat="39.8746597" lon="116.6675323">
        <ele>22.44411</ele>
        <time>2026-07-28T22:28:22.903000Z</time>
      </trkpt>
      <trkpt lat="39.8745498" lon="116.6675128">
        <ele>22.44551</ele>
        <time>2026-07-28T22:28:27.880000Z</time>
      </trkpt>
      <trkpt lat="39.8744382" lon="116.6675222">
        <ele>22.42623</ele>
        <time>2026-07-28T22:28:32.857000Z</time>
      </trkpt>
      <trkpt lat="39.8743508" lon="116.6675523">
        <ele>22.36682</ele>
        <time>2026-07-28T22:28:36.838000Z</time>
      </trkpt>
      <trkpt lat="39.8742513" lon="116.667609">
        <ele>22.22259</ele>
        <time>2026-07-28T22:28:41.815000Z</time>
      </trkpt>
      <trkpt lat="39.8741587" lon="116.6676771">
        <ele>22.03909</ele>
        <time>2026-07-28T22:28:46.792000Z</time>
      </trkpt>
      <trkpt lat="39.8740648" lon="116.6677396">
        <ele>21.87306</ele>
        <time>2026-07-28T22:28:51.769000Z</time>
      </trkpt>
      <trkpt lat="39.8739604" lon="116.6677846">
        <ele>21.81365</ele>
        <time>2026-07-28T22:28:56.746000Z</time>
      </trkpt>
      <trkpt lat="39.8738525" lon="116.6678029">
        <ele>21.84895</ele>
        <time>2026-07-28T22:29:01.723000Z</time>
      </trkpt>
      <trkpt lat="39.8737621" lon="116.6678039">
        <ele>21.89055</ele>
        <time>2026-07-28T22:29:05.705000Z</time>
      </trkpt>
      <trkpt lat="39.8736718" lon="116.6677929">
        <ele>21.92963</ele>
        <time>2026-07-28T22:29:09.686000Z</time>
      </trkpt>
      <trkpt lat="39.8735808" lon="116.6677727">
        <ele>21.95618</ele>
        <time>2026-07-28T22:29:13.668000Z</time>
      </trkpt>
      <trkpt lat="39.8734902" lon="116.6677524">
        <ele>21.97983</ele>
        <time>2026-07-28T22:29:17.649000Z</time>
      </trkpt>
      <trkpt lat="39.873399" lon="116.6677461">
        <ele>22.00656</ele>
        <time>2026-07-28T22:29:21.631000Z</time>
      </trkpt>
      <trkpt lat="39.873291" lon="116.667783">
        <ele>22.03127</ele>
        <time>2026-07-28T22:29:26.608000Z</time>
      </trkpt>
      <trkpt lat="39.8731934" lon="116.6678491">
        <ele>22.01847</ele>
        <time>2026-07-28T22:29:31.585000Z</time>
      </trkpt>
      <trkpt lat="39.8730895" lon="116.6679055">
        <ele>21.95351</ele>
        <time>2026-07-28T22:29:36.562000Z</time>
      </trkpt>
      <trkpt lat="39.8729987" lon="116.667925">
        <ele>21.90599</ele>
        <time>2026-07-28T22:29:40.543000Z</time>
      </trkpt>
      <trkpt lat="39.8729062" lon="116.6679159">
        <ele>21.87245</ele>
        <time>2026-07-28T22:29:44.525000Z</time>
      </trkpt>
      <trkpt lat="39.8728189" lon="116.6678858">
        <ele>21.85755</ele>
        <time>2026-07-28T22:29:48.506000Z</time>
      </trkpt>
      <trkpt lat="39.8727322" lon="116.6678532">
        <ele>21.88224</ele>
        <time>2026-07-28T22:29:52.488000Z</time>
      </trkpt>
      <trkpt lat="39.8726226" lon="116.6678282">
        <ele>21.99268</ele>
        <time>2026-07-28T22:29:57.464000Z</time>
      </trkpt>
      <trkpt lat="39.8725315" lon="116.6678192">
        <ele>22.11855</ele>
        <time>2026-07-28T22:30:01.446000Z</time>
      </trkpt>
      <trkpt lat="39.8724405" lon="116.6678143">
        <ele>22.1995</ele>
        <time>2026-07-28T22:30:05.428000Z</time>
      </trkpt>
      <trkpt lat="39.8723491" lon="116.6678135">
        <ele>22.18513</ele>
        <time>2026-07-28T22:30:09.409000Z</time>
      </trkpt>
      <trkpt lat="39.8722566" lon="116.6678115">
        <ele>22.07208</ele>
        <time>2026-07-28T22:30:13.391000Z</time>
      </trkpt>
      <trkpt lat="39.872146" lon="116.6678039">
        <ele>21.84106</ele>
        <time>2026-07-28T22:30:18.367000Z</time>
      </trkpt>
      <trkpt lat="39.8720362" lon="116.6677829">
        <ele>21.55318</ele>
        <time>2026-07-28T22:30:23.344000Z</time>
      </trkpt>
      <trkpt lat="39.8719308" lon="116.6677488">
        <ele>21.28918</ele>
        <time>2026-07-28T22:30:28.321000Z</time>
      </trkpt>
      <trkpt lat="39.8718296" lon="116.6676899">
        <ele>21.10289</ele>
        <time>2026-07-28T22:30:33.298000Z</time>
      </trkpt>
      <trkpt lat="39.8717286" lon="116.6676307">
        <ele>21.00528</ele>
        <time>2026-07-28T22:30:38.275000Z</time>
      </trkpt>
      <trkpt lat="39.8716241" lon="116.667578">
        <ele>20.98567</ele>
        <time>2026-07-28T22:30:43.252000Z</time>
      </trkpt>
      <trkpt lat="39.8715206" lon="116.6675329">
        <ele>21.02709</ele>
        <time>2026-07-28T22:30:48.229000Z</time>
      </trkpt>
      <trkpt lat="39.8714163" lon="116.6675033">
        <ele>21.08416</ele>
        <time>2026-07-28T22:30:53.206000Z</time>
      </trkpt>
      <trkpt lat="39.8713173" lon="116.6674929">
        <ele>21.07803</ele>
        <time>2026-07-28T22:30:58Z</time>
      </trkpt>
      <trkpt lat="39.871219" lon="116.6675089">
        <ele>20.83587</ele>
        <time>2026-07-28T22:31:03.159000Z</time>
      </trkpt>
      <trkpt lat="39.8711267" lon="116.6675303">
        <ele>20.57518</ele>
        <time>2026-07-28T22:31:08.136000Z</time>
      </trkpt>
      <trkpt lat="39.8710469" lon="116.6676068">
        <ele>20.37631</ele>
        <time>2026-07-28T22:31:14.108000Z</time>
      </trkpt>
      <trkpt lat="39.8710379" lon="116.6677278">
        <ele>20.42155</ele>
        <time>2026-07-28T22:31:19.085000Z</time>
      </trkpt>
      <trkpt lat="39.8710057" lon="116.6678374">
        <ele>20.69158</ele>
        <time>2026-07-28T22:31:24.062000Z</time>
      </trkpt>
      <trkpt lat="39.8709015" lon="116.6678728">
        <ele>21.02894</ele>
        <time>2026-07-28T22:31:29.039000Z</time>
      </trkpt>
      <trkpt lat="39.8708108" lon="116.6678779">
        <ele>21.25908</ele>
        <time>2026-07-28T22:31:33.020000Z</time>
      </trkpt>
      <trkpt lat="39.8707203" lon="116.6678782">
        <ele>21.43605</ele>
        <time>2026-07-28T22:31:37.002000Z</time>
      </trkpt>
      <trkpt lat="39.8706294" lon="116.66788">
        <ele>21.60169</ele>
        <time>2026-07-28T22:31:40.983000Z</time>
      </trkpt>
      <trkpt lat="39.8705174" lon="116.6678741">
        <ele>21.84573</ele>
        <time>2026-07-28T22:31:45.960000Z</time>
      </trkpt>
      <trkpt lat="39.8704257" lon="116.6678517">
        <ele>22.04028</ele>
        <time>2026-07-28T22:31:49.942000Z</time>
      </trkpt>
      <trkpt lat="39.8703377" lon="116.6678085">
        <ele>22.16091</ele>
        <time>2026-07-28T22:31:53.923000Z</time>
      </trkpt>
      <trkpt lat="39.870228" lon="116.6677899">
        <ele>22.15493</ele>
        <time>2026-07-28T22:31:58.900000Z</time>
      </trkpt>
      <trkpt lat="39.8701354" lon="116.6677991">
        <ele>22.04955</ele>
        <time>2026-07-28T22:32:02.881000Z</time>
      </trkpt>
      <trkpt lat="39.8700418" lon="116.6678046">
        <ele>21.91356</ele>
        <time>2026-07-28T22:32:06.863000Z</time>
      </trkpt>
      <trkpt lat="39.8699488" lon="116.6677975">
        <ele>21.74935</ele>
        <time>2026-07-28T22:32:10.844000Z</time>
      </trkpt>
      <trkpt lat="39.8698548" lon="116.6677787">
        <ele>21.5529</ele>
        <time>2026-07-28T22:32:14.826000Z</time>
      </trkpt>
      <trkpt lat="39.8697617" lon="116.667759">
        <ele>21.35999</ele>
        <time>2026-07-28T22:32:18.807000Z</time>
      </trkpt>
      <trkpt lat="39.8696707" lon="116.6677571">
        <ele>21.18718</ele>
        <time>2026-07-28T22:32:22.789000Z</time>
      </trkpt>
      <trkpt lat="39.8695673" lon="116.6677963">
        <ele>21.01134</ele>
        <time>2026-07-28T22:32:27.766000Z</time>
      </trkpt>
      <trkpt lat="39.8694985" lon="116.66789">
        <ele>20.87036</ele>
        <time>2026-07-28T22:32:32.742000Z</time>
      </trkpt>
      <trkpt lat="39.8694777" lon="116.6680197">
        <ele>20.75574</ele>
        <time>2026-07-28T22:32:37.719000Z</time>
      </trkpt>
      <trkpt lat="39.8694905" lon="116.6681534">
        <ele>20.70489</ele>
        <time>2026-07-28T22:32:42.696000Z</time>
      </trkpt>
      <trkpt lat="39.8695359" lon="116.6682753">
        <ele>20.72475</ele>
        <time>2026-07-28T22:32:47.673000Z</time>
      </trkpt>
      <trkpt lat="39.8696108" lon="116.6683656">
        <ele>20.74324</ele>
        <time>2026-07-28T22:32:52.650000Z</time>
      </trkpt>
      <trkpt lat="39.869707" lon="116.6684012">
        <ele>20.68381</ele>
        <time>2026-07-28T22:32:57.627000Z</time>
      </trkpt>
      <trkpt lat="39.8698068" lon="116.6683695">
        <ele>20.58855</ele>
        <time>2026-07-28T22:33:02.603000Z</time>
      </trkpt>
      <trkpt lat="39.8698968" lon="116.6683121">
        <ele>20.54655</ele>
        <time>2026-07-28T22:33:07.580000Z</time>
      </trkpt>
      <trkpt lat="39.8699964" lon="116.6682785">
        <ele>20.57664</ele>
        <time>2026-07-28T22:33:12.557000Z</time>
      </trkpt>
      <trkpt lat="39.8700988" lon="116.6682715">
        <ele>20.62104</ele>
        <time>2026-07-28T22:33:17.534000Z</time>
      </trkpt>
      <trkpt lat="39.8701992" lon="116.6682515">
        <ele>20.62378</ele>
        <time>2026-07-28T22:33:22.511000Z</time>
      </trkpt>
      <trkpt lat="39.8702928" lon="116.6681962">
        <ele>20.55716</ele>
        <time>2026-07-28T22:33:27.488000Z</time>
      </trkpt>
      <trkpt lat="39.8703824" lon="116.6681268">
        <ele>20.44751</ele>
        <time>2026-07-28T22:33:32.465000Z</time>
      </trkpt>
      <trkpt lat="39.870473" lon="116.6680615">
        <ele>20.35278</ele>
        <time>2026-07-28T22:33:37.441000Z</time>
      </trkpt>
      <trkpt lat="39.8705778" lon="116.6680497">
        <ele>20.34166</ele>
        <time>2026-07-28T22:33:42.418000Z</time>
      </trkpt>
      <trkpt lat="39.8706847" lon="116.6680717">
        <ele>20.42382</ele>
        <time>2026-07-28T22:33:47.395000Z</time>
      </trkpt>
      <trkpt lat="39.870774" lon="116.6681032">
        <ele>20.51895</ele>
        <time>2026-07-28T22:33:51.377000Z</time>
      </trkpt>
      <trkpt lat="39.8708817" lon="116.6681242">
        <ele>20.62022</ele>
        <time>2026-07-28T22:33:56.353000Z</time>
      </trkpt>
      <trkpt lat="39.8709841" lon="116.6681076">
        <ele>20.73601</ele>
        <time>2026-07-28T22:34:01.330000Z</time>
      </trkpt>
      <trkpt lat="39.8710778" lon="116.6680634">
        <ele>20.88216</ele>
        <time>2026-07-28T22:34:06.307000Z</time>
      </trkpt>
      <trkpt lat="39.8711661" lon="116.6680044">
        <ele>20.99798</ele>
        <time>2026-07-28T22:34:11.284000Z</time>
      </trkpt>
      <trkpt lat="39.8712573" lon="116.6679588">
        <ele>21.04063</ele>
        <time>2026-07-28T22:34:16.261000Z</time>
      </trkpt>
      <trkpt lat="39.8713604" lon="116.6679329">
        <ele>21.01305</ele>
        <time>2026-07-28T22:34:21.238000Z</time>
      </trkpt>
      <trkpt lat="39.871467" lon="116.6679407">
        <ele>20.96706</ele>
        <time>2026-07-28T22:34:26.215000Z</time>
      </trkpt>
      <trkpt lat="39.8715756" lon="116.667976">
        <ele>20.97668</ele>
        <time>2026-07-28T22:34:31.191000Z</time>
      </trkpt>
      <trkpt lat="39.8716738" lon="116.6680323">
        <ele>21.04733</ele>
        <time>2026-07-28T22:34:36Z</time>
      </trkpt>
      <trkpt lat="39.8717529" lon="116.6680926">
        <ele>21.10013</ele>
        <time>2026-07-28T22:34:40Z</time>
      </trkpt>
      <trkpt lat="39.8718349" lon="116.6681487">
        <ele>21.10767</ele>
        <time>2026-07-28T22:34:44.131000Z</time>
      </trkpt>
      <trkpt lat="39.8719398" lon="116.6681838">
        <ele>21.15407</ele>
        <time>2026-07-28T22:34:49.108000Z</time>
      </trkpt>
      <trkpt lat="39.8720452" lon="116.6681961">
        <ele>21.2607</ele>
        <time>2026-07-28T22:34:54.085000Z</time>
      </trkpt>
      <trkpt lat="39.8721492" lon="116.6681898">
        <ele>21.42992</ele>
        <time>2026-07-28T22:34:59.062000Z</time>
      </trkpt>
      <trkpt lat="39.8722537" lon="116.6681935">
        <ele>21.64758</ele>
        <time>2026-07-28T22:35:04Z</time>
      </trkpt>
      <trkpt lat="39.8723547" lon="116.6682326">
        <ele>21.76595</ele>
        <time>2026-07-28T22:35:09Z</time>
      </trkpt>
      <trkpt lat="39.8724462" lon="116.6682988">
        <ele>21.61708</ele>
        <time>2026-07-28T22:35:13.992000Z</time>
      </trkpt>
      <trkpt lat="39.872523" lon="116.6683907">
        <ele>21.36046</ele>
        <time>2026-07-28T22:35:18.969000Z</time>
      </trkpt>
      <trkpt lat="39.8725836" lon="116.6684984">
        <ele>21.1716</ele>
        <time>2026-07-28T22:35:23.946000Z</time>
      </trkpt>
      <trkpt lat="39.8726153" lon="116.6686279">
        <ele>21.07548</ele>
        <time>2026-07-28T22:35:28.923000Z</time>
      </trkpt>
      <trkpt lat="39.8726288" lon="116.668768">
        <ele>21.02572</ele>
        <time>2026-07-28T22:35:33.900000Z</time>
      </trkpt>
      <trkpt lat="39.8726237" lon="116.6689057">
        <ele>20.99413</ele>
        <time>2026-07-28T22:35:38.877000Z</time>
      </trkpt>
      <trkpt lat="39.8725958" lon="116.6690336">
        <ele>20.9696</ele>
        <time>2026-07-28T22:35:43.853000Z</time>
      </trkpt>
      <trkpt lat="39.872567" lon="116.6691624">
        <ele>20.99284</ele>
        <time>2026-07-28T22:35:48.830000Z</time>
      </trkpt>
      <trkpt lat="39.872542" lon="116.6692929">
        <ele>21.07505</ele>
        <time>2026-07-28T22:35:53.807000Z</time>
      </trkpt>
      <trkpt lat="39.8725291" lon="116.6694269">
        <ele>21.19492</ele>
        <time>2026-07-28T22:35:58.784000Z</time>
      </trkpt>
      <trkpt lat="39.8725337" lon="116.6695604">
        <ele>21.36033</ele>
        <time>2026-07-28T22:36:03.761000Z</time>
      </trkpt>
      <trkpt lat="39.8725525" lon="116.6696933">
        <ele>21.51292</ele>
        <time>2026-07-28T22:36:08.738000Z</time>
      </trkpt>
      <trkpt lat="39.8725933" lon="116.6698177">
        <ele>21.63861</ele>
        <time>2026-07-28T22:36:13.715000Z</time>
      </trkpt>
      <trkpt lat="39.8726576" lon="116.6699246">
        <ele>21.69878</ele>
        <time>2026-07-28T22:36:18.692000Z</time>
      </trkpt>
      <trkpt lat="39.8727388" lon="116.6700095">
        <ele>21.62821</ele>
        <time>2026-07-28T22:36:23.668000Z</time>
      </trkpt>
      <trkpt lat="39.8728319" lon="116.6700752">
        <ele>21.42582</ele>
        <time>2026-07-28T22:36:28.645000Z</time>
      </trkpt>
      <trkpt lat="39.872931" lon="116.6701219">
        <ele>21.15167</ele>
        <time>2026-07-28T22:36:33.622000Z</time>
      </trkpt>
      <trkpt lat="39.8730335" lon="116.6701412">
        <ele>20.88848</ele>
        <time>2026-07-28T22:36:38.599000Z</time>
      </trkpt>
      <trkpt lat="39.8731364" lon="116.6701334">
        <ele>20.67511</ele>
        <time>2026-07-28T22:36:43.576000Z</time>
      </trkpt>
      <trkpt lat="39.8732394" lon="116.6701114">
        <ele>20.5366</ele>
        <time>2026-07-28T22:36:48.553000Z</time>
      </trkpt>
      <trkpt lat="39.8733412" lon="116.6700821">
        <ele>20.44074</ele>
        <time>2026-07-28T22:36:53.530000Z</time>
      </trkpt>
      <trkpt lat="39.8734407" lon="116.6700337">
        <ele>20.35771</ele>
        <time>2026-07-28T22:36:58.507000Z</time>
      </trkpt>
      <trkpt lat="39.8735245" lon="116.6699525">
        <ele>20.32665</ele>
        <time>2026-07-28T22:37:03.483000Z</time>
      </trkpt>
      <trkpt lat="39.873595" lon="116.6698534">
        <ele>20.38743</ele>
        <time>2026-07-28T22:37:08.460000Z</time>
      </trkpt>
      <trkpt lat="39.8736793" lon="116.6697728">
        <ele>20.54824</ele>
        <time>2026-07-28T22:37:13.437000Z</time>
      </trkpt>
      <trkpt lat="39.8737822" lon="116.6697389">
        <ele>20.76684</ele>
        <time>2026-07-28T22:37:18.414000Z</time>
      </trkpt>
      <trkpt lat="39.8738933" lon="116.6697486">
        <ele>20.96587</ele>
        <time>2026-07-28T22:37:23.391000Z</time>
      </trkpt>
      <trkpt lat="39.8739834" lon="116.6697628">
        <ele>21.07199</ele>
        <time>2026-07-28T22:37:27.372000Z</time>
      </trkpt>
      <trkpt lat="39.8740937" lon="116.6697694">
        <ele>21.10981</ele>
        <time>2026-07-28T22:37:32.349000Z</time>
      </trkpt>
      <trkpt lat="39.8742014" lon="116.6697483">
        <ele>21.07529</ele>
        <time>2026-07-28T22:37:37.326000Z</time>
      </trkpt>
      <trkpt lat="39.8742968" lon="116.6696863">
        <ele>21.0637</ele>
        <time>2026-07-28T22:37:42.303000Z</time>
      </trkpt>
      <trkpt lat="39.8743771" lon="116.6695945">
        <ele>21.15431</ele>
        <time>2026-07-28T22:37:47.280000Z</time>
      </trkpt>
      <trkpt lat="39.8744543" lon="116.6694972">
        <ele>21.33631</ele>
        <time>2026-07-28T22:37:52.257000Z</time>
      </trkpt>
      <trkpt lat="39.8745494" lon="116.6694294">
        <ele>21.53014</ele>
        <time>2026-07-28T22:37:57.234000Z</time>
      </trkpt>
      <trkpt lat="39.8746394" lon="116.6694198">
        <ele>21.65604</ele>
        <time>2026-07-28T22:38:01.215000Z</time>
      </trkpt>
      <trkpt lat="39.8747323" lon="116.6694441">
        <ele>21.75819</ele>
        <time>2026-07-28T22:38:05.197000Z</time>
      </trkpt>
      <trkpt lat="39.8748173" lon="116.6694871">
        <ele>21.87276</ele>
        <time>2026-07-28T22:38:09Z</time>
      </trkpt>
      <trkpt lat="39.874902" lon="116.6695451">
        <ele>22.05524</ele>
        <time>2026-07-28T22:38:13Z</time>
      </trkpt>
      <trkpt lat="39.874985" lon="116.6696062">
        <ele>22.28239</ele>
        <time>2026-07-28T22:38:17Z</time>
      </trkpt>
      <trkpt lat="39.8750703" lon="116.6696473">
        <ele>22.53533</ele>
        <time>2026-07-28T22:38:21Z</time>
      </trkpt>
      <trkpt lat="39.8751719" lon="116.6696151">
        <ele>22.83858</ele>
        <time>2026-07-28T22:38:26Z</time>
      </trkpt>
      <trkpt lat="39.8752536" lon="116.6695301">
        <ele>23.01929</ele>
        <time>2026-07-28T22:38:31Z</time>
      </trkpt>
      <trkpt lat="39.8753413" lon="116.6694732">
        <ele>23.1047</ele>
        <time>2026-07-28T22:38:36Z</time>
      </trkpt>
      <trkpt lat="39.8754422" lon="116.6694467">
        <ele>23.12196</ele>
        <time>2026-07-28T22:38:41Z</time>
      </trkpt>
      <trkpt lat="39.8755343" lon="116.6693951">
        <ele>23.09406</ele>
        <time>2026-07-28T22:38:46Z</time>
      </trkpt>
      <trkpt lat="39.8756066" lon="116.6693056">
        <ele>23.07957</ele>
        <time>2026-07-28T22:38:50.984000Z</time>
      </trkpt>
      <trkpt lat="39.8756355" lon="116.6691883">
        <ele>23.08296</ele>
        <time>2026-07-28T22:38:55.961000Z</time>
      </trkpt>
      <trkpt lat="39.875619" lon="116.6690698">
        <ele>23.10535</ele>
        <time>2026-07-28T22:39:00.938000Z</time>
      </trkpt>
      <trkpt lat="39.8755848" lon="116.6689551">
        <ele>23.11612</ele>
        <time>2026-07-28T22:39:05.914000Z</time>
      </trkpt>
      <trkpt lat="39.8755325" lon="116.6688498">
        <ele>23.0631</ele>
        <time>2026-07-28T22:39:10.891000Z</time>
      </trkpt>
      <trkpt lat="39.8754616" lon="116.6687554">
        <ele>22.94167</ele>
        <time>2026-07-28T22:39:15.868000Z</time>
      </trkpt>
      <trkpt lat="39.8753843" lon="116.6686638">
        <ele>22.77571</ele>
        <time>2026-07-28T22:39:20.845000Z</time>
      </trkpt>
      <trkpt lat="39.8753284" lon="116.6685476">
        <ele>22.63656</ele>
        <time>2026-07-28T22:39:25.822000Z</time>
      </trkpt>
      <trkpt lat="39.8753038" lon="116.6684349">
        <ele>22.56976</ele>
        <time>2026-07-28T22:39:29.803000Z</time>
      </trkpt>
      <trkpt lat="39.8752903" lon="116.6683163">
        <ele>22.55548</ele>
        <time>2026-07-28T22:39:33.785000Z</time>
      </trkpt>
      <trkpt lat="39.8752727" lon="116.6681982">
        <ele>22.58317</ele>
        <time>2026-07-28T22:39:37.766000Z</time>
      </trkpt>
      <trkpt lat="39.8752494" lon="116.6680831">
        <ele>22.62619</ele>
        <time>2026-07-28T22:39:41.748000Z</time>
      </trkpt>
      <trkpt lat="39.8752076" lon="116.6679484">
        <ele>22.70386</ele>
        <time>2026-07-28T22:39:46.725000Z</time>
      </trkpt>
      <trkpt lat="39.8751558" lon="116.667821">
        <ele>22.79864</ele>
        <time>2026-07-28T22:39:51.701000Z</time>
      </trkpt>
      <trkpt lat="39.8751014" lon="116.6677269">
        <ele>22.86067</ele>
        <time>2026-07-28T22:39:55.683000Z</time>
      </trkpt>
      <trkpt lat="39.8750151" lon="116.6676379">
        <ele>22.87732</ele>
        <time>2026-07-28T22:40:00.660000Z</time>
      </trkpt>
      <trkpt lat="39.8749314" lon="116.6675946">
        <ele>22.84734</ele>
        <time>2026-07-28T22:40:04.641000Z</time>
      </trkpt>
      <trkpt lat="39.874843" lon="116.6675623">
        <ele>22.82803</ele>
        <time>2026-07-28T22:40:08.623000Z</time>
      </trkpt>
      <trkpt lat="39.8747537" lon="116.6675445">
        <ele>22.84353</ele>
        <time>2026-07-28T22:40:12.604000Z</time>
      </trkpt>
      <trkpt lat="39.8746429" lon="116.667535">
        <ele>22.8513</ele>
        <time>2026-07-28T22:40:17.581000Z</time>
      </trkpt>
      <trkpt lat="39.8745347" lon="116.6675342">
        <ele>22.80416</ele>
        <time>2026-07-28T22:40:22.558000Z</time>
      </trkpt>
      <trkpt lat="39.8744269" lon="116.667555">
        <ele>22.68978</ele>
        <time>2026-07-28T22:40:27.535000Z</time>
      </trkpt>
      <trkpt lat="39.8743242" lon="116.6676014">
        <ele>22.52333</ele>
        <time>2026-07-28T22:40:32.512000Z</time>
      </trkpt>
      <trkpt lat="39.8742269" lon="116.6676583">
        <ele>22.33407</ele>
        <time>2026-07-28T22:40:37.488000Z</time>
      </trkpt>
      <trkpt lat="39.8741308" lon="116.6677201">
        <ele>22.17123</ele>
        <time>2026-07-28T22:40:42.465000Z</time>
      </trkpt>
      <trkpt lat="39.8740349" lon="116.6677752">
        <ele>22.048</ele>
        <time>2026-07-28T22:40:47.442000Z</time>
      </trkpt>
      <trkpt lat="39.8739342" lon="116.6678131">
        <ele>21.97869</ele>
        <time>2026-07-28T22:40:52.419000Z</time>
      </trkpt>
      <trkpt lat="39.8738256" lon="116.6678257">
        <ele>21.99791</ele>
        <time>2026-07-28T22:40:57.396000Z</time>
      </trkpt>
      <trkpt lat="39.8737339" lon="116.6678257">
        <ele>22.07235</ele>
        <time>2026-07-28T22:41:01.377000Z</time>
      </trkpt>
      <trkpt lat="39.873622" lon="116.6678095">
        <ele>22.1976</ele>
        <time>2026-07-28T22:41:06.354000Z</time>
      </trkpt>
      <trkpt lat="39.8735328" lon="116.667787">
        <ele>22.30454</ele>
        <time>2026-07-28T22:41:10.336000Z</time>
      </trkpt>
      <trkpt lat="39.8734399" lon="116.6677754">
        <ele>22.40989</ele>
        <time>2026-07-28T22:41:14.317000Z</time>
      </trkpt>
      <trkpt lat="39.8733482" lon="116.6677852">
        <ele>22.46709</ele>
        <time>2026-07-28T22:41:18.298000Z</time>
      </trkpt>
      <trkpt lat="39.8732431" lon="116.6678347">
        <ele>22.4229</ele>
        <time>2026-07-28T22:41:23.275000Z</time>
      </trkpt>
      <trkpt lat="39.8731404" lon="116.6678919">
        <ele>22.28988</ele>
        <time>2026-07-28T22:41:28.252000Z</time>
      </trkpt>
      <trkpt lat="39.8730525" lon="116.6679171">
        <ele>22.17156</ele>
        <time>2026-07-28T22:41:32.234000Z</time>
      </trkpt>
      <trkpt lat="39.8729616" lon="116.6679235">
        <ele>22.08437</ele>
        <time>2026-07-28T22:41:36.215000Z</time>
      </trkpt>
      <trkpt lat="39.8728712" lon="116.6679061">
        <ele>22.04216</ele>
        <time>2026-07-28T22:41:40.197000Z</time>
      </trkpt>
      <trkpt lat="39.8727821" lon="116.6678705">
        <ele>22.02022</ele>
        <time>2026-07-28T22:41:44.178000Z</time>
      </trkpt>
      <trkpt lat="39.872692" lon="116.6678376">
        <ele>22.05633</ele>
        <time>2026-07-28T22:41:48.160000Z</time>
      </trkpt>
      <trkpt lat="39.8726013" lon="116.667812">
        <ele>22.14525</ele>
        <time>2026-07-28T22:41:52.141000Z</time>
      </trkpt>
      <trkpt lat="39.8725114" lon="116.6677977">
        <ele>22.21411</ele>
        <time>2026-07-28T22:41:56.123000Z</time>
      </trkpt>
      <trkpt lat="39.8723993" lon="116.6677905">
        <ele>22.17825</ele>
        <time>2026-07-28T22:42:01.099000Z</time>
      </trkpt>
      <trkpt lat="39.8722877" lon="116.6677909">
        <ele>22.03437</ele>
        <time>2026-07-28T22:42:06.076000Z</time>
      </trkpt>
      <trkpt lat="39.8721762" lon="116.6677954">
        <ele>21.83805</ele>
        <time>2026-07-28T22:42:11.053000Z</time>
      </trkpt>
      <trkpt lat="39.8720859" lon="116.6677893">
        <ele>21.61895</ele>
        <time>2026-07-28T22:42:15.035000Z</time>
      </trkpt>
      <trkpt lat="39.8719769" lon="116.6677616">
        <ele>21.3506</ele>
        <time>2026-07-28T22:42:20.011000Z</time>
      </trkpt>
      <trkpt lat="39.8718908" lon="116.6677261">
        <ele>21.17838</ele>
        <time>2026-07-28T22:42:23.993000Z</time>
      </trkpt>
      <trkpt lat="39.8718053" lon="116.6676833">
        <ele>21.02068</ele>
        <time>2026-07-28T22:42:27.974000Z</time>
      </trkpt>
      <trkpt lat="39.8717217" lon="116.6676362">
        <ele>20.88808</ele>
        <time>2026-07-28T22:42:31.956000Z</time>
      </trkpt>
      <trkpt lat="39.8716381" lon="116.6675907">
        <ele>20.83509</ele>
        <time>2026-07-28T22:42:35.937000Z</time>
      </trkpt>
      <trkpt lat="39.8715511" lon="116.6675554">
        <ele>20.84778</ele>
        <time>2026-07-28T22:42:39.919000Z</time>
      </trkpt>
      <trkpt lat="39.8714622" lon="116.6675286">
        <ele>20.87106</ele>
        <time>2026-07-28T22:42:43.900000Z</time>
      </trkpt>
      <trkpt lat="39.871352" lon="116.6675083">
        <ele>20.85981</ele>
        <time>2026-07-28T22:42:48.877000Z</time>
      </trkpt>
      <trkpt lat="39.8712411" lon="116.6675116">
        <ele>20.81428</ele>
        <time>2026-07-28T22:42:53.854000Z</time>
      </trkpt>
      <trkpt lat="39.8711333" lon="116.6675152">
        <ele>20.74043</ele>
        <time>2026-07-28T22:42:58.831000Z</time>
      </trkpt>
      <trkpt lat="39.8710444" lon="116.6675465">
        <ele>20.69906</ele>
        <time>2026-07-28T22:43:03.808000Z</time>
      </trkpt>
      <trkpt lat="39.8710342" lon="116.6676764">
        <ele>20.80288</ele>
        <time>2026-07-28T22:43:09.780000Z</time>
      </trkpt>
      <trkpt lat="39.8710018" lon="116.6678057">
        <ele>21.09966</ele>
        <time>2026-07-28T22:43:15.752000Z</time>
      </trkpt>
      <trkpt lat="39.8708962" lon="116.6678372">
        <ele>21.36777</ele>
        <time>2026-07-28T22:43:20.729000Z</time>
      </trkpt>
      <trkpt lat="39.8708056" lon="116.6678485">
        <ele>21.56178</ele>
        <time>2026-07-28T22:43:24.710000Z</time>
      </trkpt>
      <trkpt lat="39.8706943" lon="116.6678636">
        <ele>21.76643</ele>
        <time>2026-07-28T22:43:29.687000Z</time>
      </trkpt>
      <trkpt lat="39.8705821" lon="116.6678634">
        <ele>21.93406</ele>
        <time>2026-07-28T22:43:34.664000Z</time>
      </trkpt>
      <trkpt lat="39.8704722" lon="116.6678485">
        <ele>22.06886</ele>
        <time>2026-07-28T22:43:39.641000Z</time>
      </trkpt>
      <trkpt lat="39.870363" lon="116.6678172">
        <ele>22.15242</ele>
        <time>2026-07-28T22:43:44.618000Z</time>
      </trkpt>
      <trkpt lat="39.870254" lon="116.6678">
        <ele>22.17835</ele>
        <time>2026-07-28T22:43:49.594000Z</time>
      </trkpt>
      <trkpt lat="39.8701623" lon="116.6677986">
        <ele>22.18277</ele>
        <time>2026-07-28T22:43:53.576000Z</time>
      </trkpt>
      <trkpt lat="39.8700671" lon="116.6677943">
        <ele>22.17734</ele>
        <time>2026-07-28T22:43:57.557000Z</time>
      </trkpt>
      <trkpt lat="39.8699706" lon="116.66778">
        <ele>22.13993</ele>
        <time>2026-07-28T22:44:01.539000Z</time>
      </trkpt>
      <trkpt lat="39.8698705" lon="116.6677592">
        <ele>22.06323</ele>
        <time>2026-07-28T22:44:05.520000Z</time>
      </trkpt>
      <trkpt lat="39.8697722" lon="116.6677391">
        <ele>21.97014</ele>
        <time>2026-07-28T22:44:09.502000Z</time>
      </trkpt>
      <trkpt lat="39.8696817" lon="116.6677364">
        <ele>21.86764</ele>
        <time>2026-07-28T22:44:13.483000Z</time>
      </trkpt>
      <trkpt lat="39.8695763" lon="116.6677729">
        <ele>21.7469</ele>
        <time>2026-07-28T22:44:18.460000Z</time>
      </trkpt>
      <trkpt lat="39.8695001" lon="116.6678572">
        <ele>21.6596</ele>
        <time>2026-07-28T22:44:23.437000Z</time>
      </trkpt>
      <trkpt lat="39.8694638" lon="116.6679799">
        <ele>21.60259</ele>
        <time>2026-07-28T22:44:28.414000Z</time>
      </trkpt>
      <trkpt lat="39.8694579" lon="116.6681096">
        <ele>21.59947</ele>
        <time>2026-07-28T22:44:33.391000Z</time>
      </trkpt>
      <trkpt lat="39.8694804" lon="116.6682355">
        <ele>21.60919</ele>
        <time>2026-07-28T22:44:38.368000Z</time>
      </trkpt>
      <trkpt lat="39.8695397" lon="116.6683359">
        <ele>21.48469</ele>
        <time>2026-07-28T22:44:43.345000Z</time>
      </trkpt>
      <trkpt lat="39.8696261" lon="116.6683875">
        <ele>21.21892</ele>
        <time>2026-07-28T22:44:48.321000Z</time>
      </trkpt>
      <trkpt lat="39.8697235" lon="116.6683732">
        <ele>20.90935</ele>
        <time>2026-07-28T22:44:53.298000Z</time>
      </trkpt>
      <trkpt lat="39.8698173" lon="116.6683256">
        <ele>20.6946</ele>
        <time>2026-07-28T22:44:58.275000Z</time>
      </trkpt>
      <trkpt lat="39.8699141" lon="116.6682897">
        <ele>20.61451</ele>
        <time>2026-07-28T22:45:03.252000Z</time>
      </trkpt>
      <trkpt lat="39.8700167" lon="116.6682879">
        <ele>20.60257</ele>
        <time>2026-07-28T22:45:08.229000Z</time>
      </trkpt>
      <trkpt lat="39.8701189" lon="116.6682816">
        <ele>20.63711</ele>
        <time>2026-07-28T22:45:13.206000Z</time>
      </trkpt>
      <trkpt lat="39.8702125" lon="116.6682453">
        <ele>20.69573</ele>
        <time>2026-07-28T22:45:18Z</time>
      </trkpt>
      <trkpt lat="39.8703064" lon="116.668179">
        <ele>20.6871</ele>
        <time>2026-07-28T22:45:23.160000Z</time>
      </trkpt>
      <trkpt lat="39.8703967" lon="116.6681137">
        <ele>20.56624</ele>
        <time>2026-07-28T22:45:28Z</time>
      </trkpt>
      <trkpt lat="39.8705006" lon="116.6680676">
        <ele>20.3878</ele>
        <time>2026-07-28T22:45:33Z</time>
      </trkpt>
      <trkpt lat="39.8706065" lon="116.6680639">
        <ele>20.26407</ele>
        <time>2026-07-28T22:45:38Z</time>
      </trkpt>
      <trkpt lat="39.8707108" lon="116.6680883">
        <ele>20.1796</ele>
        <time>2026-07-28T22:45:43Z</time>
      </trkpt>
      <trkpt lat="39.8708169" lon="116.6681109">
        <ele>20.11045</ele>
        <time>2026-07-28T22:45:48Z</time>
      </trkpt>
      <trkpt lat="39.8709201" lon="116.6681041">
        <ele>20.07653</ele>
        <time>2026-07-28T22:45:53Z</time>
      </trkpt>
      <trkpt lat="39.8710211" lon="116.6680806">
        <ele>20.26814</ele>
        <time>2026-07-28T22:45:57.998000Z</time>
      </trkpt>
      <trkpt lat="39.8711132" lon="116.6680408">
        <ele>20.58524</ele>
        <time>2026-07-28T22:46:02.975000Z</time>
      </trkpt>
      <trkpt lat="39.8711978" lon="116.6679838">
        <ele>20.73665</ele>
        <time>2026-07-28T22:46:07.952000Z</time>
      </trkpt>
      <trkpt lat="39.8712924" lon="116.6679417">
        <ele>20.768</ele>
        <time>2026-07-28T22:46:12.928000Z</time>
      </trkpt>
      <trkpt lat="39.8713938" lon="116.6679272">
        <ele>20.75399</ele>
        <time>2026-07-28T22:46:17.905000Z</time>
      </trkpt>
      <trkpt lat="39.8714971" lon="116.6679453">
        <ele>20.70071</ele>
        <time>2026-07-28T22:46:22.882000Z</time>
      </trkpt>
      <trkpt lat="39.8715996" lon="116.6679864">
        <ele>20.60161</ele>
        <time>2026-07-28T22:46:27.859000Z</time>
      </trkpt>
      <trkpt lat="39.8716925" lon="116.66805">
        <ele>20.52247</ele>
        <time>2026-07-28T22:46:32.836000Z</time>
      </trkpt>
      <trkpt lat="39.8717885" lon="116.6681173">
        <ele>20.50699</ele>
        <time>2026-07-28T22:46:37.813000Z</time>
      </trkpt>
      <trkpt lat="39.8718884" lon="116.6681658">
        <ele>20.56135</ele>
        <time>2026-07-28T22:46:42.790000Z</time>
      </trkpt>
      <trkpt lat="39.8719915" lon="116.6681922">
        <ele>20.65481</ele>
        <time>2026-07-28T22:46:47.767000Z</time>
      </trkpt>
      <trkpt lat="39.8720983" lon="116.6682008">
        <ele>20.79699</ele>
        <time>2026-07-28T22:46:52.744000Z</time>
      </trkpt>
      <trkpt lat="39.8722098" lon="116.6682036">
        <ele>20.98472</ele>
        <time>2026-07-28T22:46:57.720000Z</time>
      </trkpt>
      <trkpt lat="39.872316" lon="116.6682319">
        <ele>21.14287</ele>
        <time>2026-07-28T22:47:02.697000Z</time>
      </trkpt>
      <trkpt lat="39.8723973" lon="116.6682851">
        <ele>21.20844</ele>
        <time>2026-07-28T22:47:06.679000Z</time>
      </trkpt>
      <trkpt lat="39.8724842" lon="116.6683748">
        <ele>21.21727</ele>
        <time>2026-07-28T22:47:11.656000Z</time>
      </trkpt>
      <trkpt lat="39.8725587" lon="116.6684771">
        <ele>21.20791</ele>
        <time>2026-07-28T22:47:16.633000Z</time>
      </trkpt>
      <trkpt lat="39.8726142" lon="116.6685949">
        <ele>21.25159</ele>
        <time>2026-07-28T22:47:21.610000Z</time>
      </trkpt>
      <trkpt lat="39.8726392" lon="116.668727">
        <ele>21.31534</ele>
        <time>2026-07-28T22:47:26.586000Z</time>
      </trkpt>
      <trkpt lat="39.8726407" lon="116.6688649">
        <ele>21.36424</ele>
        <time>2026-07-28T22:47:31.563000Z</time>
      </trkpt>
      <trkpt lat="39.8726179" lon="116.6689993">
        <ele>21.3951</ele>
        <time>2026-07-28T22:47:36.540000Z</time>
      </trkpt>
      <trkpt lat="39.8725836" lon="116.6691258">
        <ele>21.43657</ele>
        <time>2026-07-28T22:47:41.517000Z</time>
      </trkpt>
      <trkpt lat="39.8725499" lon="116.6692523">
        <ele>21.49132</ele>
        <time>2026-07-28T22:47:46.494000Z</time>
      </trkpt>
      <trkpt lat="39.8725302" lon="116.6693831">
        <ele>21.54494</ele>
        <time>2026-07-28T22:47:51.471000Z</time>
      </trkpt>
      <trkpt lat="39.8725201" lon="116.6695183">
        <ele>21.61276</ele>
        <time>2026-07-28T22:47:56.448000Z</time>
      </trkpt>
      <trkpt lat="39.8725274" lon="116.6696504">
        <ele>21.70232</ele>
        <time>2026-07-28T22:48:01.425000Z</time>
      </trkpt>
      <trkpt lat="39.8725573" lon="116.6697801">
        <ele>21.80089</ele>
        <time>2026-07-28T22:48:06.402000Z</time>
      </trkpt>
      <trkpt lat="39.8726025" lon="116.6699014">
        <ele>21.85276</ele>
        <time>2026-07-28T22:48:11.378000Z</time>
      </trkpt>
      <trkpt lat="39.8726677" lon="116.6700068">
        <ele>21.81934</ele>
        <time>2026-07-28T22:48:16.355000Z</time>
      </trkpt>
      <trkpt lat="39.8727501" lon="116.6700785">
        <ele>21.73085</ele>
        <time>2026-07-28T22:48:21.332000Z</time>
      </trkpt>
      <trkpt lat="39.8728409" lon="116.6701201">
        <ele>21.6017</ele>
        <time>2026-07-28T22:48:26.309000Z</time>
      </trkpt>
      <trkpt lat="39.8729378" lon="116.6701394">
        <ele>21.44529</ele>
        <time>2026-07-28T22:48:31.286000Z</time>
      </trkpt>
      <trkpt lat="39.8730361" lon="116.6701342">
        <ele>21.30624</ele>
        <time>2026-07-28T22:48:36.263000Z</time>
      </trkpt>
      <trkpt lat="39.8731395" lon="116.6701206">
        <ele>21.22727</ele>
        <time>2026-07-28T22:48:41.240000Z</time>
      </trkpt>
      <trkpt lat="39.8732413" lon="116.670096">
        <ele>21.17707</ele>
        <time>2026-07-28T22:48:46.217000Z</time>
      </trkpt>
      <trkpt lat="39.8733381" lon="116.6700713">
        <ele>21.11568</ele>
        <time>2026-07-28T22:48:51Z</time>
      </trkpt>
      <trkpt lat="39.8734309" lon="116.6700371">
        <ele>21.03438</ele>
        <time>2026-07-28T22:48:56Z</time>
      </trkpt>
      <trkpt lat="39.8735326" lon="116.6699863">
        <ele>20.93616</ele>
        <time>2026-07-28T22:49:02.143000Z</time>
      </trkpt>
      <trkpt lat="39.8736055" lon="116.6699105">
        <ele>20.88309</ele>
        <time>2026-07-28T22:49:07.120000Z</time>
      </trkpt>
      <trkpt lat="39.8736953" lon="116.6698341">
        <ele>20.92176</ele>
        <time>2026-07-28T22:49:13.092000Z</time>
      </trkpt>
      <trkpt lat="39.8737614" lon="116.6697407">
        <ele>21.04196</ele>
        <time>2026-07-28T22:49:19.065000Z</time>
      </trkpt>
      <trkpt lat="39.8738535" lon="116.6697481">
        <ele>21.14429</ele>
        <time>2026-07-28T22:49:24.042000Z</time>
      </trkpt>
      <trkpt lat="39.8739588" lon="116.6697875">
        <ele>21.19397</ele>
        <time>2026-07-28T22:49:29.018000Z</time>
      </trkpt>
      <trkpt lat="39.8740479" lon="116.6698059">
        <ele>21.1732</ele>
        <time>2026-07-28T22:49:33Z</time>
      </trkpt>
      <trkpt lat="39.8741396" lon="116.6698029">
        <ele>21.07746</ele>
        <time>2026-07-28T22:49:36.992000Z</time>
      </trkpt>
      <trkpt lat="39.8742284" lon="116.6697775">
        <ele>20.95073</ele>
        <time>2026-07-28T22:49:40.973000Z</time>
      </trkpt>
      <trkpt lat="39.8743238" lon="116.6697046">
        <ele>20.86328</ele>
        <time>2026-07-28T22:49:45.950000Z</time>
      </trkpt>
      <trkpt lat="39.8744039" lon="116.6696023">
        <ele>20.94669</ele>
        <time>2026-07-28T22:49:50.927000Z</time>
      </trkpt>
      <trkpt lat="39.8744842" lon="116.6695085">
        <ele>21.2154</ele>
        <time>2026-07-28T22:49:55.904000Z</time>
      </trkpt>
      <trkpt lat="39.8745855" lon="116.6694593">
        <ele>21.59647</ele>
        <time>2026-07-28T22:50:00.881000Z</time>
      </trkpt>
      <trkpt lat="39.8746956" lon="116.6694595">
        <ele>22.01013</ele>
        <time>2026-07-28T22:50:05.858000Z</time>
      </trkpt>
      <trkpt lat="39.8747962" lon="116.6695148">
        <ele>22.39215</ele>
        <time>2026-07-28T22:50:10.835000Z</time>
      </trkpt>
      <trkpt lat="39.8748959" lon="116.6695797">
        <ele>22.67702</ele>
        <time>2026-07-28T22:50:15.811000Z</time>
      </trkpt>
      <trkpt lat="39.8749965" lon="116.6696449">
        <ele>22.82793</ele>
        <time>2026-07-28T22:50:20.788000Z</time>
      </trkpt>
      <trkpt lat="39.8751026" lon="116.6696709">
        <ele>22.86148</ele>
        <time>2026-07-28T22:50:25.765000Z</time>
      </trkpt>
      <trkpt lat="39.8751944" lon="116.6696056">
        <ele>22.84757</ele>
        <time>2026-07-28T22:50:30.742000Z</time>
      </trkpt>
      <trkpt lat="39.8752776" lon="116.6695191">
        <ele>22.8521</ele>
        <time>2026-07-28T22:50:35.719000Z</time>
      </trkpt>
      <trkpt lat="39.8753735" lon="116.6694798">
        <ele>22.86643</ele>
        <time>2026-07-28T22:50:40.696000Z</time>
      </trkpt>
      <trkpt lat="39.8754709" lon="116.6694535">
        <ele>22.88709</ele>
        <time>2026-07-28T22:50:45.673000Z</time>
      </trkpt>
      <trkpt lat="39.8755497" lon="116.6693814">
        <ele>22.94753</ele>
        <time>2026-07-28T22:50:50.650000Z</time>
      </trkpt>
      <trkpt lat="39.8755853" lon="116.669262">
        <ele>23.05792</ele>
        <time>2026-07-28T22:50:55.627000Z</time>
      </trkpt>
      <trkpt lat="39.875591" lon="116.6691288">
        <ele>23.16229</ele>
        <time>2026-07-28T22:51:00.604000Z</time>
      </trkpt>
      <trkpt lat="39.8755699" lon="116.6690006">
        <ele>23.22258</ele>
        <time>2026-07-28T22:51:05.581000Z</time>
      </trkpt>
      <trkpt lat="39.8755299" lon="116.6688767">
        <ele>23.18914</ele>
        <time>2026-07-28T22:51:10.557000Z</time>
      </trkpt>
      <trkpt lat="39.8754608" lon="116.6687665">
        <ele>23.03561</ele>
        <time>2026-07-28T22:51:15.534000Z</time>
      </trkpt>
      <trkpt lat="39.8753832" lon="116.6686692">
        <ele>22.86805</ele>
        <time>2026-07-28T22:51:20.511000Z</time>
      </trkpt>
      <trkpt lat="39.8753208" lon="116.6685559">
        <ele>22.72292</ele>
        <time>2026-07-28T22:51:25.488000Z</time>
      </trkpt>
      <trkpt lat="39.875287" lon="116.6684258">
        <ele>22.61898</ele>
        <time>2026-07-28T22:51:30.465000Z</time>
      </trkpt>
      <trkpt lat="39.8752681" lon="116.668287">
        <ele>22.58252</ele>
        <time>2026-07-28T22:51:35.442000Z</time>
      </trkpt>
      <trkpt lat="39.8752477" lon="116.6681459">
        <ele>22.6082</ele>
        <time>2026-07-28T22:51:40.419000Z</time>
      </trkpt>
      <trkpt lat="39.8752152" lon="116.6680103">
        <ele>22.66163</ele>
        <time>2026-07-28T22:51:45.396000Z</time>
      </trkpt>
      <trkpt lat="39.8751772" lon="116.6679028">
        <ele>22.68985</ele>
        <time>2026-07-28T22:51:49.377000Z</time>
      </trkpt>
      <trkpt lat="39.8751293" lon="116.6677995">
        <ele>22.68895</ele>
        <time>2026-07-28T22:51:53.359000Z</time>
      </trkpt>
      <trkpt lat="39.8750709" lon="116.667708">
        <ele>22.67663</ele>
        <time>2026-07-28T22:51:57.340000Z</time>
      </trkpt>
      <trkpt lat="39.8750011" lon="116.6676332">
        <ele>22.68006</ele>
        <time>2026-07-28T22:52:01.322000Z</time>
      </trkpt>
      <trkpt lat="39.8749163" lon="116.6675893">
        <ele>22.69728</ele>
        <time>2026-07-28T22:52:05.303000Z</time>
      </trkpt>
      <trkpt lat="39.874826" lon="116.6675679">
        <ele>22.72349</ele>
        <time>2026-07-28T22:52:09.285000Z</time>
      </trkpt>
      <trkpt lat="39.8747143" lon="116.667555">
        <ele>22.71717</ele>
        <time>2026-07-28T22:52:14.262000Z</time>
      </trkpt>
      <trkpt lat="39.8746237" lon="116.6675471">
        <ele>22.67562</ele>
        <time>2026-07-28T22:52:18.243000Z</time>
      </trkpt>
      <trkpt lat="39.8745122" lon="116.6675517">
        <ele>22.57693</ele>
        <time>2026-07-28T22:52:23.220000Z</time>
      </trkpt>
      <trkpt lat="39.8744222" lon="116.6675704">
        <ele>22.44457</ele>
        <time>2026-07-28T22:52:27.201000Z</time>
      </trkpt>
      <trkpt lat="39.8743139" lon="116.6676065">
        <ele>22.22822</ele>
        <time>2026-07-28T22:52:32.178000Z</time>
      </trkpt>
      <trkpt lat="39.8742099" lon="116.6676566">
        <ele>21.99322</ele>
        <time>2026-07-28T22:52:37.155000Z</time>
      </trkpt>
      <trkpt lat="39.874114" lon="116.6677185">
        <ele>21.799</ele>
        <time>2026-07-28T22:52:42.132000Z</time>
      </trkpt>
      <trkpt lat="39.8740151" lon="116.6677743">
        <ele>21.65806</ele>
        <time>2026-07-28T22:52:47.109000Z</time>
      </trkpt>
      <trkpt lat="39.8739097" lon="116.6678088">
        <ele>21.55901</ele>
        <time>2026-07-28T22:52:52.086000Z</time>
      </trkpt>
      <trkpt lat="39.8737988" lon="116.6678176">
        <ele>21.48328</ele>
        <time>2026-07-28T22:52:57.063000Z</time>
      </trkpt>
      <trkpt lat="39.8737066" lon="116.6678105">
        <ele>21.44196</ele>
        <time>2026-07-28T22:53:01.044000Z</time>
      </trkpt>
      <trkpt lat="39.8736166" lon="116.6677962">
        <ele>21.41329</ele>
        <time>2026-07-28T22:53:05Z</time>
      </trkpt>
      <trkpt lat="39.8735262" lon="116.6677784">
        <ele>21.45129</ele>
        <time>2026-07-28T22:53:09Z</time>
      </trkpt>
      <trkpt lat="39.8734348" lon="116.6677619">
        <ele>21.60036</ele>
        <time>2026-07-28T22:53:12.989000Z</time>
      </trkpt>
      <trkpt lat="39.8733254" lon="116.6677788">
        <ele>21.82883</ele>
        <time>2026-07-28T22:53:17.966000Z</time>
      </trkpt>
      <trkpt lat="39.8732236" lon="116.6678344">
        <ele>21.93934</ele>
        <time>2026-07-28T22:53:22.943000Z</time>
      </trkpt>
      <trkpt lat="39.8731251" lon="116.6678926">
        <ele>21.88147</ele>
        <time>2026-07-28T22:53:27.919000Z</time>
      </trkpt>
      <trkpt lat="39.8730205" lon="116.6679221">
        <ele>21.72799</ele>
        <time>2026-07-28T22:53:32.896000Z</time>
      </trkpt>
      <trkpt lat="39.8729107" lon="116.66792">
        <ele>21.58117</ele>
        <time>2026-07-28T22:53:37.873000Z</time>
      </trkpt>
      <trkpt lat="39.8728074" lon="116.6678899">
        <ele>21.49849</ele>
        <time>2026-07-28T22:53:42.850000Z</time>
      </trkpt>
      <trkpt lat="39.872706" lon="116.6678444">
        <ele>21.53141</ele>
        <time>2026-07-28T22:53:47.827000Z</time>
      </trkpt>
      <trkpt lat="39.8725964" lon="116.6678126">
        <ele>21.63646</ele>
        <time>2026-07-28T22:53:52.804000Z</time>
      </trkpt>
      <trkpt lat="39.8724848" lon="116.6678032">
        <ele>21.73744</ele>
        <time>2026-07-28T22:53:57.781000Z</time>
      </trkpt>
      <trkpt lat="39.8723725" lon="116.667808">
        <ele>21.75192</ele>
        <time>2026-07-28T22:54:02.758000Z</time>
      </trkpt>
      <trkpt lat="39.8722613" lon="116.667823">
        <ele>21.64301</ele>
        <time>2026-07-28T22:54:07.735000Z</time>
      </trkpt>
      <trkpt lat="39.8721492" lon="116.6678192">
        <ele>21.4569</ele>
        <time>2026-07-28T22:54:12.711000Z</time>
      </trkpt>
      <trkpt lat="39.872058" lon="116.6677987">
        <ele>21.27441</ele>
        <time>2026-07-28T22:54:16.693000Z</time>
      </trkpt>
      <trkpt lat="39.8719666" lon="116.6677701">
        <ele>21.08958</ele>
        <time>2026-07-28T22:54:20.675000Z</time>
      </trkpt>
      <trkpt lat="39.8718781" lon="116.6677293">
        <ele>20.90618</ele>
        <time>2026-07-28T22:54:24.656000Z</time>
      </trkpt>
      <trkpt lat="39.8717929" lon="116.6676744">
        <ele>20.71917</ele>
        <time>2026-07-28T22:54:28.637000Z</time>
      </trkpt>
      <trkpt lat="39.871705" lon="116.6676234">
        <ele>20.54771</ele>
        <time>2026-07-28T22:54:32.619000Z</time>
      </trkpt>
      <trkpt lat="39.8716133" lon="116.6675852">
        <ele>20.41905</ele>
        <time>2026-07-28T22:54:36.601000Z</time>
      </trkpt>
      <trkpt lat="39.8715206" lon="116.6675597">
        <ele>20.35776</ele>
        <time>2026-07-28T22:54:40.582000Z</time>
      </trkpt>
      <trkpt lat="39.871425" lon="116.6675425">
        <ele>20.35134</ele>
        <time>2026-07-28T22:54:44.564000Z</time>
      </trkpt>
      <trkpt lat="39.8713162" lon="116.6675381">
        <ele>20.3854</ele>
        <time>2026-07-28T22:54:49.540000Z</time>
      </trkpt>
      <trkpt lat="39.8712109" lon="116.6675402">
        <ele>20.42796</ele>
        <time>2026-07-28T22:54:54.517000Z</time>
      </trkpt>
      <trkpt lat="39.8711085" lon="116.6675386">
        <ele>20.40783</ele>
        <time>2026-07-28T22:54:59.494000Z</time>
      </trkpt>
      <trkpt lat="39.8710427" lon="116.6676215">
        <ele>20.38745</ele>
        <time>2026-07-28T22:55:05.467000Z</time>
      </trkpt>
      <trkpt lat="39.8710342" lon="116.667747">
        <ele>20.4839</ele>
        <time>2026-07-28T22:55:10.443000Z</time>
      </trkpt>
      <trkpt lat="39.8709544" lon="116.6678222">
        <ele>20.68324</ele>
        <time>2026-07-28T22:55:15.420000Z</time>
      </trkpt>
      <trkpt lat="39.8708629" lon="116.6678376">
        <ele>20.85443</ele>
        <time>2026-07-28T22:55:19.402000Z</time>
      </trkpt>
      <trkpt lat="39.8707673" lon="116.6678418">
        <ele>20.99456</ele>
        <time>2026-07-28T22:55:23.383000Z</time>
      </trkpt>
      <trkpt lat="39.8706715" lon="116.6678426">
        <ele>21.08897</ele>
        <time>2026-07-28T22:55:27.365000Z</time>
      </trkpt>
      <trkpt lat="39.8705785" lon="116.6678452">
        <ele>21.1323</ele>
        <time>2026-07-28T22:55:31.346000Z</time>
      </trkpt>
      <trkpt lat="39.8704851" lon="116.6678387">
        <ele>21.12677</ele>
        <time>2026-07-28T22:55:35.328000Z</time>
      </trkpt>
      <trkpt lat="39.8703914" lon="116.6678134">
        <ele>21.06801</ele>
        <time>2026-07-28T22:55:39.309000Z</time>
      </trkpt>
      <trkpt lat="39.8703035" lon="116.6677782">
        <ele>20.96466</ele>
        <time>2026-07-28T22:55:43.291000Z</time>
      </trkpt>
      <trkpt lat="39.8701997" lon="116.6677726">
        <ele>20.87002</ele>
        <time>2026-07-28T22:55:48.268000Z</time>
      </trkpt>
      <trkpt lat="39.8701066" lon="116.6677795">
        <ele>20.87998</ele>
        <time>2026-07-28T22:55:52.249000Z</time>
      </trkpt>
      <trkpt lat="39.8700102" lon="116.6677833">
        <ele>20.95478</ele>
        <time>2026-07-28T22:55:56.231000Z</time>
      </trkpt>
      <trkpt lat="39.869911" lon="116.6677755">
        <ele>21.07177</ele>
        <time>2026-07-28T22:56:00.212000Z</time>
      </trkpt>
      <trkpt lat="39.8698109" lon="116.667756">
        <ele>21.24107</ele>
        <time>2026-07-28T22:56:04.194000Z</time>
      </trkpt>
      <trkpt lat="39.8697182" lon="116.6677454">
        <ele>21.41774</ele>
        <time>2026-07-28T22:56:08Z</time>
      </trkpt>
      <trkpt lat="39.8696234" lon="116.667762">
        <ele>21.4899</ele>
        <time>2026-07-28T22:56:12Z</time>
      </trkpt>
      <trkpt lat="39.8695266" lon="116.6678278">
        <ele>21.43997</ele>
        <time>2026-07-28T22:56:17Z</time>
      </trkpt>
      <trkpt lat="39.8694776" lon="116.6679489">
        <ele>21.36508</ele>
        <time>2026-07-28T22:56:22.111000Z</time>
      </trkpt>
      <trkpt lat="39.8694804" lon="116.6680909">
        <ele>21.37779</ele>
        <time>2026-07-28T22:56:27.088000Z</time>
      </trkpt>
      <trkpt lat="39.8695131" lon="116.6682269">
        <ele>21.44738</ele>
        <time>2026-07-28T22:56:32.065000Z</time>
      </trkpt>
      <trkpt lat="39.8695751" lon="116.6683379">
        <ele>21.46637</ele>
        <time>2026-07-28T22:56:37.042000Z</time>
      </trkpt>
      <trkpt lat="39.8696628" lon="116.6684061">
        <ele>21.30871</ele>
        <time>2026-07-28T22:56:42.018000Z</time>
      </trkpt>
      <trkpt lat="39.8697587" lon="116.6683964">
        <ele>21.06259</ele>
        <time>2026-07-28T22:56:46.995000Z</time>
      </trkpt>
      <trkpt lat="39.8698373" lon="116.6683308">
        <ele>20.87142</ele>
        <time>2026-07-28T22:56:51.972000Z</time>
      </trkpt>
      <trkpt lat="39.8699285" lon="116.6682913">
        <ele>20.73456</ele>
        <time>2026-07-28T22:56:56.949000Z</time>
      </trkpt>
      <trkpt lat="39.870034" lon="116.6682824">
        <ele>20.6316</ele>
        <time>2026-07-28T22:57:01.926000Z</time>
      </trkpt>
      <trkpt lat="39.8701405" lon="116.6682653">
        <ele>20.53031</ele>
        <time>2026-07-28T22:57:06.903000Z</time>
      </trkpt>
      <trkpt lat="39.8702414" lon="116.6682161">
        <ele>20.44714</ele>
        <time>2026-07-28T22:57:11.880000Z</time>
      </trkpt>
      <trkpt lat="39.8703382" lon="116.6681522">
        <ele>20.38719</ele>
        <time>2026-07-28T22:57:16.857000Z</time>
      </trkpt>
      <trkpt lat="39.8704222" lon="116.6681076">
        <ele>20.36004</ele>
        <time>2026-07-28T22:57:20.838000Z</time>
      </trkpt>
      <trkpt lat="39.8705254" lon="116.668092">
        <ele>20.35794</ele>
        <time>2026-07-28T22:57:25.815000Z</time>
      </trkpt>
      <trkpt lat="39.8706151" lon="116.668112">
        <ele>20.41784</ele>
        <time>2026-07-28T22:57:29.797000Z</time>
      </trkpt>
      <trkpt lat="39.8707042" lon="116.6681381">
        <ele>20.54447</ele>
        <time>2026-07-28T22:57:33.778000Z</time>
      </trkpt>
      <trkpt lat="39.8708121" lon="116.6681583">
        <ele>20.72935</ele>
        <time>2026-07-28T22:57:38.755000Z</time>
      </trkpt>
      <trkpt lat="39.870922" lon="116.6681422">
        <ele>20.88317</ele>
        <time>2026-07-28T22:57:43.732000Z</time>
      </trkpt>
      <trkpt lat="39.8710277" lon="116.6681015">
        <ele>20.99111</ele>
        <time>2026-07-28T22:57:48.709000Z</time>
      </trkpt>
      <trkpt lat="39.871123" lon="116.6680425">
        <ele>21.051</ele>
        <time>2026-07-28T22:57:53.686000Z</time>
      </trkpt>
      <trkpt lat="39.8712141" lon="116.6679737">
        <ele>21.02058</ele>
        <time>2026-07-28T22:57:58.663000Z</time>
      </trkpt>
      <trkpt lat="39.8713101" lon="116.6679182">
        <ele>20.90332</ele>
        <time>2026-07-28T22:58:03.640000Z</time>
      </trkpt>
      <trkpt lat="39.8714148" lon="116.6678897">
        <ele>20.75795</ele>
        <time>2026-07-28T22:58:08.617000Z</time>
      </trkpt>
      <trkpt lat="39.8715206" lon="116.6678856">
        <ele>20.64281</ele>
        <time>2026-07-28T22:58:13.594000Z</time>
      </trkpt>
      <trkpt lat="39.8716226" lon="116.6678965">
        <ele>20.61279</ele>
        <time>2026-07-28T22:58:18.571000Z</time>
      </trkpt>
      <trkpt lat="39.8717189" lon="116.6679442">
        <ele>20.67201</ele>
        <time>2026-07-28T22:58:23.548000Z</time>
      </trkpt>
      <trkpt lat="39.8718198" lon="116.6679867">
        <ele>20.79353</ele>
        <time>2026-07-28T22:58:28.525000Z</time>
      </trkpt>
      <trkpt lat="39.8719245" lon="116.668">
        <ele>20.94537</ele>
        <time>2026-07-28T22:58:33.501000Z</time>
      </trkpt>
      <trkpt lat="39.8720298" lon="116.6679998">
        <ele>21.0845</ele>
        <time>2026-07-28T22:58:38.478000Z</time>
      </trkpt>
      <trkpt lat="39.8721371" lon="116.667988">
        <ele>21.16461</ele>
        <time>2026-07-28T22:58:43.455000Z</time>
      </trkpt>
      <trkpt lat="39.8722463" lon="116.6680001">
        <ele>21.24618</ele>
        <time>2026-07-28T22:58:48.432000Z</time>
      </trkpt>
      <trkpt lat="39.872347" lon="116.6680602">
        <ele>21.33798</ele>
        <time>2026-07-28T22:58:53.409000Z</time>
      </trkpt>
      <trkpt lat="39.8724192" lon="116.6681353">
        <ele>21.39303</ele>
        <time>2026-07-28T22:58:57.391000Z</time>
      </trkpt>
      <trkpt lat="39.8724807" lon="116.6682261">
        <ele>21.42926</ele>
        <time>2026-07-28T22:59:01.372000Z</time>
      </trkpt>
      <trkpt lat="39.8725298" lon="116.6683293">
        <ele>21.44541</ele>
        <time>2026-07-28T22:59:05.354000Z</time>
      </trkpt>
      <trkpt lat="39.8725623" lon="116.6684395">
        <ele>21.43975</ele>
        <time>2026-07-28T22:59:09.335000Z</time>
      </trkpt>
      <trkpt lat="39.8725775" lon="116.6685565">
        <ele>21.43872</ele>
        <time>2026-07-28T22:59:13.317000Z</time>
      </trkpt>
      <trkpt lat="39.8725811" lon="116.6686791">
        <ele>21.45075</ele>
        <time>2026-07-28T22:59:17.298000Z</time>
      </trkpt>
      <trkpt lat="39.8725703" lon="116.6688007">
        <ele>21.46134</ele>
        <time>2026-07-28T22:59:21.280000Z</time>
      </trkpt>
      <trkpt lat="39.8725512" lon="116.6689218">
        <ele>21.46879</ele>
        <time>2026-07-28T22:59:25.261000Z</time>
      </trkpt>
      <trkpt lat="39.8725277" lon="116.6690433">
        <ele>21.47155</ele>
        <time>2026-07-28T22:59:29.243000Z</time>
      </trkpt>
      <trkpt lat="39.8725069" lon="116.669165">
        <ele>21.45569</ele>
        <time>2026-07-28T22:59:33.224000Z</time>
      </trkpt>
      <trkpt lat="39.8724952" lon="116.6692888">
        <ele>21.41869</ele>
        <time>2026-07-28T22:59:37.206000Z</time>
      </trkpt>
      <trkpt lat="39.8724933" lon="116.6694108">
        <ele>21.37915</ele>
        <time>2026-07-28T22:59:41.188000Z</time>
      </trkpt>
      <trkpt lat="39.8725018" lon="116.6695292">
        <ele>21.34177</ele>
        <time>2026-07-28T22:59:45.169000Z</time>
      </trkpt>
      <trkpt lat="39.872523" lon="116.6696435">
        <ele>21.29357</ele>
        <time>2026-07-28T22:59:49.151000Z</time>
      </trkpt>
      <trkpt lat="39.8725573" lon="116.669752">
        <ele>21.24719</ele>
        <time>2026-07-28T22:59:53.132000Z</time>
      </trkpt>
      <trkpt lat="39.8726073" lon="116.6698526">
        <ele>21.2101</ele>
        <time>2026-07-28T22:59:57.114000Z</time>
      </trkpt>
      <trkpt lat="39.8726863" lon="116.6699518">
        <ele>21.1735</ele>
        <time>2026-07-28T23:00:02.091000Z</time>
      </trkpt>
      <trkpt lat="39.8727811" lon="116.6700275">
        <ele>21.11093</ele>
        <time>2026-07-28T23:00:07.068000Z</time>
      </trkpt>
      <trkpt lat="39.8728642" lon="116.6700729">
        <ele>21.02166</ele>
        <time>2026-07-28T23:00:11.049000Z</time>
      </trkpt>
      <trkpt lat="39.8729736" lon="116.6700991">
        <ele>20.88254</ele>
        <time>2026-07-28T23:00:16.026000Z</time>
      </trkpt>
      <trkpt lat="39.8730808" lon="116.6701018">
        <ele>20.75014</ele>
        <time>2026-07-28T23:00:21.003000Z</time>
      </trkpt>
      <trkpt lat="39.8731883" lon="116.67008">
        <ele>20.64639</ele>
        <time>2026-07-28T23:00:25.980000Z</time>
      </trkpt>
      <trkpt lat="39.8732943" lon="116.670047">
        <ele>20.5873</ele>
        <time>2026-07-28T23:00:30.957000Z</time>
      </trkpt>
      <trkpt lat="39.873395" lon="116.6700035">
        <ele>20.59041</ele>
        <time>2026-07-28T23:00:35.934000Z</time>
      </trkpt>
      <trkpt lat="39.8734865" lon="116.6699284">
        <ele>20.65764</ele>
        <time>2026-07-28T23:00:40.911000Z</time>
      </trkpt>
      <trkpt lat="39.8735747" lon="116.669841">
        <ele>20.76837</ele>
        <time>2026-07-28T23:00:45.888000Z</time>
      </trkpt>
      <trkpt lat="39.8736723" lon="116.6697737">
        <ele>20.88806</ele>
        <time>2026-07-28T23:00:50.865000Z</time>
      </trkpt>
      <trkpt lat="39.8737832" lon="116.6697598">
        <ele>20.99346</ele>
        <time>2026-07-28T23:00:55.842000Z</time>
      </trkpt>
      <trkpt lat="39.8738738" lon="116.6697836">
        <ele>21.05263</ele>
        <time>2026-07-28T23:00:59.823000Z</time>
      </trkpt>
      <trkpt lat="39.8739662" lon="116.6698089">
        <ele>21.07789</ele>
        <time>2026-07-28T23:01:03.805000Z</time>
      </trkpt>
      <trkpt lat="39.8740594" lon="116.669815">
        <ele>21.08066</ele>
        <time>2026-07-28T23:01:07.786000Z</time>
      </trkpt>
      <trkpt lat="39.8741529" lon="116.6698027">
        <ele>21.09134</ele>
        <time>2026-07-28T23:01:11.768000Z</time>
      </trkpt>
      <trkpt lat="39.8742583" lon="116.6697617">
        <ele>21.1314</ele>
        <time>2026-07-28T23:01:16.745000Z</time>
      </trkpt>
      <trkpt lat="39.8743474" lon="116.6696751">
        <ele>21.23304</ele>
        <time>2026-07-28T23:01:21.722000Z</time>
      </trkpt>
      <trkpt lat="39.8744236" lon="116.6695729">
        <ele>21.44592</ele>
        <time>2026-07-28T23:01:26.699000Z</time>
      </trkpt>
      <trkpt lat="39.874491" lon="116.6694939">
        <ele>21.67068</ele>
        <time>2026-07-28T23:01:30.680000Z</time>
      </trkpt>
      <trkpt lat="39.8745958" lon="116.6694412">
        <ele>21.9817</ele>
        <time>2026-07-28T23:01:35.657000Z</time>
      </trkpt>
      <trkpt lat="39.8746894" lon="116.6694416">
        <ele>22.21747</ele>
        <time>2026-07-28T23:01:39.639000Z</time>
      </trkpt>
      <trkpt lat="39.874784" lon="116.6694729">
        <ele>22.44088</ele>
        <time>2026-07-28T23:01:43.620000Z</time>
      </trkpt>
      <trkpt lat="39.8748709" lon="116.6695222">
        <ele>22.65662</ele>
        <time>2026-07-28T23:01:47.602000Z</time>
      </trkpt>
      <trkpt lat="39.8749552" lon="116.6695834">
        <ele>22.83738</ele>
        <time>2026-07-28T23:01:51.583000Z</time>
      </trkpt>
      <trkpt lat="39.8750424" lon="116.669633">
        <ele>22.96816</ele>
        <time>2026-07-28T23:01:55.565000Z</time>
      </trkpt>
      <trkpt lat="39.8751349" lon="116.6696322">
        <ele>23.05675</ele>
        <time>2026-07-28T23:01:59.546000Z</time>
      </trkpt>
      <trkpt lat="39.8752153" lon="116.669578">
        <ele>23.11733</ele>
        <time>2026-07-28T23:02:03.528000Z</time>
      </trkpt>
      <trkpt lat="39.8753104" lon="116.6695103">
        <ele>23.16424</ele>
        <time>2026-07-28T23:02:08.505000Z</time>
      </trkpt>
      <trkpt lat="39.8754193" lon="116.6694881">
        <ele>23.14918</ele>
        <time>2026-07-28T23:02:13.482000Z</time>
      </trkpt>
      <trkpt lat="39.8755291" lon="116.6694543">
        <ele>23.12419</ele>
        <time>2026-07-28T23:02:18.459000Z</time>
      </trkpt>
      <trkpt lat="39.8756152" lon="116.6693637">
        <ele>23.12363</ele>
        <time>2026-07-28T23:02:23.436000Z</time>
      </trkpt>
      <trkpt lat="39.8756511" lon="116.6692323">
        <ele>23.09734</ele>
        <time>2026-07-28T23:02:28.413000Z</time>
      </trkpt>
      <trkpt lat="39.8756484" lon="116.6691145">
        <ele>23.03273</ele>
        <time>2026-07-28T23:02:32.394000Z</time>
      </trkpt>
      <trkpt lat="39.8756195" lon="116.668977">
        <ele>22.91333</ele>
        <time>2026-07-28T23:02:37.371000Z</time>
      </trkpt>
      <trkpt lat="39.8755752" lon="116.6688743">
        <ele>22.83815</ele>
        <time>2026-07-28T23:02:41.352000Z</time>
      </trkpt>
      <trkpt lat="39.8755015" lon="116.6687641">
        <ele>22.77359</ele>
        <time>2026-07-28T23:02:46.329000Z</time>
      </trkpt>
      <trkpt lat="39.875432" lon="116.6686891">
        <ele>22.71659</ele>
        <time>2026-07-28T23:02:50.311000Z</time>
      </trkpt>
      <trkpt lat="39.8753541" lon="116.6685925">
        <ele>22.57504</ele>
        <time>2026-07-28T23:02:55.288000Z</time>
      </trkpt>
      <trkpt lat="39.8753002" lon="116.6684752">
        <ele>22.3777</ele>
        <time>2026-07-28T23:03:00.265000Z</time>
      </trkpt>
      <trkpt lat="39.8752659" lon="116.6683374">
        <ele>22.2105</ele>
        <time>2026-07-28T23:03:05.242000Z</time>
      </trkpt>
      <trkpt lat="39.8752449" lon="116.6682211">
        <ele>22.12546</ele>
        <time>2026-07-28T23:03:09.223000Z</time>
      </trkpt>
      <trkpt lat="39.875226" lon="116.6681033">
        <ele>22.08753</ele>
        <time>2026-07-28T23:03:13.205000Z</time>
      </trkpt>
      <trkpt lat="39.8751937" lon="116.6679652">
        <ele>22.08392</ele>
        <time>2026-07-28T23:03:18Z</time>
      </trkpt>
      <trkpt lat="39.8751543" lon="116.6678541">
        <ele>22.07807</ele>
        <time>2026-07-28T23:03:22Z</time>
      </trkpt>
      <trkpt lat="39.8750983" lon="116.6677577">
        <ele>22.01324</ele>
        <time>2026-07-28T23:03:26Z</time>
      </trkpt>
      <trkpt lat="39.8750295" lon="116.6676768">
        <ele>21.90113</ele>
        <time>2026-07-28T23:03:30Z</time>
      </trkpt>
      <trkpt lat="39.874952" lon="116.6676144">
        <ele>21.78905</ele>
        <time>2026-07-28T23:03:34Z</time>
      </trkpt>
      <trkpt lat="39.8748643" lon="116.6675738">
        <ele>21.71429</ele>
        <time>2026-07-28T23:03:38Z</time>
      </trkpt>
      <trkpt lat="39.8747726" lon="116.6675469">
        <ele>21.68979</ele>
        <time>2026-07-28T23:03:42Z</time>
      </trkpt>
      <trkpt lat="39.8746799" lon="116.6675257">
        <ele>21.71082</ele>
        <time>2026-07-28T23:03:46Z</time>
      </trkpt>
      <trkpt lat="39.8745868" lon="116.667509">
        <ele>21.76448</ele>
        <time>2026-07-28T23:03:50Z</time>
      </trkpt>
      <trkpt lat="39.8744938" lon="116.6675072">
        <ele>21.82522</ele>
        <time>2026-07-28T23:03:54Z</time>
      </trkpt>
      <trkpt lat="39.8743838" lon="116.6675244">
        <ele>21.92691</ele>
        <time>2026-07-28T23:03:58.992000Z</time>
      </trkpt>
      <trkpt lat="39.8742791" lon="116.6675684">
        <ele>21.95675</ele>
        <time>2026-07-28T23:04:03.969000Z</time>
      </trkpt>
      <trkpt lat="39.874182" lon="116.6676397">
        <ele>21.87474</ele>
        <time>2026-07-28T23:04:08.946000Z</time>
      </trkpt>
      <trkpt lat="39.8741038" lon="116.6677001">
        <ele>21.76979</ele>
        <time>2026-07-28T23:04:12.927000Z</time>
      </trkpt>
      <trkpt lat="39.8740201" lon="116.6677526">
        <ele>21.64107</ele>
        <time>2026-07-28T23:04:16.909000Z</time>
      </trkpt>
      <trkpt lat="39.8739298" lon="116.6677895">
        <ele>21.51731</ele>
        <time>2026-07-28T23:04:20.891000Z</time>
      </trkpt>
      <trkpt lat="39.8738359" lon="116.6678058">
        <ele>21.44313</ele>
        <time>2026-07-28T23:04:24.872000Z</time>
      </trkpt>
      <trkpt lat="39.8737415" lon="116.6678058">
        <ele>21.42222</ele>
        <time>2026-07-28T23:04:28.854000Z</time>
      </trkpt>
      <trkpt lat="39.8736462" lon="116.667796">
        <ele>21.43284</ele>
        <time>2026-07-28T23:04:32.835000Z</time>
      </trkpt>
      <trkpt lat="39.8735504" lon="116.6677833">
        <ele>21.46411</ele>
        <time>2026-07-28T23:04:36.817000Z</time>
      </trkpt>
      <trkpt lat="39.8734571" lon="116.6677824">
        <ele>21.51149</ele>
        <time>2026-07-28T23:04:40.798000Z</time>
      </trkpt>
      <trkpt lat="39.8733692" lon="116.6678151">
        <ele>21.57618</ele>
        <time>2026-07-28T23:04:44.780000Z</time>
      </trkpt>
      <trkpt lat="39.873265" lon="116.6678607">
        <ele>21.67183</ele>
        <time>2026-07-28T23:04:49.757000Z</time>
      </trkpt>
      <trkpt lat="39.8731768" lon="116.6678893">
        <ele>21.73982</ele>
        <time>2026-07-28T23:04:53.738000Z</time>
      </trkpt>
      <trkpt lat="39.8730841" lon="116.6678938">
        <ele>21.78336</ele>
        <time>2026-07-28T23:04:57.720000Z</time>
      </trkpt>
      <trkpt lat="39.8729863" lon="116.6678707">
        <ele>21.79248</ele>
        <time>2026-07-28T23:05:01.701000Z</time>
      </trkpt>
      <trkpt lat="39.8728865" lon="116.6678278">
        <ele>21.78943</ele>
        <time>2026-07-28T23:05:05.683000Z</time>
      </trkpt>
      <trkpt lat="39.8727867" lon="116.6677881">
        <ele>21.77525</ele>
        <time>2026-07-28T23:05:09.664000Z</time>
      </trkpt>
      <trkpt lat="39.8726865" lon="116.6677581">
        <ele>21.75372</ele>
        <time>2026-07-28T23:05:13.646000Z</time>
      </trkpt>
      <trkpt lat="39.8725871" lon="116.6677447">
        <ele>21.74484</ele>
        <time>2026-07-28T23:05:17.627000Z</time>
      </trkpt>
      <trkpt lat="39.872492" lon="116.667747">
        <ele>21.73813</ele>
        <time>2026-07-28T23:05:21.609000Z</time>
      </trkpt>
      <trkpt lat="39.872401" lon="116.66776">
        <ele>21.68318</ele>
        <time>2026-07-28T23:05:25.590000Z</time>
      </trkpt>
      <trkpt lat="39.8723117" lon="116.6677756">
        <ele>21.54297</ele>
        <time>2026-07-28T23:05:29.572000Z</time>
      </trkpt>
      <trkpt lat="39.8722208" lon="116.6677935">
        <ele>21.34309</ele>
        <time>2026-07-28T23:05:33.554000Z</time>
      </trkpt>
      <trkpt lat="39.8721281" lon="116.6678038">
        <ele>21.13997</ele>
        <time>2026-07-28T23:05:37.535000Z</time>
      </trkpt>
      <trkpt lat="39.8720334" lon="116.6677979">
        <ele>20.96318</ele>
        <time>2026-07-28T23:05:41.517000Z</time>
      </trkpt>
      <trkpt lat="39.8719415" lon="116.6677745">
        <ele>20.81782</ele>
        <time>2026-07-28T23:05:45.498000Z</time>
      </trkpt>
      <trkpt lat="39.8718534" lon="116.667739">
        <ele>20.68246</ele>
        <time>2026-07-28T23:05:49.480000Z</time>
      </trkpt>
      <trkpt lat="39.8717682" lon="116.6676978">
        <ele>20.55789</ele>
        <time>2026-07-28T23:05:53.461000Z</time>
      </trkpt>
      <trkpt lat="39.8716798" lon="116.6676575">
        <ele>20.48652</ele>
        <time>2026-07-28T23:05:57.443000Z</time>
      </trkpt>
      <trkpt lat="39.8715893" lon="116.6676255">
        <ele>20.46329</ele>
        <time>2026-07-28T23:06:01.424000Z</time>
      </trkpt>
      <trkpt lat="39.8714985" lon="116.6676087">
        <ele>20.44195</ele>
        <time>2026-07-28T23:06:05.406000Z</time>
      </trkpt>
      <trkpt lat="39.8714077" lon="116.6676032">
        <ele>20.41745</ele>
        <time>2026-07-28T23:06:09.387000Z</time>
      </trkpt>
      <trkpt lat="39.8712992" lon="116.6676074">
        <ele>20.40304</ele>
        <time>2026-07-28T23:06:14.364000Z</time>
      </trkpt>
      <trkpt lat="39.8711904" lon="116.6676142">
        <ele>20.43732</ele>
        <time>2026-07-28T23:06:19.341000Z</time>
      </trkpt>
      <trkpt lat="39.8710846" lon="116.6676268">
        <ele>20.50546</ele>
        <time>2026-07-28T23:06:24.318000Z</time>
      </trkpt>
      <trkpt lat="39.8710076" lon="116.6677074">
        <ele>20.57502</ele>
        <time>2026-07-28T23:06:29.295000Z</time>
      </trkpt>
      <trkpt lat="39.8709684" lon="116.6678131">
        <ele>20.64609</ele>
        <time>2026-07-28T23:06:33.277000Z</time>
      </trkpt>
      <trkpt lat="39.8708959" lon="116.6679147">
        <ele>20.74652</ele>
        <time>2026-07-28T23:06:38.254000Z</time>
      </trkpt>
      <trkpt lat="39.8707894" lon="116.6679299">
        <ele>20.75685</ele>
        <time>2026-07-28T23:06:43.231000Z</time>
      </trkpt>
      <trkpt lat="39.8706987" lon="116.6679217">
        <ele>20.69107</ele>
        <time>2026-07-28T23:06:47.212000Z</time>
      </trkpt>
      <trkpt lat="39.8705928" lon="116.6679071">
        <ele>20.61981</ele>
        <time>2026-07-28T23:06:52Z</time>
      </trkpt>
      <trkpt lat="39.8705021" lon="116.6678947">
        <ele>20.65646</ele>
        <time>2026-07-28T23:06:56Z</time>
      </trkpt>
      <trkpt lat="39.8704086" lon="116.6678745">
        <ele>20.78754</ele>
        <time>2026-07-28T23:07:00Z</time>
      </trkpt>
      <trkpt lat="39.8703125" lon="116.6678435">
        <ele>20.96904</ele>
        <time>2026-07-28T23:07:04.134000Z</time>
      </trkpt>
      <trkpt lat="39.8702013" lon="116.6678309">
        <ele>21.09319</ele>
        <time>2026-07-28T23:07:09.111000Z</time>
      </trkpt>
      <trkpt lat="39.8700921" lon="116.6678591">
        <ele>21.09166</ele>
        <time>2026-07-28T23:07:14.087000Z</time>
      </trkpt>
      <trkpt lat="39.8700021" lon="116.6678809">
        <ele>21.06511</ele>
        <time>2026-07-28T23:07:18.069000Z</time>
      </trkpt>
      <trkpt lat="39.8699099" lon="116.6678891">
        <ele>21.07635</ele>
        <time>2026-07-28T23:07:22.051000Z</time>
      </trkpt>
      <trkpt lat="39.8698148" lon="116.6678864">
        <ele>21.13449</ele>
        <time>2026-07-28T23:07:26.032000Z</time>
      </trkpt>
      <trkpt lat="39.8697227" lon="116.6678852">
        <ele>21.21048</ele>
        <time>2026-07-28T23:07:30.014000Z</time>
      </trkpt>
      <trkpt lat="39.8696185" lon="116.6679111">
        <ele>21.24613</ele>
        <time>2026-07-28T23:07:34.991000Z</time>
      </trkpt>
      <trkpt lat="39.869529" lon="116.6679802">
        <ele>21.25649</ele>
        <time>2026-07-28T23:07:39.967000Z</time>
      </trkpt>
      <trkpt lat="39.8694808" lon="116.6681001">
        <ele>21.35532</ele>
        <time>2026-07-28T23:07:44.944000Z</time>
      </trkpt>
      <trkpt lat="39.869483" lon="116.6682402">
        <ele>21.47055</ele>
        <time>2026-07-28T23:07:49.921000Z</time>
      </trkpt>
      <trkpt lat="39.8695244" lon="116.6683641">
        <ele>21.51946</ele>
        <time>2026-07-28T23:07:54.898000Z</time>
      </trkpt>
      <trkpt lat="39.8696059" lon="116.6684529">
        <ele>21.46986</ele>
        <time>2026-07-28T23:07:59.875000Z</time>
      </trkpt>
      <trkpt lat="39.8697026" lon="116.6684708">
        <ele>21.33798</ele>
        <time>2026-07-28T23:08:04.852000Z</time>
      </trkpt>
      <trkpt lat="39.8698013" lon="116.6684203">
        <ele>21.17941</ele>
        <time>2026-07-28T23:08:09.829000Z</time>
      </trkpt>
      <trkpt lat="39.8698953" lon="116.6683536">
        <ele>21.04725</ele>
        <time>2026-07-28T23:08:14.806000Z</time>
      </trkpt>
      <trkpt lat="39.8700012" lon="116.6683205">
        <ele>20.9421</ele>
        <time>2026-07-28T23:08:19.783000Z</time>
      </trkpt>
      <trkpt lat="39.8700913" lon="116.6683103">
        <ele>20.84845</ele>
        <time>2026-07-28T23:08:23.764000Z</time>
      </trkpt>
      <trkpt lat="39.8701823" lon="116.668286">
        <ele>20.72828</ele>
        <time>2026-07-28T23:08:27.746000Z</time>
      </trkpt>
      <trkpt lat="39.8702699" lon="116.6682391">
        <ele>20.60402</ele>
        <time>2026-07-28T23:08:31.728000Z</time>
      </trkpt>
      <trkpt lat="39.8703507" lon="116.6681793">
        <ele>20.50569</ele>
        <time>2026-07-28T23:08:35.709000Z</time>
      </trkpt>
      <trkpt lat="39.8704337" lon="116.6681201">
        <ele>20.45384</ele>
        <time>2026-07-28T23:08:39.691000Z</time>
      </trkpt>
      <trkpt lat="39.8705235" lon="116.6680867">
        <ele>20.46259</ele>
        <time>2026-07-28T23:08:43.672000Z</time>
      </trkpt>
      <trkpt lat="39.870615" lon="116.6680838">
        <ele>20.53406</ele>
        <time>2026-07-28T23:08:47.654000Z</time>
      </trkpt>
      <trkpt lat="39.8707259" lon="116.668106">
        <ele>20.67742</ele>
        <time>2026-07-28T23:08:52.631000Z</time>
      </trkpt>
      <trkpt lat="39.8708185" lon="116.6681214">
        <ele>20.8017</ele>
        <time>2026-07-28T23:08:56.612000Z</time>
      </trkpt>
      <trkpt lat="39.8709129" lon="116.6681129">
        <ele>20.90367</ele>
        <time>2026-07-28T23:09:00.594000Z</time>
      </trkpt>
      <trkpt lat="39.8709998" lon="116.6680749">
        <ele>20.98994</ele>
        <time>2026-07-28T23:09:04.575000Z</time>
      </trkpt>
      <trkpt lat="39.8710817" lon="116.6680198">
        <ele>21.06066</ele>
        <time>2026-07-28T23:09:08.557000Z</time>
      </trkpt>
      <trkpt lat="39.8711706" lon="116.6679726">
        <ele>21.10258</ele>
        <time>2026-07-28T23:09:12.539000Z</time>
      </trkpt>
      <trkpt lat="39.8712608" lon="116.6679358">
        <ele>21.08856</ele>
        <time>2026-07-28T23:09:16.520000Z</time>
      </trkpt>
      <trkpt lat="39.8713525" lon="116.6679154">
        <ele>21.0114</ele>
        <time>2026-07-28T23:09:20.502000Z</time>
      </trkpt>
      <trkpt lat="39.8714436" lon="116.6679192">
        <ele>20.90475</ele>
        <time>2026-07-28T23:09:24.483000Z</time>
      </trkpt>
      <trkpt lat="39.8715359" lon="116.6679478">
        <ele>20.83025</ele>
        <time>2026-07-28T23:09:28.465000Z</time>
      </trkpt>
      <trkpt lat="39.871626" lon="116.6679919">
        <ele>20.8194</ele>
        <time>2026-07-28T23:09:32.446000Z</time>
      </trkpt>
      <trkpt lat="39.8717098" lon="116.6680498">
        <ele>20.85439</ele>
        <time>2026-07-28T23:09:36.428000Z</time>
      </trkpt>
      <trkpt lat="39.8717903" lon="116.668113">
        <ele>20.92748</ele>
        <time>2026-07-28T23:09:40.409000Z</time>
      </trkpt>
      <trkpt lat="39.8718753" lon="116.6681673">
        <ele>21.0613</ele>
        <time>2026-07-28T23:09:44.391000Z</time>
      </trkpt>
      <trkpt lat="39.8719648" lon="116.6682005">
        <ele>21.22023</ele>
        <time>2026-07-28T23:09:48.373000Z</time>
      </trkpt>
      <trkpt lat="39.872058" lon="116.6682135">
        <ele>21.33108</ele>
        <time>2026-07-28T23:09:52.354000Z</time>
      </trkpt>
      <trkpt lat="39.8721507" lon="116.6682169">
        <ele>21.3815</ele>
        <time>2026-07-28T23:09:56.336000Z</time>
      </trkpt>
      <trkpt lat="39.8722405" lon="116.6682265">
        <ele>21.42315</ele>
        <time>2026-07-28T23:10:00.317000Z</time>
      </trkpt>
      <trkpt lat="39.8723472" lon="116.6682588">
        <ele>21.50935</ele>
        <time>2026-07-28T23:10:05.294000Z</time>
      </trkpt>
      <trkpt lat="39.8724388" lon="116.668335">
        <ele>21.59605</ele>
        <time>2026-07-28T23:10:10.271000Z</time>
      </trkpt>
      <trkpt lat="39.8724991" lon="116.6684252">
        <ele>21.63278</ele>
        <time>2026-07-28T23:10:14.253000Z</time>
      </trkpt>
      <trkpt lat="39.8725491" lon="116.6685306">
        <ele>21.63492</ele>
        <time>2026-07-28T23:10:18.234000Z</time>
      </trkpt>
      <trkpt lat="39.8725816" lon="116.6686493">
        <ele>21.62002</ele>
        <time>2026-07-28T23:10:22.216000Z</time>
      </trkpt>
      <trkpt lat="39.8725955" lon="116.6687755">
        <ele>21.60705</ele>
        <time>2026-07-28T23:10:26.197000Z</time>
      </trkpt>
      <trkpt lat="39.8725923" lon="116.6689033">
        <ele>21.62407</ele>
        <time>2026-07-28T23:10:30.179000Z</time>
      </trkpt>
      <trkpt lat="39.8725756" lon="116.6690287">
        <ele>21.65528</ele>
        <time>2026-07-28T23:10:34.160000Z</time>
      </trkpt>
      <trkpt lat="39.8725538" lon="116.6691532">
        <ele>21.65462</ele>
        <time>2026-07-28T23:10:38.142000Z</time>
      </trkpt>
      <trkpt lat="39.8725364" lon="116.6692765">
        <ele>21.62395</ele>
        <time>2026-07-28T23:10:42.124000Z</time>
      </trkpt>
      <trkpt lat="39.8725369" lon="116.6694002">
        <ele>21.59812</ele>
        <time>2026-07-28T23:10:46.105000Z</time>
      </trkpt>
      <trkpt lat="39.8725352" lon="116.6695257">
        <ele>21.61671</ele>
        <time>2026-07-28T23:10:50.087000Z</time>
      </trkpt>
      <trkpt lat="39.8725408" lon="116.6696507">
        <ele>21.66704</ele>
        <time>2026-07-28T23:10:54.068000Z</time>
      </trkpt>
      <trkpt lat="39.8725586" lon="116.6697715">
        <ele>21.71141</ele>
        <time>2026-07-28T23:10:58.050000Z</time>
      </trkpt>
      <trkpt lat="39.8725938" lon="116.6698885">
        <ele>21.72725</ele>
        <time>2026-07-28T23:11:02.031000Z</time>
      </trkpt>
      <trkpt lat="39.8726465" lon="116.6699908">
        <ele>21.70237</ele>
        <time>2026-07-28T23:11:06Z</time>
      </trkpt>
      <trkpt lat="39.8727298" lon="116.6700784">
        <ele>21.61966</ele>
        <time>2026-07-28T23:11:10.990000Z</time>
      </trkpt>
      <trkpt lat="39.8728331" lon="116.6701242">
        <ele>21.53977</ele>
        <time>2026-07-28T23:11:15.967000Z</time>
      </trkpt>
      <trkpt lat="39.8729239" lon="116.6701394">
        <ele>21.48423</ele>
        <time>2026-07-28T23:11:19.948000Z</time>
      </trkpt>
      <trkpt lat="39.873015" lon="116.6701363">
        <ele>21.39993</ele>
        <time>2026-07-28T23:11:23.930000Z</time>
      </trkpt>
      <trkpt lat="39.8731068" lon="116.6701258">
        <ele>21.28637</ele>
        <time>2026-07-28T23:11:27.912000Z</time>
      </trkpt>
      <trkpt lat="39.8731981" lon="116.6701085">
        <ele>21.16022</ele>
        <time>2026-07-28T23:11:31.893000Z</time>
      </trkpt>
      <trkpt lat="39.8732902" lon="116.6700783">
        <ele>21.02819</ele>
        <time>2026-07-28T23:11:35.875000Z</time>
      </trkpt>
      <trkpt lat="39.8733778" lon="116.670038">
        <ele>20.91465</ele>
        <time>2026-07-28T23:11:39.856000Z</time>
      </trkpt>
      <trkpt lat="39.8734583" lon="116.6699847">
        <ele>20.83018</ele>
        <time>2026-07-28T23:11:43.838000Z</time>
      </trkpt>
      <trkpt lat="39.8735338" lon="116.6699183">
        <ele>20.78097</ele>
        <time>2026-07-28T23:11:47.820000Z</time>
      </trkpt>
      <trkpt lat="39.8736064" lon="116.6698448">
        <ele>20.78972</ele>
        <time>2026-07-28T23:11:51.801000Z</time>
      </trkpt>
      <trkpt lat="39.8736958" lon="116.6697665">
        <ele>20.8943</ele>
        <time>2026-07-28T23:11:56.778000Z</time>
      </trkpt>
      <trkpt lat="39.8737987" lon="116.6697266">
        <ele>21.09036</ele>
        <time>2026-07-28T23:12:01.755000Z</time>
      </trkpt>
      <trkpt lat="39.8739076" lon="116.6697359">
        <ele>21.30192</ele>
        <time>2026-07-28T23:12:06.732000Z</time>
      </trkpt>
      <trkpt lat="39.8740116" lon="116.6697723">
        <ele>21.40721</ele>
        <time>2026-07-28T23:12:11.709000Z</time>
      </trkpt>
      <trkpt lat="39.8741218" lon="116.6697975">
        <ele>21.37413</ele>
        <time>2026-07-28T23:12:16.686000Z</time>
      </trkpt>
      <trkpt lat="39.8742326" lon="116.6697942">
        <ele>21.28713</ele>
        <time>2026-07-28T23:12:21.663000Z</time>
      </trkpt>
      <trkpt lat="39.8743334" lon="116.6697405">
        <ele>21.26867</ele>
        <time>2026-07-28T23:12:26.640000Z</time>
      </trkpt>
      <trkpt lat="39.8744088" lon="116.6696464">
        <ele>21.38067</ele>
        <time>2026-07-28T23:12:31.617000Z</time>
      </trkpt>
      <trkpt lat="39.874481" lon="116.6695456">
        <ele>21.63978</ele>
        <time>2026-07-28T23:12:36.594000Z</time>
      </trkpt>
      <trkpt lat="39.8745779" lon="116.66948">
        <ele>21.99009</ele>
        <time>2026-07-28T23:12:41.571000Z</time>
      </trkpt>
      <trkpt lat="39.8746723" lon="116.669474">
        <ele>22.28763</ele>
        <time>2026-07-28T23:12:45.552000Z</time>
      </trkpt>
      <trkpt lat="39.874763" lon="116.6694917">
        <ele>22.55794</ele>
        <time>2026-07-28T23:12:49.534000Z</time>
      </trkpt>
      <trkpt lat="39.8748478" lon="116.6695336">
        <ele>22.7768</ele>
        <time>2026-07-28T23:12:53.515000Z</time>
      </trkpt>
      <trkpt lat="39.8749317" lon="116.6695943">
        <ele>22.93957</ele>
        <time>2026-07-28T23:12:57.497000Z</time>
      </trkpt>
      <trkpt lat="39.8750102" lon="116.669654">
        <ele>23.03552</ele>
        <time>2026-07-28T23:13:01.479000Z</time>
      </trkpt>
      <trkpt lat="39.8751169" lon="116.6696823">
        <ele>23.0783</ele>
        <time>2026-07-28T23:13:06.456000Z</time>
      </trkpt>
      <trkpt lat="39.8752149" lon="116.6696198">
        <ele>23.0576</ele>
        <time>2026-07-28T23:13:11.433000Z</time>
      </trkpt>
      <trkpt lat="39.8752885" lon="116.669552">
        <ele>23.02746</ele>
        <time>2026-07-28T23:13:15.414000Z</time>
      </trkpt>
      <trkpt lat="39.8753717" lon="116.6695068">
        <ele>23.00239</ele>
        <time>2026-07-28T23:13:19.396000Z</time>
      </trkpt>
      <trkpt lat="39.87548" lon="116.6694722">
        <ele>22.99148</ele>
        <time>2026-07-28T23:13:24.373000Z</time>
      </trkpt>
      <trkpt lat="39.8755715" lon="116.6694079">
        <ele>23.04142</ele>
        <time>2026-07-28T23:13:29.349000Z</time>
      </trkpt>
      <trkpt lat="39.8756378" lon="116.6692982">
        <ele>23.1092</ele>
        <time>2026-07-28T23:13:34.326000Z</time>
      </trkpt>
      <trkpt lat="39.8756588" lon="116.6691628">
        <ele>23.09587</ele>
        <time>2026-07-28T23:13:39.303000Z</time>
      </trkpt>
      <trkpt lat="39.8756402" lon="116.6690254">
        <ele>22.98571</ele>
        <time>2026-07-28T23:13:44.280000Z</time>
      </trkpt>
      <trkpt lat="39.8755904" lon="116.668904">
        <ele>22.83785</ele>
        <time>2026-07-28T23:13:49.257000Z</time>
      </trkpt>
      <trkpt lat="39.8755107" lon="116.6688117">
        <ele>22.68262</ele>
        <time>2026-07-28T23:13:54.234000Z</time>
      </trkpt>
      <trkpt lat="39.8754286" lon="116.6687227">
        <ele>22.57403</ele>
        <time>2026-07-28T23:13:59.211000Z</time>
      </trkpt>
      <trkpt lat="39.8753564" lon="116.6686236">
        <ele>22.51672</ele>
        <time>2026-07-28T23:14:04Z</time>
      </trkpt>
      <trkpt lat="39.8753012" lon="116.6684969">
        <ele>22.45925</ele>
        <time>2026-07-28T23:14:09Z</time>
      </trkpt>
      <trkpt lat="39.8752805" lon="116.6683773">
        <ele>22.41705</ele>
        <time>2026-07-28T23:14:13.001000Z</time>
      </trkpt>
      <trkpt lat="39.8752713" lon="116.668255">
        <ele>22.40575</ele>
        <time>2026-07-28T23:14:17.001000Z</time>
      </trkpt>
    </trkseg>
  </trk>
</gpx>