<?xml version="1.0" encoding="UTF-8"?>
<gpx xmlns="http://www.topografix.com/GPX/1/1" xmlns:gpxtpx="http://www.garmin.com/xmlschemas/TrackPointExtension/v1" xmlns:xsi="http://www.w3.org/2001/XMLSchema-instance" xsi:schemaLocation="http://www.topografix.com/GPX/1/1 http://www.topografix.com/GPX/1/1/gpx.xsd" version="1.1" creator="gpx.py -- https://github.com/tkrajina/gpxpy">
  <trk>
    <name>gpx from codoon</name>
    <type>Run</type>
    <trkseg>
      <trkpt lat="39.8751697" lon="116.667872">
        <ele>22.76819</ele>
        <time>2026-07-29T22:44:11Z</time>
      </trkpt>
      <trkpt lat="39.8751104" lon="116.6677581">
        <ele>22.76711</ele>
        <time>2026-07-29T22:44:16.374000Z</time>
      </trkpt>
      <trkpt lat="39.875042" lon="116.6676732">
        <ele>22.67343</ele>
        <time>2026-07-29T22:44:20.355000Z</time>
      </trkpt>
      <trkpt lat="39.8749653" lon="116.6676043">
        <ele>22.52214</ele>
        <time>2026-07-29T22:44:24.337000Z</time>
      </trkpt>
      <trkpt lat="39.8748736" lon="116.6675643">
        <ele>22.37082</ele>
        <time>2026-07-29T22:44:28.319000Z</time>
      </trkpt>
      <trkpt lat="39.8747798" lon="116.6675354">
        <ele>22.28</ele>
        <time>2026-07-29T22:44:32.300000Z</time>
      </trkpt>
      <trkpt lat="39.8746863" lon="116.6675164">
        <ele>22.27564</ele>
        <time>2026-07-29T22:44:36.282000Z</time>
      </trkpt>
      <trkpt lat="39.8745913" lon="116.6675083">
        <ele>22.32961</ele>
        <time>2026-07-29T22:44:40.264000Z</time>
      </trkpt>
      <trkpt lat="39.8744954" lon="116.6675153">
        <ele>22.36456</ele>
        <time>2026-07-29T22:44:44.245000Z</time>
      </trkpt>
      <trkpt lat="39.8744028" lon="116.6675421">
        <ele>22.30764</ele>
        <time>2026-07-29T22:44:48.227000Z</time>
      </trkpt>
      <trkpt lat="39.8743138" lon="116.6675817">
        <ele>22.15473</ele>
        <time>2026-07-29T22:44:52.208000Z</time>
      </trkpt>
      <trkpt lat="39.8742329" lon="116.6676347">
        <ele>21.99406</ele>
        <time>2026-07-29T22:44:56Z</time>
      </trkpt>
      <trkpt lat="39.8741534" lon="116.6676975">
        <ele>21.9051</ele>
        <time>2026-07-29T22:45:00Z</time>
      </trkpt>
      <trkpt lat="39.8740736" lon="116.667762">
        <ele>21.89607</ele>
        <time>2026-07-29T22:45:04Z</time>
      </trkpt>
      <trkpt lat="39.8739862" lon="116.6678164">
        <ele>21.9</ele>
        <time>2026-07-29T22:45:08Z</time>
      </trkpt>
      <trkpt lat="39.8738887" lon="116.667844">
        <ele>21.87388</ele>
        <time>2026-07-29T22:45:12Z</time>
      </trkpt>
      <trkpt lat="39.8737864" lon="116.6678488">
        <ele>21.8757</ele>
        <time>2026-07-29T22:45:16.098000Z</time>
      </trkpt>
      <trkpt lat="39.8736867" lon="116.6678392">
        <ele>21.9263</ele>
        <time>2026-07-29T22:45:20.080000Z</time>
      </trkpt>
      <trkpt lat="39.8735907" lon="116.6678158">
        <ele>21.99054</ele>
        <time>2026-07-29T22:45:24.061000Z</time>
      </trkpt>
      <trkpt lat="39.873497" lon="116.6677815">
        <ele>22.01374</ele>
        <time>2026-07-29T22:45:28Z</time>
      </trkpt>
      <trkpt lat="39.8733997" lon="116.6677662">
        <ele>21.9362</ele>
        <time>2026-07-29T22:45:32Z</time>
      </trkpt>
      <trkpt lat="39.8733053" lon="116.6677851">
        <ele>21.85949</ele>
        <time>2026-07-29T22:45:36Z</time>
      </trkpt>
      <trkpt lat="39.8732195" lon="116.6678263">
        <ele>21.92228</ele>
        <time>2026-07-29T22:45:39.988000Z</time>
      </trkpt>
      <trkpt lat="39.8731318" lon="116.6678645">
        <ele>22.03387</ele>
        <time>2026-07-29T22:45:43.969000Z</time>
      </trkpt>
      <trkpt lat="39.8730367" lon="116.6678845">
        <ele>22.10798</ele>
        <time>2026-07-29T22:45:47.951000Z</time>
      </trkpt>
      <trkpt lat="39.8729414" lon="116.6678726">
        <ele>22.12897</ele>
        <time>2026-07-29T22:45:51.932000Z</time>
      </trkpt>
      <trkpt lat="39.8728465" lon="116.6678342">
        <ele>22.0905</ele>
        <time>2026-07-29T22:45:55.914000Z</time>
      </trkpt>
      <trkpt lat="39.8727543" lon="116.6677898">
        <ele>22.00689</ele>
        <time>2026-07-29T22:45:59.895000Z</time>
      </trkpt>
      <trkpt lat="39.8726634" lon="116.667754">
        <ele>21.96231</ele>
        <time>2026-07-29T22:46:03.877000Z</time>
      </trkpt>
      <trkpt lat="39.8725726" lon="116.6677504">
        <ele>21.99016</ele>
        <time>2026-07-29T22:46:07.859000Z</time>
      </trkpt>
      <trkpt lat="39.8724814" lon="116.6677622">
        <ele>22.03088</ele>
        <time>2026-07-29T22:46:11.840000Z</time>
      </trkpt>
      <trkpt lat="39.8723832" lon="116.6677748">
        <ele>21.99512</ele>
        <time>2026-07-29T22:46:15.822000Z</time>
      </trkpt>
      <trkpt lat="39.8722845" lon="116.6677859">
        <ele>21.86887</ele>
        <time>2026-07-29T22:46:19.803000Z</time>
      </trkpt>
      <trkpt lat="39.8721839" lon="116.6677888">
        <ele>21.67428</ele>
        <time>2026-07-29T22:46:23.785000Z</time>
      </trkpt>
      <trkpt lat="39.8720838" lon="116.6677824">
        <ele>21.44631</ele>
        <time>2026-07-29T22:46:27.766000Z</time>
      </trkpt>
      <trkpt lat="39.871986" lon="116.667761">
        <ele>21.21655</ele>
        <time>2026-07-29T22:46:31.748000Z</time>
      </trkpt>
      <trkpt lat="39.8718906" lon="116.6677235">
        <ele>21.00234</ele>
        <time>2026-07-29T22:46:35.729000Z</time>
      </trkpt>
      <trkpt lat="39.8717954" lon="116.6676723">
        <ele>20.79286</ele>
        <time>2026-07-29T22:46:39.711000Z</time>
      </trkpt>
      <trkpt lat="39.8717" lon="116.6676252">
        <ele>20.61389</ele>
        <time>2026-07-29T22:46:43.693000Z</time>
      </trkpt>
      <trkpt lat="39.8716039" lon="116.6675926">
        <ele>20.49741</ele>
        <time>2026-07-29T22:46:47.674000Z</time>
      </trkpt>
      <trkpt lat="39.8715079" lon="116.667567">
        <ele>20.4438</ele>
        <time>2026-07-29T22:46:51.656000Z</time>
      </trkpt>
      <trkpt lat="39.8714119" lon="116.6675502">
        <ele>20.41956</ele>
        <time>2026-07-29T22:46:55.637000Z</time>
      </trkpt>
      <trkpt lat="39.8713188" lon="116.6675504">
        <ele>20.3967</ele>
        <time>2026-07-29T22:46:59.619000Z</time>
      </trkpt>
      <trkpt lat="39.8712262" lon="116.6675649">
        <ele>20.37517</ele>
        <time>2026-07-29T22:47:03.600000Z</time>
      </trkpt>
      <trkpt lat="39.8711361" lon="116.6675861">
        <ele>20.36514</ele>
        <time>2026-07-29T22:47:07.582000Z</time>
      </trkpt>
      <trkpt lat="39.8710529" lon="116.6676351">
        <ele>20.38189</ele>
        <time>2026-07-29T22:47:11.563000Z</time>
      </trkpt>
      <trkpt lat="39.8710057" lon="116.6677359">
        <ele>20.45644</ele>
        <time>2026-07-29T22:47:15.545000Z</time>
      </trkpt>
      <trkpt lat="39.8709563" lon="116.6678426">
        <ele>20.62706</ele>
        <time>2026-07-29T22:47:19.526000Z</time>
      </trkpt>
      <trkpt lat="39.8708692" lon="116.6678923">
        <ele>20.81604</ele>
        <time>2026-07-29T22:47:23.508000Z</time>
      </trkpt>
      <trkpt lat="39.8707593" lon="116.6679016">
        <ele>20.95851</ele>
        <time>2026-07-29T22:47:27.489000Z</time>
      </trkpt>
      <trkpt lat="39.8706529" lon="116.6679069">
        <ele>21.07554</ele>
        <time>2026-07-29T22:47:31.471000Z</time>
      </trkpt>
      <trkpt lat="39.8705458" lon="116.6679109">
        <ele>21.19686</ele>
        <time>2026-07-29T22:47:35.452000Z</time>
      </trkpt>
      <trkpt lat="39.8704409" lon="116.6679083">
        <ele>21.34643</ele>
        <time>2026-07-29T22:47:39.434000Z</time>
      </trkpt>
      <trkpt lat="39.8703412" lon="116.6678725">
        <ele>21.49806</ele>
        <time>2026-07-29T22:47:43.415000Z</time>
      </trkpt>
      <trkpt lat="39.870245" lon="116.6678178">
        <ele>21.5969</ele>
        <time>2026-07-29T22:47:47.397000Z</time>
      </trkpt>
      <trkpt lat="39.8701444" lon="116.6678097">
        <ele>21.6245</ele>
        <time>2026-07-29T22:47:51.378000Z</time>
      </trkpt>
      <trkpt lat="39.870041" lon="116.6678159">
        <ele>21.58672</ele>
        <time>2026-07-29T22:47:55.360000Z</time>
      </trkpt>
      <trkpt lat="39.8699379" lon="116.6678011">
        <ele>21.49947</ele>
        <time>2026-07-29T22:47:59.341000Z</time>
      </trkpt>
      <trkpt lat="39.8698355" lon="116.6677785">
        <ele>21.37975</ele>
        <time>2026-07-29T22:48:03.323000Z</time>
      </trkpt>
      <trkpt lat="39.8697336" lon="116.6677576">
        <ele>21.24067</ele>
        <time>2026-07-29T22:48:07.304000Z</time>
      </trkpt>
      <trkpt lat="39.869634" lon="116.6677658">
        <ele>21.10838</ele>
        <time>2026-07-29T22:48:11.286000Z</time>
      </trkpt>
      <trkpt lat="39.8695497" lon="116.6678153">
        <ele>21.01514</ele>
        <time>2026-07-29T22:48:15.267000Z</time>
      </trkpt>
      <trkpt lat="39.8694923" lon="116.6679077">
        <ele>20.9574</ele>
        <time>2026-07-29T22:48:19.249000Z</time>
      </trkpt>
      <trkpt lat="39.869471" lon="116.6680239">
        <ele>20.90845</ele>
        <time>2026-07-29T22:48:23.230000Z</time>
      </trkpt>
      <trkpt lat="39.869481" lon="116.6681473">
        <ele>20.86082</ele>
        <time>2026-07-29T22:48:27.212000Z</time>
      </trkpt>
      <trkpt lat="39.8695189" lon="116.668265">
        <ele>20.81631</ele>
        <time>2026-07-29T22:48:31.193000Z</time>
      </trkpt>
      <trkpt lat="39.8695865" lon="116.6683587">
        <ele>20.78441</ele>
        <time>2026-07-29T22:48:35.175000Z</time>
      </trkpt>
      <trkpt lat="39.8696743" lon="116.668396">
        <ele>20.75071</ele>
        <time>2026-07-29T22:48:39.156000Z</time>
      </trkpt>
      <trkpt lat="39.8697646" lon="116.6683676">
        <ele>20.73044</ele>
        <time>2026-07-29T22:48:43.138000Z</time>
      </trkpt>
      <trkpt lat="39.8698584" lon="116.6683292">
        <ele>20.75866</ele>
        <time>2026-07-29T22:48:47.119000Z</time>
      </trkpt>
      <trkpt lat="39.8699546" lon="116.6683091">
        <ele>20.78988</ele>
        <time>2026-07-29T22:48:51Z</time>
      </trkpt>
      <trkpt lat="39.8700595" lon="116.6683065">
        <ele>20.75491</ele>
        <time>2026-07-29T22:48:55.082000Z</time>
      </trkpt>
      <trkpt lat="39.8701586" lon="116.6682866">
        <ele>20.69248</ele>
        <time>2026-07-29T22:48:59.064000Z</time>
      </trkpt>
      <trkpt lat="39.8702546" lon="116.668238">
        <ele>20.62752</ele>
        <time>2026-07-29T22:49:03Z</time>
      </trkpt>
      <trkpt lat="39.8703511" lon="116.668176">
        <ele>20.57318</ele>
        <time>2026-07-29T22:49:07Z</time>
      </trkpt>
      <trkpt lat="39.870452" lon="116.6681183">
        <ele>20.53967</ele>
        <time>2026-07-29T22:49:11Z</time>
      </trkpt>
      <trkpt lat="39.8705562" lon="116.6680879">
        <ele>20.53185</ele>
        <time>2026-07-29T22:49:14.990000Z</time>
      </trkpt>
      <trkpt lat="39.8706568" lon="116.6680897">
        <ele>20.57636</ele>
        <time>2026-07-29T22:49:18.971000Z</time>
      </trkpt>
      <trkpt lat="39.8707572" lon="116.6681146">
        <ele>20.66299</ele>
        <time>2026-07-29T22:49:22.953000Z</time>
      </trkpt>
      <trkpt lat="39.8708644" lon="116.668129">
        <ele>20.78804</ele>
        <time>2026-07-29T22:49:26.934000Z</time>
      </trkpt>
      <trkpt lat="39.8709699" lon="116.6681155">
        <ele>20.93189</ele>
        <time>2026-07-29T22:49:30.916000Z</time>
      </trkpt>
      <trkpt lat="39.8710706" lon="116.6680799">
        <ele>21.05974</ele>
        <time>2026-07-29T22:49:34.897000Z</time>
      </trkpt>
      <trkpt lat="39.8711647" lon="116.6680261">
        <ele>21.12247</ele>
        <time>2026-07-29T22:49:38.879000Z</time>
      </trkpt>
      <trkpt lat="39.8712596" lon="116.6679823">
        <ele>21.07747</ele>
        <time>2026-07-29T22:49:42.860000Z</time>
      </trkpt>
      <trkpt lat="39.8713595" lon="116.667965">
        <ele>20.95728</ele>
        <time>2026-07-29T22:49:46.842000Z</time>
      </trkpt>
      <trkpt lat="39.8714587" lon="116.6679588">
        <ele>20.82758</ele>
        <time>2026-07-29T22:49:50.823000Z</time>
      </trkpt>
      <trkpt lat="39.8715609" lon="116.6679743">
        <ele>20.73195</ele>
        <time>2026-07-29T22:49:54.804000Z</time>
      </trkpt>
      <trkpt lat="39.8716609" lon="116.6680254">
        <ele>20.66673</ele>
        <time>2026-07-29T22:49:58.786000Z</time>
      </trkpt>
      <trkpt lat="39.8717626" lon="116.6680888">
        <ele>20.63625</ele>
        <time>2026-07-29T22:50:02.767000Z</time>
      </trkpt>
      <trkpt lat="39.8718693" lon="116.6681468">
        <ele>20.65993</ele>
        <time>2026-07-29T22:50:06.749000Z</time>
      </trkpt>
      <trkpt lat="39.8719757" lon="116.6681877">
        <ele>20.74089</ele>
        <time>2026-07-29T22:50:10.730000Z</time>
      </trkpt>
      <trkpt lat="39.8720832" lon="116.6682125">
        <ele>20.86644</ele>
        <time>2026-07-29T22:50:14.712000Z</time>
      </trkpt>
      <trkpt lat="39.8721896" lon="116.6682315">
        <ele>20.99281</ele>
        <time>2026-07-29T22:50:18.693000Z</time>
      </trkpt>
      <trkpt lat="39.8722908" lon="116.668268">
        <ele>21.07286</ele>
        <time>2026-07-29T22:50:22.675000Z</time>
      </trkpt>
      <trkpt lat="39.8723852" lon="116.6683349">
        <ele>21.07966</ele>
        <time>2026-07-29T22:50:26.656000Z</time>
      </trkpt>
      <trkpt lat="39.8724658" lon="116.6684288">
        <ele>21.03489</ele>
        <time>2026-07-29T22:50:30.638000Z</time>
      </trkpt>
      <trkpt lat="39.8725327" lon="116.668538">
        <ele>20.97333</ele>
        <time>2026-07-29T22:50:34.619000Z</time>
      </trkpt>
      <trkpt lat="39.8725842" lon="116.6686593">
        <ele>20.92177</ele>
        <time>2026-07-29T22:50:38.600000Z</time>
      </trkpt>
      <trkpt lat="39.8726142" lon="116.6687913">
        <ele>20.88083</ele>
        <time>2026-07-29T22:50:42.582000Z</time>
      </trkpt>
      <trkpt lat="39.8726206" lon="116.6689288">
        <ele>20.87556</ele>
        <time>2026-07-29T22:50:46.563000Z</time>
      </trkpt>
      <trkpt lat="39.8726008" lon="116.6690644">
        <ele>20.93302</ele>
        <time>2026-07-29T22:50:50.545000Z</time>
      </trkpt>
      <trkpt lat="39.8725727" lon="116.669196">
        <ele>21.04181</ele>
        <time>2026-07-29T22:50:54.526000Z</time>
      </trkpt>
      <trkpt lat="39.8725481" lon="116.669324">
        <ele>21.17174</ele>
        <time>2026-07-29T22:50:58.508000Z</time>
      </trkpt>
      <trkpt lat="39.8725298" lon="116.6694533">
        <ele>21.2988</ele>
        <time>2026-07-29T22:51:02.489000Z</time>
      </trkpt>
      <trkpt lat="39.8725231" lon="116.6695851">
        <ele>21.41048</ele>
        <time>2026-07-29T22:51:06.471000Z</time>
      </trkpt>
      <trkpt lat="39.872534" lon="116.6697154">
        <ele>21.49022</ele>
        <time>2026-07-29T22:51:10.452000Z</time>
      </trkpt>
      <trkpt lat="39.8725668" lon="116.6698358">
        <ele>21.51866</ele>
        <time>2026-07-29T22:51:14.433000Z</time>
      </trkpt>
      <trkpt lat="39.8726198" lon="116.6699407">
        <ele>21.48555</ele>
        <time>2026-07-29T22:51:18.415000Z</time>
      </trkpt>
      <trkpt lat="39.8726888" lon="116.6700212">
        <ele>21.38372</ele>
        <time>2026-07-29T22:51:22.396000Z</time>
      </trkpt>
      <trkpt lat="39.8727675" lon="116.6700791">
        <ele>21.23538</ele>
        <time>2026-07-29T22:51:26.378000Z</time>
      </trkpt>
      <trkpt lat="39.8728735" lon="116.670125">
        <ele>21.03906</ele>
        <time>2026-07-29T22:51:31.354000Z</time>
      </trkpt>
      <trkpt lat="39.8729633" lon="116.6701476">
        <ele>20.90784</ele>
        <time>2026-07-29T22:51:35.336000Z</time>
      </trkpt>
      <trkpt lat="39.8730591" lon="116.6701496">
        <ele>20.81749</ele>
        <time>2026-07-29T22:51:39.317000Z</time>
      </trkpt>
      <trkpt lat="39.8731552" lon="116.6701328">
        <ele>20.75341</ele>
        <time>2026-07-29T22:51:43.299000Z</time>
      </trkpt>
      <trkpt lat="39.8732512" lon="116.6701043">
        <ele>20.71607</ele>
        <time>2026-07-29T22:51:47.280000Z</time>
      </trkpt>
      <trkpt lat="39.873344" lon="116.6700656">
        <ele>20.70853</ele>
        <time>2026-07-29T22:51:51.262000Z</time>
      </trkpt>
      <trkpt lat="39.8734304" lon="116.6700086">
        <ele>20.72132</ele>
        <time>2026-07-29T22:51:55.243000Z</time>
      </trkpt>
      <trkpt lat="39.8735093" lon="116.6699354">
        <ele>20.76217</ele>
        <time>2026-07-29T22:51:59.224000Z</time>
      </trkpt>
      <trkpt lat="39.8735843" lon="116.6698513">
        <ele>20.82491</ele>
        <time>2026-07-29T22:52:03.206000Z</time>
      </trkpt>
      <trkpt lat="39.873667" lon="116.6697815">
        <ele>20.90488</ele>
        <time>2026-07-29T22:52:07.187000Z</time>
      </trkpt>
      <trkpt lat="39.8737575" lon="116.6697426">
        <ele>21.00885</ele>
        <time>2026-07-29T22:52:11.169000Z</time>
      </trkpt>
      <trkpt lat="39.8738515" lon="116.6697412">
        <ele>21.12379</ele>
        <time>2026-07-29T22:52:15.150000Z</time>
      </trkpt>
      <trkpt lat="39.8739428" lon="116.669767">
        <ele>21.21105</ele>
        <time>2026-07-29T22:52:19.131000Z</time>
      </trkpt>
      <trkpt lat="39.874035" lon="116.6697953">
        <ele>21.25168</ele>
        <time>2026-07-29T22:52:23.113000Z</time>
      </trkpt>
      <trkpt lat="39.8741294" lon="116.6697996">
        <ele>21.26171</ele>
        <time>2026-07-29T22:52:27Z</time>
      </trkpt>
      <trkpt lat="39.8742272" lon="116.6697763">
        <ele>21.26828</ele>
        <time>2026-07-29T22:52:31Z</time>
      </trkpt>
      <trkpt lat="39.8743177" lon="116.6697215">
        <ele>21.2442</ele>
        <time>2026-07-29T22:52:35Z</time>
      </trkpt>
      <trkpt lat="39.8743921" lon="116.6696365">
        <ele>21.19664</ele>
        <time>2026-07-29T22:52:39Z</time>
      </trkpt>
      <trkpt lat="39.8744616" lon="116.6695433">
        <ele>21.19877</ele>
        <time>2026-07-29T22:52:43Z</time>
      </trkpt>
      <trkpt lat="39.8745467" lon="116.6694731">
        <ele>21.34437</ele>
        <time>2026-07-29T22:52:47Z</time>
      </trkpt>
      <trkpt lat="39.8746476" lon="116.6694464">
        <ele>21.61824</ele>
        <time>2026-07-29T22:52:50.982000Z</time>
      </trkpt>
      <trkpt lat="39.8747487" lon="116.6694733">
        <ele>21.89665</ele>
        <time>2026-07-29T22:52:54.964000Z</time>
      </trkpt>
      <trkpt lat="39.8748439" lon="116.6695325">
        <ele>22.12075</ele>
        <time>2026-07-29T22:52:58.945000Z</time>
      </trkpt>
      <trkpt lat="39.8749341" lon="116.6695947">
        <ele>22.30221</ele>
        <time>2026-07-29T22:53:02.927000Z</time>
      </trkpt>
      <trkpt lat="39.8750273" lon="116.6696492">
        <ele>22.46716</ele>
        <time>2026-07-29T22:53:06.908000Z</time>
      </trkpt>
      <trkpt lat="39.8751224" lon="116.6696661">
        <ele>22.60853</ele>
        <time>2026-07-29T22:53:10.889000Z</time>
      </trkpt>
      <trkpt lat="39.875206" lon="116.6696118">
        <ele>22.71053</ele>
        <time>2026-07-29T22:53:14.871000Z</time>
      </trkpt>
      <trkpt lat="39.8752838" lon="116.6695431">
        <ele>22.8023</ele>
        <time>2026-07-29T22:53:18.852000Z</time>
      </trkpt>
      <trkpt lat="39.8753757" lon="116.6695041">
        <ele>22.89203</ele>
        <time>2026-07-29T22:53:22.833000Z</time>
      </trkpt>
      <trkpt lat="39.8754688" lon="116.6694817">
        <ele>22.98431</ele>
        <time>2026-07-29T22:53:26.815000Z</time>
      </trkpt>
      <trkpt lat="39.8755539" lon="116.6694339">
        <ele>23.114</ele>
        <time>2026-07-29T22:53:30.796000Z</time>
      </trkpt>
      <trkpt lat="39.8756229" lon="116.6693491">
        <ele>23.27313</ele>
        <time>2026-07-29T22:53:34.778000Z</time>
      </trkpt>
      <trkpt lat="39.8756615" lon="116.6692394">
        <ele>23.44056</ele>
        <time>2026-07-29T22:53:38.759000Z</time>
      </trkpt>
      <trkpt lat="39.8756672" lon="116.6691204">
        <ele>23.55871</ele>
        <time>2026-07-29T22:53:42.740000Z</time>
      </trkpt>
      <trkpt lat="39.8756473" lon="116.6689982">
        <ele>23.535</ele>
        <time>2026-07-29T22:53:46.722000Z</time>
      </trkpt>
      <trkpt lat="39.8756071" lon="116.6688928">
        <ele>23.35909</ele>
        <time>2026-07-29T22:53:50.703000Z</time>
      </trkpt>
      <trkpt lat="39.8755451" lon="116.6687988">
        <ele>23.08645</ele>
        <time>2026-07-29T22:53:54.684000Z</time>
      </trkpt>
      <trkpt lat="39.8754712" lon="116.6687162">
        <ele>22.79787</ele>
        <time>2026-07-29T22:53:58.666000Z</time>
      </trkpt>
      <trkpt lat="39.8753988" lon="116.6686339">
        <ele>22.57544</ele>
        <time>2026-07-29T22:54:02.647000Z</time>
      </trkpt>
      <trkpt lat="39.8753409" lon="116.6685342">
        <ele>22.44079</ele>
        <time>2026-07-29T22:54:06.628000Z</time>
      </trkpt>
      <trkpt lat="39.875303" lon="116.6684139">
        <ele>22.38772</ele>
        <time>2026-07-29T22:54:10.610000Z</time>
      </trkpt>
      <trkpt lat="39.8752777" lon="116.6682858">
        <ele>22.42381</ele>
        <time>2026-07-29T22:54:14.591000Z</time>
      </trkpt>
      <trkpt lat="39.8752561" lon="116.6681512">
        <ele>22.51052</ele>
        <time>2026-07-29T22:54:18.572000Z</time>
      </trkpt>
      <trkpt lat="39.8752249" lon="116.6680209">
        <ele>22.56406</ele>
        <time>2026-07-29T22:54:22.554000Z</time>
      </trkpt>
      <trkpt lat="39.8751796" lon="116.6679019">
        <ele>22.54665</ele>
        <time>2026-07-29T22:54:26.535000Z</time>
      </trkpt>
      <trkpt lat="39.8751153" lon="116.6678061">
        <ele>22.46813</ele>
        <time>2026-07-29T22:54:30.516000Z</time>
      </trkpt>
      <trkpt lat="39.8750329" lon="116.6677325">
        <ele>22.38986</ele>
        <time>2026-07-29T22:54:34.498000Z</time>
      </trkpt>
      <trkpt lat="39.8749481" lon="116.6676558">
        <ele>22.36318</ele>
        <time>2026-07-29T22:54:38.479000Z</time>
      </trkpt>
      <trkpt lat="39.8748558" lon="116.6676033">
        <ele>22.3875</ele>
        <time>2026-07-29T22:54:42.460000Z</time>
      </trkpt>
      <trkpt lat="39.8747581" lon="116.6675728">
        <ele>22.44253</ele>
        <time>2026-07-29T22:54:46.442000Z</time>
      </trkpt>
      <trkpt lat="39.8746575" lon="116.6675518">
        <ele>22.48428</ele>
        <time>2026-07-29T22:54:50.423000Z</time>
      </trkpt>
      <trkpt lat="39.8745553" lon="116.66754">
        <ele>22.49515</ele>
        <time>2026-07-29T22:54:54.404000Z</time>
      </trkpt>
      <trkpt lat="39.8744545" lon="116.6675537">
        <ele>22.44875</ele>
        <time>2026-07-29T22:54:58.386000Z</time>
      </trkpt>
      <trkpt lat="39.874356" lon="116.6675932">
        <ele>22.32926</ele>
        <time>2026-07-29T22:55:02.367000Z</time>
      </trkpt>
      <trkpt lat="39.8742603" lon="116.667648">
        <ele>22.16997</ele>
        <time>2026-07-29T22:55:06.348000Z</time>
      </trkpt>
      <trkpt lat="39.8741682" lon="116.6677112">
        <ele>22.01446</ele>
        <time>2026-07-29T22:55:10.330000Z</time>
      </trkpt>
      <trkpt lat="39.8740782" lon="116.6677758">
        <ele>21.86788</ele>
        <time>2026-07-29T22:55:14.311000Z</time>
      </trkpt>
      <trkpt lat="39.8739835" lon="116.6678276">
        <ele>21.73881</ele>
        <time>2026-07-29T22:55:18.292000Z</time>
      </trkpt>
      <trkpt lat="39.8738861" lon="116.6678557">
        <ele>21.65423</ele>
        <time>2026-07-29T22:55:22.274000Z</time>
      </trkpt>
      <trkpt lat="39.8737842" lon="116.6678608">
        <ele>21.6183</ele>
        <time>2026-07-29T22:55:26.255000Z</time>
      </trkpt>
      <trkpt lat="39.8736831" lon="116.6678499">
        <ele>21.60644</ele>
        <time>2026-07-29T22:55:30.236000Z</time>
      </trkpt>
      <trkpt lat="39.8735838" lon="116.6678282">
        <ele>21.57321</ele>
        <time>2026-07-29T22:55:34.218000Z</time>
      </trkpt>
      <trkpt lat="39.8734834" lon="116.6678045">
        <ele>21.51244</ele>
        <time>2026-07-29T22:55:38.199000Z</time>
      </trkpt>
      <trkpt lat="39.8733882" lon="116.6677964">
        <ele>21.44064</ele>
        <time>2026-07-29T22:55:42Z</time>
      </trkpt>
      <trkpt lat="39.8732912" lon="116.6678201">
        <ele>21.3617</ele>
        <time>2026-07-29T22:55:46Z</time>
      </trkpt>
      <trkpt lat="39.8732023" lon="116.6678679">
        <ele>21.3132</ele>
        <time>2026-07-29T22:55:50Z</time>
      </trkpt>
      <trkpt lat="39.873108" lon="116.6679074">
        <ele>21.30047</ele>
        <time>2026-07-29T22:55:54Z</time>
      </trkpt>
      <trkpt lat="39.873006" lon="116.6679109">
        <ele>21.3401</ele>
        <time>2026-07-29T22:55:58Z</time>
      </trkpt>
      <trkpt lat="39.8729069" lon="116.6678753">
        <ele>21.42952</ele>
        <time>2026-07-29T22:56:02Z</time>
      </trkpt>
      <trkpt lat="39.8728118" lon="116.6678224">
        <ele>21.53173</ele>
        <time>2026-07-29T22:56:06Z</time>
      </trkpt>
      <trkpt lat="39.8727165" lon="116.6677787">
        <ele>21.56908</ele>
        <time>2026-07-29T22:56:10Z</time>
      </trkpt>
      <trkpt lat="39.872617" lon="116.6677584">
        <ele>21.53161</ele>
        <time>2026-07-29T22:56:14.001000Z</time>
      </trkpt>
      <trkpt lat="39.8725142" lon="116.6677558">
        <ele>21.51039</ele>
        <time>2026-07-29T22:56:18Z</time>
      </trkpt>
      <trkpt lat="39.8724163" lon="116.6677629">
        <ele>21.59867</ele>
        <time>2026-07-29T22:56:21.994000Z</time>
      </trkpt>
      <trkpt lat="39.8723177" lon="116.6677747">
        <ele>21.66771</ele>
        <time>2026-07-29T22:56:25.975000Z</time>
      </trkpt>
      <trkpt lat="39.872222" lon="116.6677839">
        <ele>21.59728</ele>
        <time>2026-07-29T22:56:29.957000Z</time>
      </trkpt>
      <trkpt lat="39.8721231" lon="116.6677851">
        <ele>21.42249</ele>
        <time>2026-07-29T22:56:33.938000Z</time>
      </trkpt>
      <trkpt lat="39.872025" lon="116.6677678">
        <ele>21.21966</ele>
        <time>2026-07-29T22:56:37.919000Z</time>
      </trkpt>
      <trkpt lat="39.8719302" lon="116.6677336">
        <ele>21.03627</ele>
        <time>2026-07-29T22:56:41.901000Z</time>
      </trkpt>
      <trkpt lat="39.8718388" lon="116.6676834">
        <ele>20.90243</ele>
        <time>2026-07-29T22:56:45.882000Z</time>
      </trkpt>
      <trkpt lat="39.8717496" lon="116.6676263">
        <ele>20.83419</ele>
        <time>2026-07-29T22:56:49.863000Z</time>
      </trkpt>
      <trkpt lat="39.871657" lon="116.6675776">
        <ele>20.83967</ele>
        <time>2026-07-29T22:56:53.844000Z</time>
      </trkpt>
      <trkpt lat="39.8715568" lon="116.6675441">
        <ele>20.90476</ele>
        <time>2026-07-29T22:56:57.825000Z</time>
      </trkpt>
      <trkpt lat="39.8714554" lon="116.6675247">
        <ele>20.98494</ele>
        <time>2026-07-29T22:57:01.807000Z</time>
      </trkpt>
      <trkpt lat="39.8713545" lon="116.6675284">
        <ele>21.0459</ele>
        <time>2026-07-29T22:57:05.788000Z</time>
      </trkpt>
      <trkpt lat="39.8712551" lon="116.6675395">
        <ele>21.07875</ele>
        <time>2026-07-29T22:57:09.770000Z</time>
      </trkpt>
      <trkpt lat="39.8711554" lon="116.667553">
        <ele>21.04573</ele>
        <time>2026-07-29T22:57:13.751000Z</time>
      </trkpt>
      <trkpt lat="39.8710675" lon="116.6675802">
        <ele>20.93212</ele>
        <time>2026-07-29T22:57:17.733000Z</time>
      </trkpt>
      <trkpt lat="39.8709946" lon="116.6676736">
        <ele>20.74612</ele>
        <time>2026-07-29T22:57:22.709000Z</time>
      </trkpt>
      <trkpt lat="39.8709652" lon="116.6678087">
        <ele>20.65825</ele>
        <time>2026-07-29T22:57:27.686000Z</time>
      </trkpt>
      <trkpt lat="39.8708706" lon="116.6678882">
        <ele>20.70244</ele>
        <time>2026-07-29T22:57:32.663000Z</time>
      </trkpt>
      <trkpt lat="39.8707682" lon="116.6678912">
        <ele>20.77259</ele>
        <time>2026-07-29T22:57:36.644000Z</time>
      </trkpt>
      <trkpt lat="39.870664" lon="116.6678908">
        <ele>20.86614</ele>
        <time>2026-07-29T22:57:40.626000Z</time>
      </trkpt>
      <trkpt lat="39.87056" lon="116.6678912">
        <ele>20.99449</ele>
        <time>2026-07-29T22:57:44.607000Z</time>
      </trkpt>
      <trkpt lat="39.870458" lon="116.6678863">
        <ele>21.14616</ele>
        <time>2026-07-29T22:57:48.588000Z</time>
      </trkpt>
      <trkpt lat="39.8703584" lon="116.6678625">
        <ele>21.28249</ele>
        <time>2026-07-29T22:57:52.570000Z</time>
      </trkpt>
      <trkpt lat="39.8702598" lon="116.6678114">
        <ele>21.38012</ele>
        <time>2026-07-29T22:57:56.551000Z</time>
      </trkpt>
      <trkpt lat="39.8701534" lon="116.6677948">
        <ele>21.43348</ele>
        <time>2026-07-29T22:58:00.532000Z</time>
      </trkpt>
      <trkpt lat="39.8700467" lon="116.6678036">
        <ele>21.43337</ele>
        <time>2026-07-29T22:58:04.514000Z</time>
      </trkpt>
      <trkpt lat="39.8699395" lon="116.6677981">
        <ele>21.39568</ele>
        <time>2026-07-29T22:58:08.495000Z</time>
      </trkpt>
      <trkpt lat="39.8698324" lon="116.667776">
        <ele>21.32554</ele>
        <time>2026-07-29T22:58:12.476000Z</time>
      </trkpt>
      <trkpt lat="39.8697277" lon="116.6677594">
        <ele>21.24378</ele>
        <time>2026-07-29T22:58:16.458000Z</time>
      </trkpt>
      <trkpt lat="39.8696269" lon="116.6677668">
        <ele>21.16775</ele>
        <time>2026-07-29T22:58:20.439000Z</time>
      </trkpt>
      <trkpt lat="39.8695372" lon="116.6678215">
        <ele>21.09815</ele>
        <time>2026-07-29T22:58:24.421000Z</time>
      </trkpt>
      <trkpt lat="39.8694814" lon="116.6679168">
        <ele>21.05149</ele>
        <time>2026-07-29T22:58:28.402000Z</time>
      </trkpt>
      <trkpt lat="39.8694603" lon="116.6680372">
        <ele>21.02631</ele>
        <time>2026-07-29T22:58:32.383000Z</time>
      </trkpt>
      <trkpt lat="39.8694667" lon="116.6681628">
        <ele>20.99221</ele>
        <time>2026-07-29T22:58:36.365000Z</time>
      </trkpt>
      <trkpt lat="39.869499" lon="116.6682777">
        <ele>20.93033</ele>
        <time>2026-07-29T22:58:40.346000Z</time>
      </trkpt>
      <trkpt lat="39.8695624" lon="116.6683627">
        <ele>20.84285</ele>
        <time>2026-07-29T22:58:44.327000Z</time>
      </trkpt>
      <trkpt lat="39.8696538" lon="116.6683975">
        <ele>20.75412</ele>
        <time>2026-07-29T22:58:48.309000Z</time>
      </trkpt>
      <trkpt lat="39.8697514" lon="116.6683835">
        <ele>20.69827</ele>
        <time>2026-07-29T22:58:52.290000Z</time>
      </trkpt>
      <trkpt lat="39.8698476" lon="116.668346">
        <ele>20.69058</ele>
        <time>2026-07-29T22:58:56.271000Z</time>
      </trkpt>
      <trkpt lat="39.8699476" lon="116.6683243">
        <ele>20.72514</ele>
        <time>2026-07-29T22:59:00.253000Z</time>
      </trkpt>
      <trkpt lat="39.870047" lon="116.6683289">
        <ele>20.78005</ele>
        <time>2026-07-29T22:59:04.234000Z</time>
      </trkpt>
      <trkpt lat="39.8701444" lon="116.6683254">
        <ele>20.80269</ele>
        <time>2026-07-29T22:59:08.216000Z</time>
      </trkpt>
      <trkpt lat="39.8702418" lon="116.6682914">
        <ele>20.7694</ele>
        <time>2026-07-29T22:59:12.197000Z</time>
      </trkpt>
      <trkpt lat="39.870333" lon="116.6682352">
        <ele>20.72213</ele>
        <time>2026-07-29T22:59:16.178000Z</time>
      </trkpt>
      <trkpt lat="39.8704211" lon="116.6681694">
        <ele>20.66602</ele>
        <time>2026-07-29T22:59:20.160000Z</time>
      </trkpt>
      <trkpt lat="39.8705159" lon="116.6681253">
        <ele>20.59611</ele>
        <time>2026-07-29T22:59:24.141000Z</time>
      </trkpt>
      <trkpt lat="39.8706144" lon="116.6681207">
        <ele>20.54227</ele>
        <time>2026-07-29T22:59:28.122000Z</time>
      </trkpt>
      <trkpt lat="39.8707104" lon="116.6681409">
        <ele>20.54548</ele>
        <time>2026-07-29T22:59:32.104000Z</time>
      </trkpt>
      <trkpt lat="39.8708058" lon="116.6681641">
        <ele>20.57884</ele>
        <time>2026-07-29T22:59:36.085000Z</time>
      </trkpt>
      <trkpt lat="39.8709091" lon="116.6681689">
        <ele>20.6331</ele>
        <time>2026-07-29T22:59:40.066000Z</time>
      </trkpt>
      <trkpt lat="39.8710082" lon="116.6681474">
        <ele>20.66329</ele>
        <time>2026-07-29T22:59:44.048000Z</time>
      </trkpt>
      <trkpt lat="39.8711015" lon="116.6681085">
        <ele>20.63385</ele>
        <time>2026-07-29T22:59:48.029000Z</time>
      </trkpt>
      <trkpt lat="39.8711938" lon="116.6680582">
        <ele>20.55956</ele>
        <time>2026-07-29T22:59:52.011000Z</time>
      </trkpt>
      <trkpt lat="39.8712825" lon="116.6680105">
        <ele>20.53034</ele>
        <time>2026-07-29T22:59:55.992000Z</time>
      </trkpt>
      <trkpt lat="39.8713792" lon="116.6679771">
        <ele>20.55897</ele>
        <time>2026-07-29T22:59:59.973000Z</time>
      </trkpt>
      <trkpt lat="39.871477" lon="116.6679709">
        <ele>20.56928</ele>
        <time>2026-07-29T23:00:03.955000Z</time>
      </trkpt>
      <trkpt lat="39.8715713" lon="116.6679932">
        <ele>20.54573</ele>
        <time>2026-07-29T23:00:07.936000Z</time>
      </trkpt>
      <trkpt lat="39.8716621" lon="116.6680412">
        <ele>20.48335</ele>
        <time>2026-07-29T23:00:11.917000Z</time>
      </trkpt>
      <trkpt lat="39.8717487" lon="116.6681073">
        <ele>20.44261</ele>
        <time>2026-07-29T23:00:15.899000Z</time>
      </trkpt>
      <trkpt lat="39.8718357" lon="116.6681601">
        <ele>20.47165</ele>
        <time>2026-07-29T23:00:19.880000Z</time>
      </trkpt>
      <trkpt lat="39.8719298" lon="116.668184">
        <ele>20.57396</ele>
        <time>2026-07-29T23:00:23.861000Z</time>
      </trkpt>
      <trkpt lat="39.8720222" lon="116.6681976">
        <ele>20.72462</ele>
        <time>2026-07-29T23:00:27.843000Z</time>
      </trkpt>
      <trkpt lat="39.8721164" lon="116.6681963">
        <ele>20.87682</ele>
        <time>2026-07-29T23:00:31.824000Z</time>
      </trkpt>
      <trkpt lat="39.872213" lon="116.6681967">
        <ele>21.01257</ele>
        <time>2026-07-29T23:00:35.806000Z</time>
      </trkpt>
      <trkpt lat="39.8723058" lon="116.6682273">
        <ele>21.13389</ele>
        <time>2026-07-29T23:00:39.787000Z</time>
      </trkpt>
      <trkpt lat="39.872393" lon="116.6682911">
        <ele>21.23859</ele>
        <time>2026-07-29T23:00:43.768000Z</time>
      </trkpt>
      <trkpt lat="39.8724688" lon="116.668378">
        <ele>21.315</ele>
        <time>2026-07-29T23:00:47.750000Z</time>
      </trkpt>
      <trkpt lat="39.8725332" lon="116.6684802">
        <ele>21.35186</ele>
        <time>2026-07-29T23:00:51.731000Z</time>
      </trkpt>
      <trkpt lat="39.872584" lon="116.6685916">
        <ele>21.36225</ele>
        <time>2026-07-29T23:00:55.712000Z</time>
      </trkpt>
      <trkpt lat="39.8726148" lon="116.668716">
        <ele>21.35487</ele>
        <time>2026-07-29T23:00:59.694000Z</time>
      </trkpt>
      <trkpt lat="39.8726238" lon="116.668844">
        <ele>21.31845</ele>
        <time>2026-07-29T23:01:03.675000Z</time>
      </trkpt>
      <trkpt lat="39.8726118" lon="116.6689682">
        <ele>21.27779</ele>
        <time>2026-07-29T23:01:07.656000Z</time>
      </trkpt>
      <trkpt lat="39.8725843" lon="116.6690873">
        <ele>21.26468</ele>
        <time>2026-07-29T23:01:11.637000Z</time>
      </trkpt>
      <trkpt lat="39.8725502" lon="116.6692052">
        <ele>21.27883</ele>
        <time>2026-07-29T23:01:15.619000Z</time>
      </trkpt>
      <trkpt lat="39.8725208" lon="116.669324">
        <ele>21.29635</ele>
        <time>2026-07-29T23:01:19.600000Z</time>
      </trkpt>
      <trkpt lat="39.8724973" lon="116.6694426">
        <ele>21.29381</ele>
        <time>2026-07-29T23:01:23.582000Z</time>
      </trkpt>
      <trkpt lat="39.872486" lon="116.6695636">
        <ele>21.27757</ele>
        <time>2026-07-29T23:01:27.563000Z</time>
      </trkpt>
      <trkpt lat="39.8724975" lon="116.6696855">
        <ele>21.26299</ele>
        <time>2026-07-29T23:01:31.545000Z</time>
      </trkpt>
      <trkpt lat="39.8725251" lon="116.6698037">
        <ele>21.26882</ele>
        <time>2026-07-29T23:01:35.526000Z</time>
      </trkpt>
      <trkpt lat="39.8725681" lon="116.6699137">
        <ele>21.28557</ele>
        <time>2026-07-29T23:01:39.507000Z</time>
      </trkpt>
      <trkpt lat="39.8726319" lon="116.6700013">
        <ele>21.29957</ele>
        <time>2026-07-29T23:01:43.489000Z</time>
      </trkpt>
      <trkpt lat="39.8727276" lon="116.6700744">
        <ele>21.29415</ele>
        <time>2026-07-29T23:01:48.466000Z</time>
      </trkpt>
      <trkpt lat="39.8728165" lon="116.6701126">
        <ele>21.26225</ele>
        <time>2026-07-29T23:01:52.447000Z</time>
      </trkpt>
      <trkpt lat="39.87291" lon="116.6701354">
        <ele>21.20331</ele>
        <time>2026-07-29T23:01:56.428000Z</time>
      </trkpt>
      <trkpt lat="39.8730057" lon="116.6701421">
        <ele>21.11758</ele>
        <time>2026-07-29T23:02:00.410000Z</time>
      </trkpt>
      <trkpt lat="39.8731026" lon="116.6701385">
        <ele>21.01214</ele>
        <time>2026-07-29T23:02:04.391000Z</time>
      </trkpt>
      <trkpt lat="39.8732" lon="116.6701153">
        <ele>20.91665</ele>
        <time>2026-07-29T23:02:08.373000Z</time>
      </trkpt>
      <trkpt lat="39.8732975" lon="116.670084">
        <ele>20.84371</ele>
        <time>2026-07-29T23:02:12.354000Z</time>
      </trkpt>
      <trkpt lat="39.8733925" lon="116.6700433">
        <ele>20.78645</ele>
        <time>2026-07-29T23:02:16.335000Z</time>
      </trkpt>
      <trkpt lat="39.8734794" lon="116.6699841">
        <ele>20.74952</ele>
        <time>2026-07-29T23:02:20.317000Z</time>
      </trkpt>
      <trkpt lat="39.8735582" lon="116.6699086">
        <ele>20.74964</ele>
        <time>2026-07-29T23:02:24.298000Z</time>
      </trkpt>
      <trkpt lat="39.8736341" lon="116.6698318">
        <ele>20.7809</ele>
        <time>2026-07-29T23:02:28.280000Z</time>
      </trkpt>
      <trkpt lat="39.8737182" lon="116.6697747">
        <ele>20.83596</ele>
        <time>2026-07-29T23:02:32.261000Z</time>
      </trkpt>
      <trkpt lat="39.8738113" lon="116.6697512">
        <ele>20.90247</ele>
        <time>2026-07-29T23:02:36.242000Z</time>
      </trkpt>
      <trkpt lat="39.8739089" lon="116.6697588">
        <ele>20.95605</ele>
        <time>2026-07-29T23:02:40.224000Z</time>
      </trkpt>
      <trkpt lat="39.8740044" lon="116.669787">
        <ele>20.99568</ele>
        <time>2026-07-29T23:02:44.205000Z</time>
      </trkpt>
      <trkpt lat="39.8741002" lon="116.669807">
        <ele>21.02178</ele>
        <time>2026-07-29T23:02:48.187000Z</time>
      </trkpt>
      <trkpt lat="39.874195" lon="116.6698033">
        <ele>21.06258</ele>
        <time>2026-07-29T23:02:52.168000Z</time>
      </trkpt>
      <trkpt lat="39.874281" lon="116.6697685">
        <ele>21.15309</ele>
        <time>2026-07-29T23:02:55.999000Z</time>
      </trkpt>
      <trkpt lat="39.8743544" lon="116.6696933">
        <ele>21.22738</ele>
        <time>2026-07-29T23:02:59.999000Z</time>
      </trkpt>
      <trkpt lat="39.8744209" lon="116.6696007">
        <ele>21.2578</ele>
        <time>2026-07-29T23:03:03.999000Z</time>
      </trkpt>
      <trkpt lat="39.8744948" lon="116.6695141">
        <ele>21.27463</ele>
        <time>2026-07-29T23:03:08Z</time>
      </trkpt>
      <trkpt lat="39.8745855" lon="116.6694667">
        <ele>21.3153</ele>
        <time>2026-07-29T23:03:12Z</time>
      </trkpt>
      <trkpt lat="39.8746814" lon="116.6694644">
        <ele>21.42784</ele>
        <time>2026-07-29T23:03:16Z</time>
      </trkpt>
      <trkpt lat="39.8747754" lon="116.669487">
        <ele>21.66489</ele>
        <time>2026-07-29T23:03:20.038000Z</time>
      </trkpt>
      <trkpt lat="39.8748579" lon="116.6695428">
        <ele>21.94635</ele>
        <time>2026-07-29T23:03:24.019000Z</time>
      </trkpt>
      <trkpt lat="39.8749387" lon="116.6696091">
        <ele>22.22456</ele>
        <time>2026-07-29T23:03:28.001000Z</time>
      </trkpt>
      <trkpt lat="39.8750269" lon="116.6696491">
        <ele>22.54019</ele>
        <time>2026-07-29T23:03:31.982000Z</time>
      </trkpt>
      <trkpt lat="39.8751193" lon="116.6696306">
        <ele>22.81082</ele>
        <time>2026-07-29T23:03:35.963000Z</time>
      </trkpt>
      <trkpt lat="39.8752035" lon="116.6695735">
        <ele>23.01684</ele>
        <time>2026-07-29T23:03:39.945000Z</time>
      </trkpt>
      <trkpt lat="39.8752899" lon="116.6695277">
        <ele>23.15628</ele>
        <time>2026-07-29T23:03:43.926000Z</time>
      </trkpt>
      <trkpt lat="39.8753848" lon="116.669502">
        <ele>23.23645</ele>
        <time>2026-07-29T23:03:47.908000Z</time>
      </trkpt>
      <trkpt lat="39.8754807" lon="116.669467">
        <ele>23.30283</ele>
        <time>2026-07-29T23:03:51.889000Z</time>
      </trkpt>
      <trkpt lat="39.875563" lon="116.6694038">
        <ele>23.376</ele>
        <time>2026-07-29T23:03:55.870000Z</time>
      </trkpt>
      <trkpt lat="39.8756188" lon="116.6693015">
        <ele>23.40685</ele>
        <time>2026-07-29T23:03:59.852000Z</time>
      </trkpt>
      <trkpt lat="39.8756345" lon="116.6691801">
        <ele>23.35219</ele>
        <time>2026-07-29T23:04:03.833000Z</time>
      </trkpt>
      <trkpt lat="39.8756166" lon="116.6690372">
        <ele>23.18667</ele>
        <time>2026-07-29T23:04:08.810000Z</time>
      </trkpt>
      <trkpt lat="39.8755765" lon="116.6689282">
        <ele>23.02299</ele>
        <time>2026-07-29T23:04:12.791000Z</time>
      </trkpt>
      <trkpt lat="39.8755165" lon="116.6688247">
        <ele>22.90329</ele>
        <time>2026-07-29T23:04:16.773000Z</time>
      </trkpt>
      <trkpt lat="39.8754488" lon="116.6687262">
        <ele>22.84146</ele>
        <time>2026-07-29T23:04:20.754000Z</time>
      </trkpt>
      <trkpt lat="39.8753806" lon="116.6686289">
        <ele>22.82257</ele>
        <time>2026-07-29T23:04:24.736000Z</time>
      </trkpt>
      <trkpt lat="39.8753277" lon="116.6685192">
        <ele>22.82702</ele>
        <time>2026-07-29T23:04:28.717000Z</time>
      </trkpt>
      <trkpt lat="39.87529" lon="116.6683935">
        <ele>22.83986</ele>
        <time>2026-07-29T23:04:32.698000Z</time>
      </trkpt>
      <trkpt lat="39.8752636" lon="116.6682657">
        <ele>22.83183</ele>
        <time>2026-07-29T23:04:36.680000Z</time>
      </trkpt>
      <trkpt lat="39.87524" lon="116.6681372">
        <ele>22.79948</ele>
        <time>2026-07-29T23:04:40.661000Z</time>
      </trkpt>
      <trkpt lat="39.875209" lon="116.6680121">
        <ele>22.76475</ele>
        <time>2026-07-29T23:04:44.642000Z</time>
      </trkpt>
      <trkpt lat="39.8751644" lon="116.6678921">
        <ele>22.73248</ele>
        <time>2026-07-29T23:04:48.624000Z</time>
      </trkpt>
      <trkpt lat="39.8751045" lon="116.66778">
        <ele>22.67847</ele>
        <time>2026-07-29T23:04:52.605000Z</time>
      </trkpt>
      <trkpt lat="39.8750353" lon="116.6676852">
        <ele>22.57256</ele>
        <time>2026-07-29T23:04:56.587000Z</time>
      </trkpt>
      <trkpt lat="39.8749517" lon="116.6676096">
        <ele>22.4418</ele>
        <time>2026-07-29T23:05:00.568000Z</time>
      </trkpt>
      <trkpt lat="39.8748586" lon="116.6675633">
        <ele>22.29291</ele>
        <time>2026-07-29T23:05:04.549000Z</time>
      </trkpt>
      <trkpt lat="39.8747625" lon="116.667538">
        <ele>22.13459</ele>
        <time>2026-07-29T23:05:08.531000Z</time>
      </trkpt>
      <trkpt lat="39.8746633" lon="116.6675234">
        <ele>22.01557</ele>
        <time>2026-07-29T23:05:12.512000Z</time>
      </trkpt>
      <trkpt lat="39.8745609" lon="116.6675138">
        <ele>21.94257</ele>
        <time>2026-07-29T23:05:16.494000Z</time>
      </trkpt>
      <trkpt lat="39.8744587" lon="116.6675255">
        <ele>21.89414</ele>
        <time>2026-07-29T23:05:20.475000Z</time>
      </trkpt>
      <trkpt lat="39.8743577" lon="116.667563">
        <ele>21.83158</ele>
        <time>2026-07-29T23:05:24.456000Z</time>
      </trkpt>
      <trkpt lat="39.8742632" lon="116.66762">
        <ele>21.73184</ele>
        <time>2026-07-29T23:05:28.438000Z</time>
      </trkpt>
      <trkpt lat="39.874174" lon="116.6676879">
        <ele>21.64396</ele>
        <time>2026-07-29T23:05:32.419000Z</time>
      </trkpt>
      <trkpt lat="39.8740802" lon="116.6677492">
        <ele>21.60217</ele>
        <time>2026-07-29T23:05:36.401000Z</time>
      </trkpt>
      <trkpt lat="39.8739789" lon="116.6677927">
        <ele>21.58984</ele>
        <time>2026-07-29T23:05:40.382000Z</time>
      </trkpt>
      <trkpt lat="39.8738714" lon="116.667813">
        <ele>21.59822</ele>
        <time>2026-07-29T23:05:44.363000Z</time>
      </trkpt>
      <trkpt lat="39.873762" lon="116.6678141">
        <ele>21.61811</ele>
        <time>2026-07-29T23:05:48.345000Z</time>
      </trkpt>
      <trkpt lat="39.8736522" lon="116.6677995">
        <ele>21.64508</ele>
        <time>2026-07-29T23:05:52.326000Z</time>
      </trkpt>
      <trkpt lat="39.8735419" lon="116.6677772">
        <ele>21.68921</ele>
        <time>2026-07-29T23:05:56.307000Z</time>
      </trkpt>
      <trkpt lat="39.8734316" lon="116.6677643">
        <ele>21.74698</ele>
        <time>2026-07-29T23:06:00.289000Z</time>
      </trkpt>
      <trkpt lat="39.8733252" lon="116.6677842">
        <ele>21.80543</ele>
        <time>2026-07-29T23:06:04.270000Z</time>
      </trkpt>
      <trkpt lat="39.8732254" lon="116.6678341">
        <ele>21.86002</ele>
        <time>2026-07-29T23:06:08.252000Z</time>
      </trkpt>
      <trkpt lat="39.873124" lon="116.6678708">
        <ele>21.91016</ele>
        <time>2026-07-29T23:06:12.233000Z</time>
      </trkpt>
      <trkpt lat="39.8730112" lon="116.6678789">
        <ele>21.95679</ele>
        <time>2026-07-29T23:06:16.214000Z</time>
      </trkpt>
      <trkpt lat="39.8729" lon="116.6678571">
        <ele>22.02281</ele>
        <time>2026-07-29T23:06:20.196000Z</time>
      </trkpt>
      <trkpt lat="39.872797" lon="116.6678146">
        <ele>22.08693</ele>
        <time>2026-07-29T23:06:24Z</time>
      </trkpt>
      <trkpt lat="39.8727117" lon="116.6677766">
        <ele>22.10603</ele>
        <time>2026-07-29T23:06:27.163000Z</time>
      </trkpt>
      <trkpt lat="39.8726064" lon="116.6677479">
        <ele>22.07184</ele>
        <time>2026-07-29T23:06:31Z</time>
      </trkpt>
      <trkpt lat="39.872494" lon="116.6677417">
        <ele>22.02202</ele>
        <time>2026-07-29T23:06:35Z</time>
      </trkpt>
      <trkpt lat="39.8723856" lon="116.6677494">
        <ele>22.02363</ele>
        <time>2026-07-29T23:06:39Z</time>
      </trkpt>
      <trkpt lat="39.8722777" lon="116.667765">
        <ele>22.01692</ele>
        <time>2026-07-29T23:06:43Z</time>
      </trkpt>
      <trkpt lat="39.8721672" lon="116.6677695">
        <ele>21.91886</ele>
        <time>2026-07-29T23:06:47Z</time>
      </trkpt>
      <trkpt lat="39.8720571" lon="116.6677523">
        <ele>21.82864</ele>
        <time>2026-07-29T23:06:51Z</time>
      </trkpt>
      <trkpt lat="39.8719516" lon="116.6677199">
        <ele>21.74395</ele>
        <time>2026-07-29T23:06:55Z</time>
      </trkpt>
      <trkpt lat="39.8718474" lon="116.6676681">
        <ele>21.57909</ele>
        <time>2026-07-29T23:06:59Z</time>
      </trkpt>
      <trkpt lat="39.8717378" lon="116.6676141">
        <ele>21.25963</ele>
        <time>2026-07-29T23:07:02.996000Z</time>
      </trkpt>
      <trkpt lat="39.8716243" lon="116.6675754">
        <ele>20.85337</ele>
        <time>2026-07-29T23:07:06.977000Z</time>
      </trkpt>
      <trkpt lat="39.8715111" lon="116.667552">
        <ele>20.50133</ele>
        <time>2026-07-29T23:07:10.959000Z</time>
      </trkpt>
      <trkpt lat="39.8713938" lon="116.6675397">
        <ele>20.23622</ele>
        <time>2026-07-29T23:07:14.940000Z</time>
      </trkpt>
      <trkpt lat="39.8712809" lon="116.6675422">
        <ele>20.05761</ele>
        <time>2026-07-29T23:07:18.921000Z</time>
      </trkpt>
      <trkpt lat="39.8711737" lon="116.6675519">
        <ele>19.97733</ele>
        <time>2026-07-29T23:07:22.903000Z</time>
      </trkpt>
      <trkpt lat="39.8710786" lon="116.6675916">
        <ele>20.01636</ele>
        <time>2026-07-29T23:07:26.884000Z</time>
      </trkpt>
      <trkpt lat="39.8710135" lon="116.6676936">
        <ele>20.17515</ele>
        <time>2026-07-29T23:07:30.866000Z</time>
      </trkpt>
      <trkpt lat="39.8709704" lon="116.6677977">
        <ele>20.36906</ele>
        <time>2026-07-29T23:07:33.852000Z</time>
      </trkpt>
      <trkpt lat="39.8708875" lon="116.6678816">
        <ele>20.69297</ele>
        <time>2026-07-29T23:07:37.833000Z</time>
      </trkpt>
      <trkpt lat="39.8707774" lon="116.6678893">
        <ele>20.99841</ele>
        <time>2026-07-29T23:07:41.814000Z</time>
      </trkpt>
      <trkpt lat="39.8706637" lon="116.6678862">
        <ele>21.21291</ele>
        <time>2026-07-29T23:07:45.796000Z</time>
      </trkpt>
      <trkpt lat="39.8705537" lon="116.6678856">
        <ele>21.31375</ele>
        <time>2026-07-29T23:07:49.777000Z</time>
      </trkpt>
      <trkpt lat="39.8704453" lon="116.6678813">
        <ele>21.35286</ele>
        <time>2026-07-29T23:07:53.758000Z</time>
      </trkpt>
      <trkpt lat="39.8703434" lon="116.6678511">
        <ele>21.36812</ele>
        <time>2026-07-29T23:07:57.740000Z</time>
      </trkpt>
      <trkpt lat="39.8702472" lon="116.6678007">
        <ele>21.33582</ele>
        <time>2026-07-29T23:08:01.721000Z</time>
      </trkpt>
      <trkpt lat="39.8701442" lon="116.66779">
        <ele>21.24652</ele>
        <time>2026-07-29T23:08:05.703000Z</time>
      </trkpt>
      <trkpt lat="39.8700414" lon="116.6677915">
        <ele>21.1382</ele>
        <time>2026-07-29T23:08:09.684000Z</time>
      </trkpt>
      <trkpt lat="39.8699379" lon="116.6677814">
        <ele>21.01971</ele>
        <time>2026-07-29T23:08:13.665000Z</time>
      </trkpt>
      <trkpt lat="39.869831" lon="116.6677637">
        <ele>20.88374</ele>
        <time>2026-07-29T23:08:17.647000Z</time>
      </trkpt>
      <trkpt lat="39.8697216" lon="116.667744">
        <ele>20.74126</ele>
        <time>2026-07-29T23:08:21.628000Z</time>
      </trkpt>
      <trkpt lat="39.8696166" lon="116.6677599">
        <ele>20.62313</ele>
        <time>2026-07-29T23:08:25.609000Z</time>
      </trkpt>
      <trkpt lat="39.8695267" lon="116.6678278">
        <ele>20.5552</ele>
        <time>2026-07-29T23:08:29.591000Z</time>
      </trkpt>
      <trkpt lat="39.8694669" lon="116.6679439">
        <ele>20.54899</ele>
        <time>2026-07-29T23:08:33.572000Z</time>
      </trkpt>
      <trkpt lat="39.8694466" lon="116.668077">
        <ele>20.61094</ele>
        <time>2026-07-29T23:08:37.553000Z</time>
      </trkpt>
      <trkpt lat="39.8694631" lon="116.6682072">
        <ele>20.72139</ele>
        <time>2026-07-29T23:08:41.535000Z</time>
      </trkpt>
      <trkpt lat="39.8695203" lon="116.6683182">
        <ele>20.80108</ele>
        <time>2026-07-29T23:08:45.516000Z</time>
      </trkpt>
      <trkpt lat="39.8696094" lon="116.6683844">
        <ele>20.78706</ele>
        <time>2026-07-29T23:08:49.498000Z</time>
      </trkpt>
      <trkpt lat="39.8697106" lon="116.668386">
        <ele>20.67769</ele>
        <time>2026-07-29T23:08:53.479000Z</time>
      </trkpt>
      <trkpt lat="39.8698119" lon="116.6683454">
        <ele>20.51164</ele>
        <time>2026-07-29T23:08:57.460000Z</time>
      </trkpt>
      <trkpt lat="39.8699205" lon="116.6683165">
        <ele>20.33643</ele>
        <time>2026-07-29T23:09:01.442000Z</time>
      </trkpt>
      <trkpt lat="39.8700335" lon="116.6683095">
        <ele>20.17718</ele>
        <time>2026-07-29T23:09:05.423000Z</time>
      </trkpt>
      <trkpt lat="39.8701399" lon="116.668305">
        <ele>20.05867</ele>
        <time>2026-07-29T23:09:09.405000Z</time>
      </trkpt>
      <trkpt lat="39.8702437" lon="116.6682781">
        <ele>19.99648</ele>
        <time>2026-07-29T23:09:13.386000Z</time>
      </trkpt>
      <trkpt lat="39.8703449" lon="116.6682314">
        <ele>20.00314</ele>
        <time>2026-07-29T23:09:17.367000Z</time>
      </trkpt>
      <trkpt lat="39.870442" lon="116.6681658">
        <ele>20.0809</ele>
        <time>2026-07-29T23:09:21.349000Z</time>
      </trkpt>
      <trkpt lat="39.8705454" lon="116.668119">
        <ele>20.20967</ele>
        <time>2026-07-29T23:09:25.330000Z</time>
      </trkpt>
      <trkpt lat="39.8706524" lon="116.6681146">
        <ele>20.3584</ele>
        <time>2026-07-29T23:09:29.311000Z</time>
      </trkpt>
      <trkpt lat="39.8707612" lon="116.668135">
        <ele>20.50072</ele>
        <time>2026-07-29T23:09:33.293000Z</time>
      </trkpt>
      <trkpt lat="39.8708713" lon="116.6681407">
        <ele>20.61253</ele>
        <time>2026-07-29T23:09:37.274000Z</time>
      </trkpt>
      <trkpt lat="39.8709805" lon="116.6681159">
        <ele>20.71296</ele>
        <time>2026-07-29T23:09:41.256000Z</time>
      </trkpt>
      <trkpt lat="39.8710834" lon="116.6680649">
        <ele>20.83053</ele>
        <time>2026-07-29T23:09:45.237000Z</time>
      </trkpt>
      <trkpt lat="39.8711833" lon="116.667998">
        <ele>20.93346</ele>
        <time>2026-07-29T23:09:49.218000Z</time>
      </trkpt>
      <trkpt lat="39.8712861" lon="116.6679418">
        <ele>20.99849</ele>
        <time>2026-07-29T23:09:53.200000Z</time>
      </trkpt>
      <trkpt lat="39.8713978" lon="116.667913">
        <ele>21.01747</ele>
        <time>2026-07-29T23:09:57.181000Z</time>
      </trkpt>
      <trkpt lat="39.8715126" lon="116.6679269">
        <ele>21.00181</ele>
        <time>2026-07-29T23:10:01.162000Z</time>
      </trkpt>
      <trkpt lat="39.8716195" lon="116.6679759">
        <ele>21.0174</ele>
        <time>2026-07-29T23:10:05Z</time>
      </trkpt>
      <trkpt lat="39.8717011" lon="116.6680312">
        <ele>21.09154</ele>
        <time>2026-07-29T23:10:08.130000Z</time>
      </trkpt>
      <trkpt lat="39.8718069" lon="116.66809">
        <ele>21.20991</ele>
        <time>2026-07-29T23:10:12Z</time>
      </trkpt>
      <trkpt lat="39.8718918" lon="116.6681326">
        <ele>21.28837</ele>
        <time>2026-07-29T23:10:15Z</time>
      </trkpt>
      <trkpt lat="39.8719803" lon="116.6681609">
        <ele>21.35138</ele>
        <time>2026-07-29T23:10:18Z</time>
      </trkpt>
      <trkpt lat="39.8720964" lon="116.6681737">
        <ele>21.44696</ele>
        <time>2026-07-29T23:10:22.065000Z</time>
      </trkpt>
      <trkpt lat="39.8722094" lon="116.6681846">
        <ele>21.61156</ele>
        <time>2026-07-29T23:10:26Z</time>
      </trkpt>
      <trkpt lat="39.8723231" lon="116.6682244">
        <ele>21.80489</ele>
        <time>2026-07-29T23:10:30Z</time>
      </trkpt>
      <trkpt lat="39.8724258" lon="116.668303">
        <ele>21.91357</ele>
        <time>2026-07-29T23:10:34Z</time>
      </trkpt>
      <trkpt lat="39.8725083" lon="116.6684132">
        <ele>21.86094</ele>
        <time>2026-07-29T23:10:37.990000Z</time>
      </trkpt>
      <trkpt lat="39.8725649" lon="116.6685424">
        <ele>21.75602</ele>
        <time>2026-07-29T23:10:41.972000Z</time>
      </trkpt>
      <trkpt lat="39.8725973" lon="116.6686834">
        <ele>21.69584</ele>
        <time>2026-07-29T23:10:45.953000Z</time>
      </trkpt>
      <trkpt lat="39.8726035" lon="116.6688298">
        <ele>21.6648</ele>
        <time>2026-07-29T23:10:49.935000Z</time>
      </trkpt>
      <trkpt lat="39.8725878" lon="116.6689796">
        <ele>21.61763</ele>
        <time>2026-07-29T23:10:53.916000Z</time>
      </trkpt>
      <trkpt lat="39.8725526" lon="116.6691247">
        <ele>21.56954</ele>
        <time>2026-07-29T23:10:57.897000Z</time>
      </trkpt>
      <trkpt lat="39.8725104" lon="116.6692692">
        <ele>21.56603</ele>
        <time>2026-07-29T23:11:01.879000Z</time>
      </trkpt>
      <trkpt lat="39.872486" lon="116.6694145">
        <ele>21.62156</ele>
        <time>2026-07-29T23:11:05.860000Z</time>
      </trkpt>
      <trkpt lat="39.8724864" lon="116.6695634">
        <ele>21.69625</ele>
        <time>2026-07-29T23:11:09.842000Z</time>
      </trkpt>
      <trkpt lat="39.872501" lon="116.6697111">
        <ele>21.7313</ele>
        <time>2026-07-29T23:11:13.823000Z</time>
      </trkpt>
      <trkpt lat="39.8725343" lon="116.6698516">
        <ele>21.75294</ele>
        <time>2026-07-29T23:11:17.805000Z</time>
      </trkpt>
      <trkpt lat="39.8725984" lon="116.669969">
        <ele>21.79869</ele>
        <time>2026-07-29T23:11:21.786000Z</time>
      </trkpt>
      <trkpt lat="39.8726847" lon="116.6700583">
        <ele>21.81684</ele>
        <time>2026-07-29T23:11:25.767000Z</time>
      </trkpt>
      <trkpt lat="39.8727866" lon="116.6701118">
        <ele>21.78062</ele>
        <time>2026-07-29T23:11:29.749000Z</time>
      </trkpt>
      <trkpt lat="39.8728972" lon="116.6701431">
        <ele>21.68162</ele>
        <time>2026-07-29T23:11:33.730000Z</time>
      </trkpt>
      <trkpt lat="39.8730054" lon="116.6701604">
        <ele>21.5398</ele>
        <time>2026-07-29T23:11:37.712000Z</time>
      </trkpt>
      <trkpt lat="39.8731191" lon="116.6701638">
        <ele>21.3709</ele>
        <time>2026-07-29T23:11:41.693000Z</time>
      </trkpt>
      <trkpt lat="39.8732313" lon="116.670154">
        <ele>21.19811</ele>
        <time>2026-07-29T23:11:45.675000Z</time>
      </trkpt>
      <trkpt lat="39.8733406" lon="116.6701223">
        <ele>21.04809</ele>
        <time>2026-07-29T23:11:49.656000Z</time>
      </trkpt>
      <trkpt lat="39.8734359" lon="116.6700539">
        <ele>20.93632</ele>
        <time>2026-07-29T23:11:53.638000Z</time>
      </trkpt>
      <trkpt lat="39.8735176" lon="116.6699672">
        <ele>20.88209</ele>
        <time>2026-07-29T23:11:57.619000Z</time>
      </trkpt>
      <trkpt lat="39.8736052" lon="116.669878">
        <ele>20.89089</ele>
        <time>2026-07-29T23:12:01.600000Z</time>
      </trkpt>
      <trkpt lat="39.8737043" lon="116.6698073">
        <ele>20.94131</ele>
        <time>2026-07-29T23:12:05.582000Z</time>
      </trkpt>
      <trkpt lat="39.8738114" lon="116.669781">
        <ele>21.0012</ele>
        <time>2026-07-29T23:12:09.563000Z</time>
      </trkpt>
      <trkpt lat="39.8739219" lon="116.6697938">
        <ele>21.05014</ele>
        <time>2026-07-29T23:12:13.545000Z</time>
      </trkpt>
      <trkpt lat="39.8740372" lon="116.6698228">
        <ele>21.06495</ele>
        <time>2026-07-29T23:12:17.526000Z</time>
      </trkpt>
      <trkpt lat="39.8741559" lon="116.6698292">
        <ele>21.06908</ele>
        <time>2026-07-29T23:12:21.508000Z</time>
      </trkpt>
      <trkpt lat="39.8742666" lon="116.669794">
        <ele>21.10444</ele>
        <time>2026-07-29T23:12:25.499000Z</time>
      </trkpt>
      <trkpt lat="39.8743595" lon="116.6697066">
        <ele>21.21621</ele>
        <time>2026-07-29T23:12:29.481000Z</time>
      </trkpt>
      <trkpt lat="39.8744378" lon="116.6695937">
        <ele>21.41183</ele>
        <time>2026-07-29T23:12:33.462000Z</time>
      </trkpt>
      <trkpt lat="39.8745282" lon="116.6694917">
        <ele>21.65925</ele>
        <time>2026-07-29T23:12:37.443000Z</time>
      </trkpt>
      <trkpt lat="39.8746158" lon="116.6694547">
        <ele>21.85461</ele>
        <time>2026-07-29T23:12:40.429000Z</time>
      </trkpt>
      <trkpt lat="39.8747068" lon="116.6694602">
        <ele>22.05526</ele>
        <time>2026-07-29T23:12:43.416000Z</time>
      </trkpt>
      <trkpt lat="39.874794" lon="116.6694977">
        <ele>22.25468</ele>
        <time>2026-07-29T23:12:46.402000Z</time>
      </trkpt>
      <trkpt lat="39.8748769" lon="116.6695554">
        <ele>22.44184</ele>
        <time>2026-07-29T23:12:49.388000Z</time>
      </trkpt>
      <trkpt lat="39.8749561" lon="116.6696174">
        <ele>22.59508</ele>
        <time>2026-07-29T23:12:52.374000Z</time>
      </trkpt>
      <trkpt lat="39.8750387" lon="116.6696658">
        <ele>22.69275</ele>
        <time>2026-07-29T23:12:55.360000Z</time>
      </trkpt>
      <trkpt lat="39.8751515" lon="116.6696611">
        <ele>22.73713</ele>
        <time>2026-07-29T23:12:59.341000Z</time>
      </trkpt>
      <trkpt lat="39.8752524" lon="116.6695855">
        <ele>22.74226</ele>
        <time>2026-07-29T23:13:03.323000Z</time>
      </trkpt>
      <trkpt lat="39.8753465" lon="116.6695235">
        <ele>22.79245</ele>
        <time>2026-07-29T23:13:07.309000Z</time>
      </trkpt>
    </trkseg>
  </trk>
</gpx>