<?xml version="1.0" encoding="UTF-8"?>
<gpx xmlns="http://www.topografix.com/GPX/1/1" xmlns:gpxtpx="http://www.garmin.com/xmlschemas/TrackPointExtension/v1" xmlns:xsi="http://www.w3.org/2001/XMLSchema-instance" xsi:schemaLocation="http://www.topografix.com/GPX/1/1 http://www.topografix.com/GPX/1/1/gpx.xsd" version="1.1" creator="gpx.py -- https://github.com/tkrajina/gpxpy">
  <trk>
    <name>gpx from codoon</name>
    <type>Run</type>
    <trkseg>
      <trkpt lat="39.8732787" lon="116.6658298">
        <ele>22.41001</ele>
        <time>2026-08-14T21:42:22.001000Z</time>
      </trkpt>
      <trkpt lat="39.873372" lon="116.665871">
        <ele>22.38019</ele>
        <time>2026-08-14T21:42:30.012000Z</time>
      </trkpt>
      <trkpt lat="39.8734636" lon="116.6658863">
        <ele>22.36905</ele>
        <time>2026-08-14T21:42:34.989000Z</time>
      </trkpt>
      <trkpt lat="39.8735572" lon="116.66587">
        <ele>22.34768</ele>
        <time>2026-08-14T21:42:39.966000Z</time>
      </trkpt>
      <trkpt lat="39.8736459" lon="116.6658146">
        <ele>22.36536</ele>
        <time>2026-08-14T21:42:44.942000Z</time>
      </trkpt>
      <trkpt lat="39.8737391" lon="116.6657458">
        <ele>22.4971</ele>
        <time>2026-08-14T21:42:49.919000Z</time>
      </trkpt>
      <trkpt lat="39.8738206" lon="116.6656873">
        <ele>22.69352</ele>
        <time>2026-08-14T21:42:53.900000Z</time>
      </trkpt>
      <trkpt lat="39.873904" lon="116.6656234">
        <ele>22.90957</ele>
        <time>2026-08-14T21:42:57.882000Z</time>
      </trkpt>
      <trkpt lat="39.8739832" lon="116.665564">
        <ele>23.08821</ele>
        <time>2026-08-14T21:43:01.863000Z</time>
      </trkpt>
      <trkpt lat="39.8740651" lon="116.6655092">
        <ele>23.25823</ele>
        <time>2026-08-14T21:43:05.845000Z</time>
      </trkpt>
      <trkpt lat="39.8741491" lon="116.6654538">
        <ele>23.42053</ele>
        <time>2026-08-14T21:43:09.826000Z</time>
      </trkpt>
      <trkpt lat="39.8742357" lon="116.665407">
        <ele>23.52435</ele>
        <time>2026-08-14T21:43:13.807000Z</time>
      </trkpt>
      <trkpt lat="39.874329" lon="116.6653753">
        <ele>23.56726</ele>
        <time>2026-08-14T21:43:17.789000Z</time>
      </trkpt>
      <trkpt lat="39.8744226" lon="116.6653834">
        <ele>23.5816</ele>
        <time>2026-08-14T21:43:21.770000Z</time>
      </trkpt>
      <trkpt lat="39.8744891" lon="116.6654697">
        <ele>23.54823</ele>
        <time>2026-08-14T21:43:25.751000Z</time>
      </trkpt>
      <trkpt lat="39.8745384" lon="116.6655843">
        <ele>23.43298</ele>
        <time>2026-08-14T21:43:29.733000Z</time>
      </trkpt>
      <trkpt lat="39.8745872" lon="116.665697">
        <ele>23.27568</ele>
        <time>2026-08-14T21:43:33.714000Z</time>
      </trkpt>
      <trkpt lat="39.8746377" lon="116.6658066">
        <ele>23.10989</ele>
        <time>2026-08-14T21:43:37.695000Z</time>
      </trkpt>
      <trkpt lat="39.8746871" lon="116.6659159">
        <ele>22.98821</ele>
        <time>2026-08-14T21:43:41.677000Z</time>
      </trkpt>
      <trkpt lat="39.8747342" lon="116.6660252">
        <ele>22.92865</ele>
        <time>2026-08-14T21:43:45.658000Z</time>
      </trkpt>
      <trkpt lat="39.8747773" lon="116.6661291">
        <ele>22.88663</ele>
        <time>2026-08-14T21:43:49.639000Z</time>
      </trkpt>
      <trkpt lat="39.8748189" lon="116.6662342">
        <ele>22.83251</ele>
        <time>2026-08-14T21:43:53.620000Z</time>
      </trkpt>
      <trkpt lat="39.8748748" lon="116.6663559">
        <ele>22.72906</ele>
        <time>2026-08-14T21:43:58.597000Z</time>
      </trkpt>
      <trkpt lat="39.8749344" lon="116.666473">
        <ele>22.63629</ele>
        <time>2026-08-14T21:44:03.574000Z</time>
      </trkpt>
      <trkpt lat="39.8749946" lon="116.666592">
        <ele>22.57739</ele>
        <time>2026-08-14T21:44:08.550000Z</time>
      </trkpt>
      <trkpt lat="39.8750501" lon="116.6667141">
        <ele>22.53084</ele>
        <time>2026-08-14T21:44:13.527000Z</time>
      </trkpt>
      <trkpt lat="39.8751174" lon="116.6668236">
        <ele>22.51094</ele>
        <time>2026-08-14T21:44:18.503000Z</time>
      </trkpt>
      <trkpt lat="39.8751887" lon="116.6669356">
        <ele>22.49518</ele>
        <time>2026-08-14T21:44:23.480000Z</time>
      </trkpt>
      <trkpt lat="39.8752646" lon="116.6670429">
        <ele>22.48641</ele>
        <time>2026-08-14T21:44:28.457000Z</time>
      </trkpt>
      <trkpt lat="39.8753434" lon="116.6671416">
        <ele>22.5924</ele>
        <time>2026-08-14T21:44:33.433000Z</time>
      </trkpt>
      <trkpt lat="39.8754261" lon="116.6672364">
        <ele>22.83392</ele>
        <time>2026-08-14T21:44:38.410000Z</time>
      </trkpt>
      <trkpt lat="39.8755057" lon="116.6673335">
        <ele>23.15254</ele>
        <time>2026-08-14T21:44:43.386000Z</time>
      </trkpt>
      <trkpt lat="39.8755847" lon="116.6674267">
        <ele>23.45685</ele>
        <time>2026-08-14T21:44:48.363000Z</time>
      </trkpt>
      <trkpt lat="39.8756614" lon="116.6675254">
        <ele>23.66923</ele>
        <time>2026-08-14T21:44:53.339000Z</time>
      </trkpt>
      <trkpt lat="39.8757315" lon="116.6676284">
        <ele>23.78467</ele>
        <time>2026-08-14T21:44:58.316000Z</time>
      </trkpt>
      <trkpt lat="39.8758015" lon="116.6677289">
        <ele>23.81844</ele>
        <time>2026-08-14T21:45:03.292000Z</time>
      </trkpt>
      <trkpt lat="39.8758714" lon="116.6678278">
        <ele>23.79246</ele>
        <time>2026-08-14T21:45:08.269000Z</time>
      </trkpt>
      <trkpt lat="39.8759459" lon="116.6679255">
        <ele>23.7343</ele>
        <time>2026-08-14T21:45:13.246000Z</time>
      </trkpt>
      <trkpt lat="39.8760199" lon="116.668027">
        <ele>23.64437</ele>
        <time>2026-08-14T21:45:18.222000Z</time>
      </trkpt>
      <trkpt lat="39.876098" lon="116.6681268">
        <ele>23.55909</ele>
        <time>2026-08-14T21:45:23.199000Z</time>
      </trkpt>
      <trkpt lat="39.8761767" lon="116.6682129">
        <ele>23.51357</ele>
        <time>2026-08-14T21:45:28Z</time>
      </trkpt>
      <trkpt lat="39.8762644" lon="116.6682948">
        <ele>23.48501</ele>
        <time>2026-08-14T21:45:33Z</time>
      </trkpt>
      <trkpt lat="39.8763496" lon="116.6683826">
        <ele>23.45121</ele>
        <time>2026-08-14T21:45:38Z</time>
      </trkpt>
      <trkpt lat="39.8764258" lon="116.6684807">
        <ele>23.43015</ele>
        <time>2026-08-14T21:45:43Z</time>
      </trkpt>
      <trkpt lat="39.8765002" lon="116.6685827">
        <ele>23.41564</ele>
        <time>2026-08-14T21:45:48Z</time>
      </trkpt>
      <trkpt lat="39.8765624" lon="116.6686683">
        <ele>23.38828</ele>
        <time>2026-08-14T21:45:52Z</time>
      </trkpt>
      <trkpt lat="39.8766303" lon="116.6687494">
        <ele>23.36281</ele>
        <time>2026-08-14T21:45:56Z</time>
      </trkpt>
      <trkpt lat="39.8767129" lon="116.6688463">
        <ele>23.35761</ele>
        <time>2026-08-14T21:46:01Z</time>
      </trkpt>
      <trkpt lat="39.8767773" lon="116.668928">
        <ele>23.47968</ele>
        <time>2026-08-14T21:46:05Z</time>
      </trkpt>
      <trkpt lat="39.8768567" lon="116.6690302">
        <ele>23.79893</ele>
        <time>2026-08-14T21:46:09.978000Z</time>
      </trkpt>
      <trkpt lat="39.8769169" lon="116.6691198">
        <ele>23.99828</ele>
        <time>2026-08-14T21:46:13.959000Z</time>
      </trkpt>
      <trkpt lat="39.8769757" lon="116.669213">
        <ele>24.10626</ele>
        <time>2026-08-14T21:46:17.940000Z</time>
      </trkpt>
      <trkpt lat="39.8770289" lon="116.6693135">
        <ele>24.14565</ele>
        <time>2026-08-14T21:46:21.921000Z</time>
      </trkpt>
      <trkpt lat="39.877063" lon="116.6694281">
        <ele>24.1432</ele>
        <time>2026-08-14T21:46:25.902000Z</time>
      </trkpt>
      <trkpt lat="39.8770659" lon="116.6695487">
        <ele>24.12733</ele>
        <time>2026-08-14T21:46:29.883000Z</time>
      </trkpt>
      <trkpt lat="39.8770276" lon="116.6696577">
        <ele>24.1059</ele>
        <time>2026-08-14T21:46:33.865000Z</time>
      </trkpt>
      <trkpt lat="39.8769493" lon="116.669762">
        <ele>24.05291</ele>
        <time>2026-08-14T21:46:38.841000Z</time>
      </trkpt>
      <trkpt lat="39.8768705" lon="116.6698581">
        <ele>24.01265</ele>
        <time>2026-08-14T21:46:43.818000Z</time>
      </trkpt>
      <trkpt lat="39.8767944" lon="116.6699598">
        <ele>23.98552</ele>
        <time>2026-08-14T21:46:48.794000Z</time>
      </trkpt>
      <trkpt lat="39.8767223" lon="116.670064">
        <ele>23.95957</ele>
        <time>2026-08-14T21:46:53.770000Z</time>
      </trkpt>
      <trkpt lat="39.8766505" lon="116.6701694">
        <ele>23.93952</ele>
        <time>2026-08-14T21:46:58.747000Z</time>
      </trkpt>
      <trkpt lat="39.8765787" lon="116.6702722">
        <ele>23.93578</ele>
        <time>2026-08-14T21:47:03.723000Z</time>
      </trkpt>
      <trkpt lat="39.8765013" lon="116.6703763">
        <ele>23.96066</ele>
        <time>2026-08-14T21:47:08.700000Z</time>
      </trkpt>
      <trkpt lat="39.8764379" lon="116.6704596">
        <ele>23.98591</ele>
        <time>2026-08-14T21:47:12.681000Z</time>
      </trkpt>
      <trkpt lat="39.8763603" lon="116.6705592">
        <ele>24.0131</ele>
        <time>2026-08-14T21:47:17.657000Z</time>
      </trkpt>
      <trkpt lat="39.8762778" lon="116.6706529">
        <ele>24.0648</ele>
        <time>2026-08-14T21:47:22.634000Z</time>
      </trkpt>
      <trkpt lat="39.8761893" lon="116.6707393">
        <ele>24.10042</ele>
        <time>2026-08-14T21:47:27.610000Z</time>
      </trkpt>
      <trkpt lat="39.876103" lon="116.6708306">
        <ele>24.12157</ele>
        <time>2026-08-14T21:47:32.587000Z</time>
      </trkpt>
      <trkpt lat="39.8760214" lon="116.6709205">
        <ele>24.15031</ele>
        <time>2026-08-14T21:47:37.563000Z</time>
      </trkpt>
      <trkpt lat="39.8759412" lon="116.6710115">
        <ele>24.18041</ele>
        <time>2026-08-14T21:47:42.540000Z</time>
      </trkpt>
      <trkpt lat="39.8758655" lon="116.6711031">
        <ele>24.22269</ele>
        <time>2026-08-14T21:47:47.516000Z</time>
      </trkpt>
      <trkpt lat="39.8757905" lon="116.671194">
        <ele>24.30374</ele>
        <time>2026-08-14T21:47:52.492000Z</time>
      </trkpt>
      <trkpt lat="39.8757185" lon="116.6712875">
        <ele>24.35904</ele>
        <time>2026-08-14T21:47:57.469000Z</time>
      </trkpt>
      <trkpt lat="39.8756492" lon="116.6713872">
        <ele>24.3503</ele>
        <time>2026-08-14T21:48:02.445000Z</time>
      </trkpt>
      <trkpt lat="39.8755752" lon="116.6714866">
        <ele>24.29965</ele>
        <time>2026-08-14T21:48:07.422000Z</time>
      </trkpt>
      <trkpt lat="39.8754992" lon="116.6715831">
        <ele>24.22794</ele>
        <time>2026-08-14T21:48:12.398000Z</time>
      </trkpt>
      <trkpt lat="39.8754369" lon="116.6716814">
        <ele>24.14769</ele>
        <time>2026-08-14T21:48:17.374000Z</time>
      </trkpt>
      <trkpt lat="39.8753634" lon="116.671771">
        <ele>24.13544</ele>
        <time>2026-08-14T21:48:22.351000Z</time>
      </trkpt>
      <trkpt lat="39.8752823" lon="116.6718601">
        <ele>24.18487</ele>
        <time>2026-08-14T21:48:27.327000Z</time>
      </trkpt>
      <trkpt lat="39.8752031" lon="116.6719471">
        <ele>24.22124</ele>
        <time>2026-08-14T21:48:32.304000Z</time>
      </trkpt>
      <trkpt lat="39.87513" lon="116.6720496">
        <ele>24.21742</ele>
        <time>2026-08-14T21:48:37.280000Z</time>
      </trkpt>
      <trkpt lat="39.8750615" lon="116.6721533">
        <ele>24.14846</ele>
        <time>2026-08-14T21:48:42.257000Z</time>
      </trkpt>
      <trkpt lat="39.8749831" lon="116.6722467">
        <ele>24.06259</ele>
        <time>2026-08-14T21:48:47.233000Z</time>
      </trkpt>
      <trkpt lat="39.8749072" lon="116.6723342">
        <ele>24.01815</ele>
        <time>2026-08-14T21:48:52.209000Z</time>
      </trkpt>
      <trkpt lat="39.8748341" lon="116.6724291">
        <ele>24.02836</ele>
        <time>2026-08-14T21:48:57Z</time>
      </trkpt>
      <trkpt lat="39.8747604" lon="116.6725274">
        <ele>24.05558</ele>
        <time>2026-08-14T21:49:02Z</time>
      </trkpt>
      <trkpt lat="39.8746878" lon="116.6726286">
        <ele>24.09896</ele>
        <time>2026-08-14T21:49:07Z</time>
      </trkpt>
      <trkpt lat="39.8746113" lon="116.6727347">
        <ele>24.10056</ele>
        <time>2026-08-14T21:49:12Z</time>
      </trkpt>
      <trkpt lat="39.8745356" lon="116.6728393">
        <ele>24.06641</ele>
        <time>2026-08-14T21:49:17Z</time>
      </trkpt>
      <trkpt lat="39.874457" lon="116.6729369">
        <ele>24.01681</ele>
        <time>2026-08-14T21:49:22Z</time>
      </trkpt>
      <trkpt lat="39.8743778" lon="116.6730281">
        <ele>23.97471</ele>
        <time>2026-08-14T21:49:27Z</time>
      </trkpt>
      <trkpt lat="39.8742994" lon="116.67312">
        <ele>24.00338</ele>
        <time>2026-08-14T21:49:32Z</time>
      </trkpt>
      <trkpt lat="39.8742194" lon="116.673212">
        <ele>24.29685</ele>
        <time>2026-08-14T21:49:36.997000Z</time>
      </trkpt>
      <trkpt lat="39.8741425" lon="116.6732979">
        <ele>24.7528</ele>
        <time>2026-08-14T21:49:41.974000Z</time>
      </trkpt>
      <trkpt lat="39.8740675" lon="116.6733848">
        <ele>25.0807</ele>
        <time>2026-08-14T21:49:46.950000Z</time>
      </trkpt>
      <trkpt lat="39.8739964" lon="116.673481">
        <ele>25.24654</ele>
        <time>2026-08-14T21:49:51.926000Z</time>
      </trkpt>
      <trkpt lat="39.8739242" lon="116.6735746">
        <ele>25.30237</ele>
        <time>2026-08-14T21:49:56.903000Z</time>
      </trkpt>
      <trkpt lat="39.873845" lon="116.6736693">
        <ele>25.26869</ele>
        <time>2026-08-14T21:50:01.879000Z</time>
      </trkpt>
      <trkpt lat="39.8737551" lon="116.6737553">
        <ele>25.15875</ele>
        <time>2026-08-14T21:50:06.855000Z</time>
      </trkpt>
      <trkpt lat="39.8736651" lon="116.6738404">
        <ele>25.02838</ele>
        <time>2026-08-14T21:50:11.832000Z</time>
      </trkpt>
      <trkpt lat="39.8735956" lon="116.6739187">
        <ele>24.96116</ele>
        <time>2026-08-14T21:50:15.813000Z</time>
      </trkpt>
      <trkpt lat="39.8735303" lon="116.6739994">
        <ele>24.93317</ele>
        <time>2026-08-14T21:50:19.794000Z</time>
      </trkpt>
      <trkpt lat="39.8734542" lon="116.6741015">
        <ele>24.92605</ele>
        <time>2026-08-14T21:50:24.770000Z</time>
      </trkpt>
      <trkpt lat="39.8733798" lon="116.6742051">
        <ele>24.93115</ele>
        <time>2026-08-14T21:50:29.747000Z</time>
      </trkpt>
      <trkpt lat="39.8733044" lon="116.6743034">
        <ele>25.01277</ele>
        <time>2026-08-14T21:50:34.723000Z</time>
      </trkpt>
      <trkpt lat="39.8732309" lon="116.6744079">
        <ele>25.11098</ele>
        <time>2026-08-14T21:50:39.700000Z</time>
      </trkpt>
      <trkpt lat="39.8731527" lon="116.6745075">
        <ele>25.11642</ele>
        <time>2026-08-14T21:50:44.676000Z</time>
      </trkpt>
      <trkpt lat="39.8730775" lon="116.674606">
        <ele>24.99758</ele>
        <time>2026-08-14T21:50:49.652000Z</time>
      </trkpt>
      <trkpt lat="39.8730051" lon="116.6747063">
        <ele>24.82178</ele>
        <time>2026-08-14T21:50:54.629000Z</time>
      </trkpt>
      <trkpt lat="39.8729312" lon="116.6748099">
        <ele>24.61746</ele>
        <time>2026-08-14T21:50:59.605000Z</time>
      </trkpt>
      <trkpt lat="39.872856" lon="116.6749161">
        <ele>24.40322</ele>
        <time>2026-08-14T21:51:04.581000Z</time>
      </trkpt>
      <trkpt lat="39.8727859" lon="116.6750262">
        <ele>24.19403</ele>
        <time>2026-08-14T21:51:09.558000Z</time>
      </trkpt>
      <trkpt lat="39.872723" lon="116.6751412">
        <ele>24.02055</ele>
        <time>2026-08-14T21:51:14.534000Z</time>
      </trkpt>
      <trkpt lat="39.8726587" lon="116.6752562">
        <ele>23.90331</ele>
        <time>2026-08-14T21:51:19.510000Z</time>
      </trkpt>
      <trkpt lat="39.8725985" lon="116.6753769">
        <ele>23.83565</ele>
        <time>2026-08-14T21:51:24.487000Z</time>
      </trkpt>
      <trkpt lat="39.8725332" lon="116.6754931">
        <ele>23.83003</ele>
        <time>2026-08-14T21:51:29.463000Z</time>
      </trkpt>
      <trkpt lat="39.872466" lon="116.6756059">
        <ele>23.90077</ele>
        <time>2026-08-14T21:51:34.440000Z</time>
      </trkpt>
      <trkpt lat="39.8723989" lon="116.6757218">
        <ele>24.02207</ele>
        <time>2026-08-14T21:51:39.416000Z</time>
      </trkpt>
      <trkpt lat="39.8723391" lon="116.6758432">
        <ele>24.18914</ele>
        <time>2026-08-14T21:51:44.392000Z</time>
      </trkpt>
      <trkpt lat="39.8722945" lon="116.6759462">
        <ele>24.32704</ele>
        <time>2026-08-14T21:51:48.373000Z</time>
      </trkpt>
      <trkpt lat="39.8722502" lon="116.6760496">
        <ele>24.40464</ele>
        <time>2026-08-14T21:51:52.354000Z</time>
      </trkpt>
      <trkpt lat="39.8722071" lon="116.6761526">
        <ele>24.39974</ele>
        <time>2026-08-14T21:51:56.335000Z</time>
      </trkpt>
      <trkpt lat="39.8721593" lon="116.6762517">
        <ele>24.32952</ele>
        <time>2026-08-14T21:52:00.317000Z</time>
      </trkpt>
      <trkpt lat="39.8720992" lon="116.6763723">
        <ele>24.22045</ele>
        <time>2026-08-14T21:52:05.293000Z</time>
      </trkpt>
      <trkpt lat="39.8720509" lon="116.676471">
        <ele>24.15391</ele>
        <time>2026-08-14T21:52:09.274000Z</time>
      </trkpt>
      <trkpt lat="39.871995" lon="116.6765939">
        <ele>24.08156</ele>
        <time>2026-08-14T21:52:14.250000Z</time>
      </trkpt>
      <trkpt lat="39.8719398" lon="116.6767138">
        <ele>23.98743</ele>
        <time>2026-08-14T21:52:19.227000Z</time>
      </trkpt>
      <trkpt lat="39.8718874" lon="116.6768363">
        <ele>23.87452</ele>
        <time>2026-08-14T21:52:24.203000Z</time>
      </trkpt>
      <trkpt lat="39.8718364" lon="116.6769537">
        <ele>23.78313</ele>
        <time>2026-08-14T21:52:29Z</time>
      </trkpt>
      <trkpt lat="39.8717893" lon="116.6770764">
        <ele>23.74748</ele>
        <time>2026-08-14T21:52:34Z</time>
      </trkpt>
      <trkpt lat="39.8717445" lon="116.6772005">
        <ele>23.76026</ele>
        <time>2026-08-14T21:52:39Z</time>
      </trkpt>
      <trkpt lat="39.8717038" lon="116.6773259">
        <ele>23.79533</ele>
        <time>2026-08-14T21:52:44Z</time>
      </trkpt>
      <trkpt lat="39.8716594" lon="116.6774544">
        <ele>23.82325</ele>
        <time>2026-08-14T21:52:49Z</time>
      </trkpt>
      <trkpt lat="39.8716153" lon="116.6775857">
        <ele>23.81936</ele>
        <time>2026-08-14T21:52:54Z</time>
      </trkpt>
      <trkpt lat="39.8715812" lon="116.6776939">
        <ele>23.76522</ele>
        <time>2026-08-14T21:52:58Z</time>
      </trkpt>
      <trkpt lat="39.8715407" lon="116.6778279">
        <ele>23.66655</ele>
        <time>2026-08-14T21:53:03Z</time>
      </trkpt>
      <trkpt lat="39.8714977" lon="116.6779558">
        <ele>23.57098</ele>
        <time>2026-08-14T21:53:07.995000Z</time>
      </trkpt>
      <trkpt lat="39.8714633" lon="116.6780811">
        <ele>23.54656</ele>
        <time>2026-08-14T21:53:12.971000Z</time>
      </trkpt>
      <trkpt lat="39.871431" lon="116.6782073">
        <ele>23.63253</ele>
        <time>2026-08-14T21:53:17.947000Z</time>
      </trkpt>
      <trkpt lat="39.8714018" lon="116.6783401">
        <ele>23.76213</ele>
        <time>2026-08-14T21:53:22.924000Z</time>
      </trkpt>
      <trkpt lat="39.8713703" lon="116.6784721">
        <ele>23.90639</ele>
        <time>2026-08-14T21:53:27.900000Z</time>
      </trkpt>
      <trkpt lat="39.8713383" lon="116.6786052">
        <ele>24.01257</ele>
        <time>2026-08-14T21:53:32.876000Z</time>
      </trkpt>
      <trkpt lat="39.8713058" lon="116.678734">
        <ele>24.02841</ele>
        <time>2026-08-14T21:53:37.853000Z</time>
      </trkpt>
      <trkpt lat="39.8712857" lon="116.6788651">
        <ele>23.96685</ele>
        <time>2026-08-14T21:53:42.829000Z</time>
      </trkpt>
      <trkpt lat="39.8712589" lon="116.6789911">
        <ele>23.90962</ele>
        <time>2026-08-14T21:53:47.805000Z</time>
      </trkpt>
      <trkpt lat="39.8712277" lon="116.6791159">
        <ele>23.92308</ele>
        <time>2026-08-14T21:53:52.782000Z</time>
      </trkpt>
      <trkpt lat="39.8711898" lon="116.6792415">
        <ele>24.0338</ele>
        <time>2026-08-14T21:53:57.758000Z</time>
      </trkpt>
      <trkpt lat="39.8711647" lon="116.6793665">
        <ele>24.18867</ele>
        <time>2026-08-14T21:54:02.734000Z</time>
      </trkpt>
      <trkpt lat="39.8711355" lon="116.6794935">
        <ele>24.2873</ele>
        <time>2026-08-14T21:54:07.711000Z</time>
      </trkpt>
      <trkpt lat="39.8710983" lon="116.6796202">
        <ele>24.29306</ele>
        <time>2026-08-14T21:54:12.687000Z</time>
      </trkpt>
      <trkpt lat="39.8710553" lon="116.6797439">
        <ele>24.27149</ele>
        <time>2026-08-14T21:54:17.663000Z</time>
      </trkpt>
      <trkpt lat="39.8710158" lon="116.6798699">
        <ele>24.24397</ele>
        <time>2026-08-14T21:54:22.640000Z</time>
      </trkpt>
      <trkpt lat="39.8709736" lon="116.6799981">
        <ele>24.20638</ele>
        <time>2026-08-14T21:54:27.616000Z</time>
      </trkpt>
      <trkpt lat="39.8709338" lon="116.6801306">
        <ele>24.20717</ele>
        <time>2026-08-14T21:54:32.592000Z</time>
      </trkpt>
      <trkpt lat="39.8708949" lon="116.6802638">
        <ele>24.24719</ele>
        <time>2026-08-14T21:54:37.569000Z</time>
      </trkpt>
      <trkpt lat="39.8708538" lon="116.6803945">
        <ele>24.23195</ele>
        <time>2026-08-14T21:54:42.545000Z</time>
      </trkpt>
      <trkpt lat="39.8708153" lon="116.6805207">
        <ele>24.16176</ele>
        <time>2026-08-14T21:54:47.521000Z</time>
      </trkpt>
      <trkpt lat="39.8707815" lon="116.6806491">
        <ele>24.081</ele>
        <time>2026-08-14T21:54:52.498000Z</time>
      </trkpt>
      <trkpt lat="39.8707579" lon="116.6807823">
        <ele>24.04417</ele>
        <time>2026-08-14T21:54:57.474000Z</time>
      </trkpt>
      <trkpt lat="39.8707254" lon="116.6809125">
        <ele>24.07908</ele>
        <time>2026-08-14T21:55:02.450000Z</time>
      </trkpt>
      <trkpt lat="39.8706902" lon="116.6810458">
        <ele>24.13309</ele>
        <time>2026-08-14T21:55:07.427000Z</time>
      </trkpt>
      <trkpt lat="39.8706598" lon="116.6811777">
        <ele>24.15691</ele>
        <time>2026-08-14T21:55:12.403000Z</time>
      </trkpt>
      <trkpt lat="39.8706304" lon="116.6813101">
        <ele>24.16583</ele>
        <time>2026-08-14T21:55:17.379000Z</time>
      </trkpt>
      <trkpt lat="39.8706034" lon="116.6814454">
        <ele>24.15982</ele>
        <time>2026-08-14T21:55:22.356000Z</time>
      </trkpt>
      <trkpt lat="39.8705709" lon="116.681582">
        <ele>24.09528</ele>
        <time>2026-08-14T21:55:27.332000Z</time>
      </trkpt>
      <trkpt lat="39.8705402" lon="116.6816948">
        <ele>24.00199</ele>
        <time>2026-08-14T21:55:31.313000Z</time>
      </trkpt>
      <trkpt lat="39.8705072" lon="116.6818064">
        <ele>23.87808</ele>
        <time>2026-08-14T21:55:35.294000Z</time>
      </trkpt>
      <trkpt lat="39.8704642" lon="116.6819386">
        <ele>23.68295</ele>
        <time>2026-08-14T21:55:40.271000Z</time>
      </trkpt>
      <trkpt lat="39.870423" lon="116.6820676">
        <ele>23.43773</ele>
        <time>2026-08-14T21:55:45.247000Z</time>
      </trkpt>
      <trkpt lat="39.8703803" lon="116.6821903">
        <ele>23.16072</ele>
        <time>2026-08-14T21:55:50.223000Z</time>
      </trkpt>
      <trkpt lat="39.8703395" lon="116.6823162">
        <ele>22.93364</ele>
        <time>2026-08-14T21:55:55.200000Z</time>
      </trkpt>
      <trkpt lat="39.8703052" lon="116.6824415">
        <ele>22.86736</ele>
        <time>2026-08-14T21:56:00Z</time>
      </trkpt>
      <trkpt lat="39.8702739" lon="116.6825698">
        <ele>22.89065</ele>
        <time>2026-08-14T21:56:05Z</time>
      </trkpt>
      <trkpt lat="39.8702476" lon="116.682699">
        <ele>22.86431</ele>
        <time>2026-08-14T21:56:10Z</time>
      </trkpt>
      <trkpt lat="39.8702241" lon="116.6828319">
        <ele>22.79575</ele>
        <time>2026-08-14T21:56:15Z</time>
      </trkpt>
      <trkpt lat="39.870197" lon="116.6829647">
        <ele>22.69888</ele>
        <time>2026-08-14T21:56:20Z</time>
      </trkpt>
      <trkpt lat="39.8701618" lon="116.6830981">
        <ele>22.64767</ele>
        <time>2026-08-14T21:56:25Z</time>
      </trkpt>
      <trkpt lat="39.8701258" lon="116.6832333">
        <ele>22.60496</ele>
        <time>2026-08-14T21:56:30Z</time>
      </trkpt>
      <trkpt lat="39.8700914" lon="116.6833669">
        <ele>22.52312</ele>
        <time>2026-08-14T21:56:35Z</time>
      </trkpt>
      <trkpt lat="39.8700609" lon="116.683499">
        <ele>22.4046</ele>
        <time>2026-08-14T21:56:39.987000Z</time>
      </trkpt>
      <trkpt lat="39.8700343" lon="116.6836302">
        <ele>22.33216</ele>
        <time>2026-08-14T21:56:44.963000Z</time>
      </trkpt>
      <trkpt lat="39.8699963" lon="116.6837616">
        <ele>22.33631</ele>
        <time>2026-08-14T21:56:49.940000Z</time>
      </trkpt>
      <trkpt lat="39.8699574" lon="116.6838947">
        <ele>22.39016</ele>
        <time>2026-08-14T21:56:54.916000Z</time>
      </trkpt>
      <trkpt lat="39.8699146" lon="116.684026">
        <ele>22.45154</ele>
        <time>2026-08-14T21:56:59.892000Z</time>
      </trkpt>
      <trkpt lat="39.8698778" lon="116.6841592">
        <ele>22.48136</ele>
        <time>2026-08-14T21:57:04.869000Z</time>
      </trkpt>
      <trkpt lat="39.8698428" lon="116.6842901">
        <ele>22.4756</ele>
        <time>2026-08-14T21:57:09.845000Z</time>
      </trkpt>
      <trkpt lat="39.8698115" lon="116.6844225">
        <ele>22.45079</ele>
        <time>2026-08-14T21:57:14.822000Z</time>
      </trkpt>
      <trkpt lat="39.8697788" lon="116.6845554">
        <ele>22.40747</ele>
        <time>2026-08-14T21:57:19.798000Z</time>
      </trkpt>
      <trkpt lat="39.8697456" lon="116.6846855">
        <ele>22.34988</ele>
        <time>2026-08-14T21:57:24.774000Z</time>
      </trkpt>
      <trkpt lat="39.8697126" lon="116.6848082">
        <ele>22.30338</ele>
        <time>2026-08-14T21:57:29.751000Z</time>
      </trkpt>
      <trkpt lat="39.8696835" lon="116.6849375">
        <ele>22.29585</ele>
        <time>2026-08-14T21:57:34.727000Z</time>
      </trkpt>
      <trkpt lat="39.8696519" lon="116.6850695">
        <ele>22.29913</ele>
        <time>2026-08-14T21:57:39.703000Z</time>
      </trkpt>
      <trkpt lat="39.8696176" lon="116.6851989">
        <ele>22.30096</ele>
        <time>2026-08-14T21:57:44.680000Z</time>
      </trkpt>
      <trkpt lat="39.8695863" lon="116.6853289">
        <ele>22.3209</ele>
        <time>2026-08-14T21:57:49.656000Z</time>
      </trkpt>
      <trkpt lat="39.8695565" lon="116.6854601">
        <ele>22.3769</ele>
        <time>2026-08-14T21:57:54.633000Z</time>
      </trkpt>
      <trkpt lat="39.8695212" lon="116.6855913">
        <ele>22.41291</ele>
        <time>2026-08-14T21:57:59.609000Z</time>
      </trkpt>
      <trkpt lat="39.8694831" lon="116.6857182">
        <ele>22.36256</ele>
        <time>2026-08-14T21:58:04.585000Z</time>
      </trkpt>
      <trkpt lat="39.8694474" lon="116.6858454">
        <ele>22.28485</ele>
        <time>2026-08-14T21:58:09.562000Z</time>
      </trkpt>
      <trkpt lat="39.8694118" lon="116.6859721">
        <ele>22.23793</ele>
        <time>2026-08-14T21:58:14.538000Z</time>
      </trkpt>
      <trkpt lat="39.8693756" lon="116.6860954">
        <ele>22.23249</ele>
        <time>2026-08-14T21:58:19.515000Z</time>
      </trkpt>
      <trkpt lat="39.8693454" lon="116.6862226">
        <ele>22.24094</ele>
        <time>2026-08-14T21:58:24.491000Z</time>
      </trkpt>
      <trkpt lat="39.869314" lon="116.6863591">
        <ele>22.2539</ele>
        <time>2026-08-14T21:58:29.467000Z</time>
      </trkpt>
      <trkpt lat="39.8692813" lon="116.6864934">
        <ele>22.26076</ele>
        <time>2026-08-14T21:58:34.444000Z</time>
      </trkpt>
      <trkpt lat="39.8692547" lon="116.6866055">
        <ele>22.25874</ele>
        <time>2026-08-14T21:58:38.425000Z</time>
      </trkpt>
      <trkpt lat="39.869219" lon="116.6867428">
        <ele>22.21986</ele>
        <time>2026-08-14T21:58:43.401000Z</time>
      </trkpt>
      <trkpt lat="39.8691828" lon="116.6868744">
        <ele>22.19428</ele>
        <time>2026-08-14T21:58:48.378000Z</time>
      </trkpt>
      <trkpt lat="39.8691478" lon="116.6870029">
        <ele>22.23757</ele>
        <time>2026-08-14T21:58:53.354000Z</time>
      </trkpt>
      <trkpt lat="39.8691159" lon="116.6871368">
        <ele>22.33083</ele>
        <time>2026-08-14T21:58:58.330000Z</time>
      </trkpt>
      <trkpt lat="39.869083" lon="116.6872724">
        <ele>22.42471</ele>
        <time>2026-08-14T21:59:03.307000Z</time>
      </trkpt>
      <trkpt lat="39.8690471" lon="116.6874035">
        <ele>22.47761</ele>
        <time>2026-08-14T21:59:08.283000Z</time>
      </trkpt>
      <trkpt lat="39.8690077" lon="116.6875353">
        <ele>22.52701</ele>
        <time>2026-08-14T21:59:13.260000Z</time>
      </trkpt>
      <trkpt lat="39.8689772" lon="116.6876658">
        <ele>22.58162</ele>
        <time>2026-08-14T21:59:18.236000Z</time>
      </trkpt>
      <trkpt lat="39.868943" lon="116.6877937">
        <ele>22.65246</ele>
        <time>2026-08-14T21:59:23.213000Z</time>
      </trkpt>
      <trkpt lat="39.8689112" lon="116.687919">
        <ele>22.75594</ele>
        <time>2026-08-14T21:59:28Z</time>
      </trkpt>
      <trkpt lat="39.8688755" lon="116.6880476">
        <ele>22.8428</ele>
        <time>2026-08-14T21:59:33Z</time>
      </trkpt>
      <trkpt lat="39.8688371" lon="116.6881747">
        <ele>22.87131</ele>
        <time>2026-08-14T21:59:38Z</time>
      </trkpt>
      <trkpt lat="39.8687987" lon="116.6883004">
        <ele>22.88544</ele>
        <time>2026-08-14T21:59:43Z</time>
      </trkpt>
      <trkpt lat="39.8687608" lon="116.6884275">
        <ele>22.9226</ele>
        <time>2026-08-14T21:59:48Z</time>
      </trkpt>
      <trkpt lat="39.8687322" lon="116.6885555">
        <ele>22.98046</ele>
        <time>2026-08-14T21:59:53Z</time>
      </trkpt>
      <trkpt lat="39.8687007" lon="116.6886808">
        <ele>23.00807</ele>
        <time>2026-08-14T21:59:58Z</time>
      </trkpt>
      <trkpt lat="39.8686576" lon="116.6888024">
        <ele>22.99925</ele>
        <time>2026-08-14T22:00:03Z</time>
      </trkpt>
      <trkpt lat="39.8685775" lon="116.6888942">
        <ele>22.94542</ele>
        <time>2026-08-14T22:00:08Z</time>
      </trkpt>
      <trkpt lat="39.8684882" lon="116.6889201">
        <ele>22.80388</ele>
        <time>2026-08-14T22:00:11.981000Z</time>
      </trkpt>
      <trkpt lat="39.868395" lon="116.6889109">
        <ele>22.69</ele>
        <time>2026-08-14T22:00:15.963000Z</time>
      </trkpt>
      <trkpt lat="39.8682835" lon="116.6888936">
        <ele>22.64045</ele>
        <time>2026-08-14T22:00:20.939000Z</time>
      </trkpt>
      <trkpt lat="39.8681938" lon="116.6888838">
        <ele>22.63843</ele>
        <time>2026-08-14T22:00:24.920000Z</time>
      </trkpt>
      <trkpt lat="39.8681033" lon="116.6888759">
        <ele>22.6153</ele>
        <time>2026-08-14T22:00:28.901000Z</time>
      </trkpt>
      <trkpt lat="39.8680131" lon="116.6888702">
        <ele>22.55464</ele>
        <time>2026-08-14T22:00:32.882000Z</time>
      </trkpt>
      <trkpt lat="39.8679022" lon="116.6888732">
        <ele>22.43261</ele>
        <time>2026-08-14T22:00:37.859000Z</time>
      </trkpt>
      <trkpt lat="39.8677921" lon="116.6888807">
        <ele>22.25925</ele>
        <time>2026-08-14T22:00:42.835000Z</time>
      </trkpt>
      <trkpt lat="39.8676845" lon="116.6888925">
        <ele>22.09274</ele>
        <time>2026-08-14T22:00:47.812000Z</time>
      </trkpt>
      <trkpt lat="39.8675769" lon="116.6889028">
        <ele>21.97743</ele>
        <time>2026-08-14T22:00:52.788000Z</time>
      </trkpt>
      <trkpt lat="39.8674713" lon="116.6889232">
        <ele>21.86737</ele>
        <time>2026-08-14T22:00:57.764000Z</time>
      </trkpt>
      <trkpt lat="39.8673664" lon="116.6889441">
        <ele>21.76809</ele>
        <time>2026-08-14T22:01:02.741000Z</time>
      </trkpt>
      <trkpt lat="39.8672615" lon="116.6889735">
        <ele>21.75148</ele>
        <time>2026-08-14T22:01:07.717000Z</time>
      </trkpt>
      <trkpt lat="39.8671537" lon="116.689013">
        <ele>21.80655</ele>
        <time>2026-08-14T22:01:12.694000Z</time>
      </trkpt>
      <trkpt lat="39.8670505" lon="116.68906">
        <ele>21.88103</ele>
        <time>2026-08-14T22:01:17.670000Z</time>
      </trkpt>
      <trkpt lat="39.8669452" lon="116.6890981">
        <ele>21.93879</ele>
        <time>2026-08-14T22:01:22.646000Z</time>
      </trkpt>
      <trkpt lat="39.8668411" lon="116.6891358">
        <ele>21.98153</ele>
        <time>2026-08-14T22:01:27.623000Z</time>
      </trkpt>
      <trkpt lat="39.8667367" lon="116.6891695">
        <ele>22.01858</ele>
        <time>2026-08-14T22:01:32.599000Z</time>
      </trkpt>
      <trkpt lat="39.8666357" lon="116.689204">
        <ele>22.04154</ele>
        <time>2026-08-14T22:01:37.576000Z</time>
      </trkpt>
      <trkpt lat="39.8665306" lon="116.6892528">
        <ele>22.05577</ele>
        <time>2026-08-14T22:01:42.552000Z</time>
      </trkpt>
      <trkpt lat="39.866442" lon="116.6892937">
        <ele>22.06203</ele>
        <time>2026-08-14T22:01:46.533000Z</time>
      </trkpt>
      <trkpt lat="39.8663562" lon="116.6893321">
        <ele>22.05539</ele>
        <time>2026-08-14T22:01:50.515000Z</time>
      </trkpt>
      <trkpt lat="39.8662699" lon="116.689371">
        <ele>22.02482</ele>
        <time>2026-08-14T22:01:54.496000Z</time>
      </trkpt>
      <trkpt lat="39.8661646" lon="116.6894167">
        <ele>21.98275</ele>
        <time>2026-08-14T22:01:59.472000Z</time>
      </trkpt>
      <trkpt lat="39.8660593" lon="116.6894636">
        <ele>21.97894</ele>
        <time>2026-08-14T22:02:04.449000Z</time>
      </trkpt>
      <trkpt lat="39.865975" lon="116.6895062">
        <ele>22.00787</ele>
        <time>2026-08-14T22:02:08.430000Z</time>
      </trkpt>
      <trkpt lat="39.8658891" lon="116.689547">
        <ele>22.043</ele>
        <time>2026-08-14T22:02:12.411000Z</time>
      </trkpt>
      <trkpt lat="39.8658013" lon="116.6895804">
        <ele>22.07386</ele>
        <time>2026-08-14T22:02:16.392000Z</time>
      </trkpt>
      <trkpt lat="39.8657132" lon="116.689614">
        <ele>22.08487</ele>
        <time>2026-08-14T22:02:20.373000Z</time>
      </trkpt>
      <trkpt lat="39.865627" lon="116.6896499">
        <ele>22.06289</ele>
        <time>2026-08-14T22:02:24.354000Z</time>
      </trkpt>
      <trkpt lat="39.8655414" lon="116.6896903">
        <ele>22.00038</ele>
        <time>2026-08-14T22:02:28.336000Z</time>
      </trkpt>
      <trkpt lat="39.8654568" lon="116.689734">
        <ele>21.90482</ele>
        <time>2026-08-14T22:02:32.317000Z</time>
      </trkpt>
      <trkpt lat="39.865374" lon="116.6897799">
        <ele>21.80244</ele>
        <time>2026-08-14T22:02:36.298000Z</time>
      </trkpt>
      <trkpt lat="39.8652704" lon="116.6898301">
        <ele>21.71006</ele>
        <time>2026-08-14T22:02:41.274000Z</time>
      </trkpt>
      <trkpt lat="39.8651677" lon="116.6898812">
        <ele>21.63066</ele>
        <time>2026-08-14T22:02:46.251000Z</time>
      </trkpt>
      <trkpt lat="39.8650677" lon="116.6899328">
        <ele>21.47729</ele>
        <time>2026-08-14T22:02:51.227000Z</time>
      </trkpt>
      <trkpt lat="39.86497" lon="116.689981">
        <ele>21.25184</ele>
        <time>2026-08-14T22:02:56.204000Z</time>
      </trkpt>
      <trkpt lat="39.8648707" lon="116.6900307">
        <ele>21.09183</ele>
        <time>2026-08-14T22:03:01Z</time>
      </trkpt>
      <trkpt lat="39.8647684" lon="116.6900731">
        <ele>21.04217</ele>
        <time>2026-08-14T22:03:06Z</time>
      </trkpt>
      <trkpt lat="39.8646641" lon="116.690123">
        <ele>21.00415</ele>
        <time>2026-08-14T22:03:11Z</time>
      </trkpt>
      <trkpt lat="39.8645593" lon="116.6901721">
        <ele>20.93964</ele>
        <time>2026-08-14T22:03:16Z</time>
      </trkpt>
      <trkpt lat="39.8644731" lon="116.6902122">
        <ele>20.90282</ele>
        <time>2026-08-14T22:03:20Z</time>
      </trkpt>
      <trkpt lat="39.8643879" lon="116.6902529">
        <ele>20.90338</ele>
        <time>2026-08-14T22:03:24Z</time>
      </trkpt>
      <trkpt lat="39.864284" lon="116.6903018">
        <ele>20.93197</ele>
        <time>2026-08-14T22:03:29Z</time>
      </trkpt>
      <trkpt lat="39.8641833" lon="116.6903492">
        <ele>20.98816</ele>
        <time>2026-08-14T22:03:34Z</time>
      </trkpt>
      <trkpt lat="39.8640837" lon="116.6904019">
        <ele>21.10361</ele>
        <time>2026-08-14T22:03:39Z</time>
      </trkpt>
      <trkpt lat="39.863985" lon="116.6904538">
        <ele>21.2918</ele>
        <time>2026-08-14T22:03:43.978000Z</time>
      </trkpt>
      <trkpt lat="39.8638878" lon="116.6905073">
        <ele>21.45352</ele>
        <time>2026-08-14T22:03:48.954000Z</time>
      </trkpt>
      <trkpt lat="39.8637859" lon="116.6905575">
        <ele>21.54282</ele>
        <time>2026-08-14T22:03:53.930000Z</time>
      </trkpt>
      <trkpt lat="39.8636798" lon="116.6906028">
        <ele>21.60447</ele>
        <time>2026-08-14T22:03:58.907000Z</time>
      </trkpt>
      <trkpt lat="39.8635741" lon="116.6906465">
        <ele>21.66325</ele>
        <time>2026-08-14T22:04:03.883000Z</time>
      </trkpt>
      <trkpt lat="39.8634875" lon="116.6906867">
        <ele>21.69702</ele>
        <time>2026-08-14T22:04:07.864000Z</time>
      </trkpt>
      <trkpt lat="39.8633857" lon="116.6907432">
        <ele>21.6873</ele>
        <time>2026-08-14T22:04:12.841000Z</time>
      </trkpt>
      <trkpt lat="39.8632818" lon="116.6907967">
        <ele>21.60299</ele>
        <time>2026-08-14T22:04:17.817000Z</time>
      </trkpt>
      <trkpt lat="39.8631957" lon="116.6908324">
        <ele>21.49854</ele>
        <time>2026-08-14T22:04:21.799000Z</time>
      </trkpt>
      <trkpt lat="39.863108" lon="116.6908603">
        <ele>21.37456</ele>
        <time>2026-08-14T22:04:25.780000Z</time>
      </trkpt>
      <trkpt lat="39.8630006" lon="116.6909017">
        <ele>21.20898</ele>
        <time>2026-08-14T22:04:30.756000Z</time>
      </trkpt>
      <trkpt lat="39.8629124" lon="116.6909411">
        <ele>21.09219</ele>
        <time>2026-08-14T22:04:34.737000Z</time>
      </trkpt>
      <trkpt lat="39.8628218" lon="116.6909655">
        <ele>21.0084</ele>
        <time>2026-08-14T22:04:38.719000Z</time>
      </trkpt>
      <trkpt lat="39.8627269" lon="116.6909073">
        <ele>20.95328</ele>
        <time>2026-08-14T22:04:43.695000Z</time>
      </trkpt>
      <trkpt lat="39.8626747" lon="116.6907797">
        <ele>20.96488</ele>
        <time>2026-08-14T22:04:48.671000Z</time>
      </trkpt>
      <trkpt lat="39.8626334" lon="116.6906461">
        <ele>21.02689</ele>
        <time>2026-08-14T22:04:53.648000Z</time>
      </trkpt>
      <trkpt lat="39.8625901" lon="116.6905144">
        <ele>21.0815</ele>
        <time>2026-08-14T22:04:58.624000Z</time>
      </trkpt>
      <trkpt lat="39.8625522" lon="116.6903806">
        <ele>21.10211</ele>
        <time>2026-08-14T22:05:03.601000Z</time>
      </trkpt>
      <trkpt lat="39.8625163" lon="116.6902475">
        <ele>21.09444</ele>
        <time>2026-08-14T22:05:08.577000Z</time>
      </trkpt>
      <trkpt lat="39.8624804" lon="116.690115">
        <ele>21.06811</ele>
        <time>2026-08-14T22:05:13.554000Z</time>
      </trkpt>
      <trkpt lat="39.8624503" lon="116.6899826">
        <ele>21.03161</ele>
        <time>2026-08-14T22:05:18.530000Z</time>
      </trkpt>
      <trkpt lat="39.8624119" lon="116.6898509">
        <ele>20.99568</ele>
        <time>2026-08-14T22:05:23.507000Z</time>
      </trkpt>
      <trkpt lat="39.8623743" lon="116.6897175">
        <ele>20.99121</ele>
        <time>2026-08-14T22:05:28.483000Z</time>
      </trkpt>
      <trkpt lat="39.8623262" lon="116.6895892">
        <ele>21.03629</ele>
        <time>2026-08-14T22:05:33.460000Z</time>
      </trkpt>
      <trkpt lat="39.8622755" lon="116.6894659">
        <ele>21.08526</ele>
        <time>2026-08-14T22:05:38.436000Z</time>
      </trkpt>
      <trkpt lat="39.862222" lon="116.6893433">
        <ele>21.14717</ele>
        <time>2026-08-14T22:05:43.413000Z</time>
      </trkpt>
      <trkpt lat="39.8621781" lon="116.6892162">
        <ele>21.30036</ele>
        <time>2026-08-14T22:05:48.389000Z</time>
      </trkpt>
      <trkpt lat="39.8621349" lon="116.6890894">
        <ele>21.498</ele>
        <time>2026-08-14T22:05:53.366000Z</time>
      </trkpt>
      <trkpt lat="39.8620885" lon="116.6889677">
        <ele>21.62398</ele>
        <time>2026-08-14T22:05:58.342000Z</time>
      </trkpt>
      <trkpt lat="39.8620472" lon="116.688846">
        <ele>21.65546</ele>
        <time>2026-08-14T22:06:03.319000Z</time>
      </trkpt>
      <trkpt lat="39.8620057" lon="116.6887249">
        <ele>21.61751</ele>
        <time>2026-08-14T22:06:08.295000Z</time>
      </trkpt>
      <trkpt lat="39.8619653" lon="116.6886027">
        <ele>21.60828</ele>
        <time>2026-08-14T22:06:13.271000Z</time>
      </trkpt>
      <trkpt lat="39.8619283" lon="116.6884745">
        <ele>21.67229</ele>
        <time>2026-08-14T22:06:18.248000Z</time>
      </trkpt>
      <trkpt lat="39.8618915" lon="116.688346">
        <ele>21.82412</ele>
        <time>2026-08-14T22:06:23.224000Z</time>
      </trkpt>
      <trkpt lat="39.8618589" lon="116.6882172">
        <ele>22.04177</ele>
        <time>2026-08-14T22:06:28.201000Z</time>
      </trkpt>
      <trkpt lat="39.8618293" lon="116.6880946">
        <ele>22.21565</ele>
        <time>2026-08-14T22:06:33Z</time>
      </trkpt>
      <trkpt lat="39.8617974" lon="116.6879644">
        <ele>22.30329</ele>
        <time>2026-08-14T22:06:38Z</time>
      </trkpt>
      <trkpt lat="39.8617636" lon="116.6878338">
        <ele>22.3701</ele>
        <time>2026-08-14T22:06:43Z</time>
      </trkpt>
      <trkpt lat="39.8617286" lon="116.6877064">
        <ele>22.41003</ele>
        <time>2026-08-14T22:06:48Z</time>
      </trkpt>
      <trkpt lat="39.8617071" lon="116.6875755">
        <ele>22.44089</ele>
        <time>2026-08-14T22:06:53Z</time>
      </trkpt>
      <trkpt lat="39.8616825" lon="116.6874395">
        <ele>22.46976</ele>
        <time>2026-08-14T22:06:58Z</time>
      </trkpt>
      <trkpt lat="39.8616523" lon="116.687303">
        <ele>22.47133</ele>
        <time>2026-08-14T22:07:03Z</time>
      </trkpt>
      <trkpt lat="39.861636" lon="116.6871601">
        <ele>22.39776</ele>
        <time>2026-08-14T22:07:08Z</time>
      </trkpt>
      <trkpt lat="39.8616233" lon="116.6870207">
        <ele>22.15694</ele>
        <time>2026-08-14T22:07:12.989000Z</time>
      </trkpt>
      <trkpt lat="39.8616119" lon="116.6868799">
        <ele>21.90775</ele>
        <time>2026-08-14T22:07:17.966000Z</time>
      </trkpt>
      <trkpt lat="39.8616005" lon="116.6867397">
        <ele>21.75878</ele>
        <time>2026-08-14T22:07:22.942000Z</time>
      </trkpt>
      <trkpt lat="39.8616001" lon="116.686604">
        <ele>21.68771</ele>
        <time>2026-08-14T22:07:27.919000Z</time>
      </trkpt>
      <trkpt lat="39.8615988" lon="116.686471">
        <ele>21.66593</ele>
        <time>2026-08-14T22:07:32.895000Z</time>
      </trkpt>
      <trkpt lat="39.8615973" lon="116.6863374">
        <ele>21.68137</ele>
        <time>2026-08-14T22:07:37.872000Z</time>
      </trkpt>
      <trkpt lat="39.861594" lon="116.6861978">
        <ele>21.73578</ele>
        <time>2026-08-14T22:07:42.848000Z</time>
      </trkpt>
      <trkpt lat="39.8615864" lon="116.6860597">
        <ele>21.81602</ele>
        <time>2026-08-14T22:07:47.825000Z</time>
      </trkpt>
      <trkpt lat="39.861582" lon="116.6859229">
        <ele>21.84728</ele>
        <time>2026-08-14T22:07:52.801000Z</time>
      </trkpt>
      <trkpt lat="39.8615763" lon="116.6857887">
        <ele>21.84371</ele>
        <time>2026-08-14T22:07:57.778000Z</time>
      </trkpt>
      <trkpt lat="39.8615674" lon="116.6856562">
        <ele>21.87213</ele>
        <time>2026-08-14T22:08:02.754000Z</time>
      </trkpt>
      <trkpt lat="39.8615627" lon="116.6855223">
        <ele>21.95651</ele>
        <time>2026-08-14T22:08:07.731000Z</time>
      </trkpt>
      <trkpt lat="39.8615629" lon="116.6853893">
        <ele>22.07758</ele>
        <time>2026-08-14T22:08:12.707000Z</time>
      </trkpt>
      <trkpt lat="39.8615598" lon="116.6852531">
        <ele>22.20458</ele>
        <time>2026-08-14T22:08:17.684000Z</time>
      </trkpt>
      <trkpt lat="39.8615553" lon="116.6851152">
        <ele>22.33377</ele>
        <time>2026-08-14T22:08:22.660000Z</time>
      </trkpt>
      <trkpt lat="39.8615467" lon="116.6849807">
        <ele>22.44698</ele>
        <time>2026-08-14T22:08:27.637000Z</time>
      </trkpt>
      <trkpt lat="39.8615389" lon="116.6848534">
        <ele>22.4928</ele>
        <time>2026-08-14T22:08:32.613000Z</time>
      </trkpt>
      <trkpt lat="39.8615341" lon="116.6847241">
        <ele>22.46393</ele>
        <time>2026-08-14T22:08:37.590000Z</time>
      </trkpt>
      <trkpt lat="39.861535" lon="116.6845879">
        <ele>22.38332</ele>
        <time>2026-08-14T22:08:42.566000Z</time>
      </trkpt>
      <trkpt lat="39.8615365" lon="116.6844513">
        <ele>22.27589</ele>
        <time>2026-08-14T22:08:47.552000Z</time>
      </trkpt>
      <trkpt lat="39.8615356" lon="116.6843182">
        <ele>22.17</ele>
        <time>2026-08-14T22:08:52.529000Z</time>
      </trkpt>
      <trkpt lat="39.8615328" lon="116.6841825">
        <ele>22.07914</ele>
        <time>2026-08-14T22:08:57.505000Z</time>
      </trkpt>
      <trkpt lat="39.8615351" lon="116.6840474">
        <ele>22.00706</ele>
        <time>2026-08-14T22:09:02.482000Z</time>
      </trkpt>
      <trkpt lat="39.8615485" lon="116.683918">
        <ele>21.95505</ele>
        <time>2026-08-14T22:09:07.458000Z</time>
      </trkpt>
      <trkpt lat="39.8615679" lon="116.6837855">
        <ele>21.91398</ele>
        <time>2026-08-14T22:09:12.435000Z</time>
      </trkpt>
      <trkpt lat="39.8615918" lon="116.6836437">
        <ele>21.90037</ele>
        <time>2026-08-14T22:09:17.411000Z</time>
      </trkpt>
      <trkpt lat="39.8616081" lon="116.6835287">
        <ele>21.93605</ele>
        <time>2026-08-14T22:09:21.393000Z</time>
      </trkpt>
      <trkpt lat="39.8616305" lon="116.6833866">
        <ele>22.08254</ele>
        <time>2026-08-14T22:09:26.369000Z</time>
      </trkpt>
      <trkpt lat="39.861648" lon="116.6832709">
        <ele>22.25974</ele>
        <time>2026-08-14T22:09:30.350000Z</time>
      </trkpt>
      <trkpt lat="39.8616693" lon="116.683129">
        <ele>22.4968</ele>
        <time>2026-08-14T22:09:35.327000Z</time>
      </trkpt>
      <trkpt lat="39.8616841" lon="116.6829864">
        <ele>22.70425</ele>
        <time>2026-08-14T22:09:40.303000Z</time>
      </trkpt>
      <trkpt lat="39.8616982" lon="116.6828494">
        <ele>22.84301</ele>
        <time>2026-08-14T22:09:45.280000Z</time>
      </trkpt>
      <trkpt lat="39.8617058" lon="116.6827166">
        <ele>22.94945</ele>
        <time>2026-08-14T22:09:50.256000Z</time>
      </trkpt>
      <trkpt lat="39.8617113" lon="116.6825825">
        <ele>23.10243</ele>
        <time>2026-08-14T22:09:55.233000Z</time>
      </trkpt>
      <trkpt lat="39.861725" lon="116.6824452">
        <ele>23.36368</ele>
        <time>2026-08-14T22:10:00.209000Z</time>
      </trkpt>
      <trkpt lat="39.8617409" lon="116.6823099">
        <ele>23.63532</ele>
        <time>2026-08-14T22:10:05Z</time>
      </trkpt>
      <trkpt lat="39.8617542" lon="116.6821941">
        <ele>23.72336</ele>
        <time>2026-08-14T22:10:09Z</time>
      </trkpt>
      <trkpt lat="39.8617639" lon="116.6820557">
        <ele>23.69905</ele>
        <time>2026-08-14T22:10:14Z</time>
      </trkpt>
      <trkpt lat="39.861769" lon="116.6819175">
        <ele>23.67005</ele>
        <time>2026-08-14T22:10:19Z</time>
      </trkpt>
      <trkpt lat="39.8617775" lon="116.6817836">
        <ele>23.66733</ele>
        <time>2026-08-14T22:10:24Z</time>
      </trkpt>
      <trkpt lat="39.8617848" lon="116.6816459">
        <ele>23.63519</ele>
        <time>2026-08-14T22:10:29Z</time>
      </trkpt>
      <trkpt lat="39.8617978" lon="116.6815276">
        <ele>23.5296</ele>
        <time>2026-08-14T22:10:33Z</time>
      </trkpt>
      <trkpt lat="39.8618103" lon="116.6814104">
        <ele>23.34925</ele>
        <time>2026-08-14T22:10:37Z</time>
      </trkpt>
      <trkpt lat="39.8618166" lon="116.681291">
        <ele>23.18267</ele>
        <time>2026-08-14T22:10:41Z</time>
      </trkpt>
      <trkpt lat="39.8618242" lon="116.6811726">
        <ele>23.05597</ele>
        <time>2026-08-14T22:10:44.998000Z</time>
      </trkpt>
      <trkpt lat="39.8618324" lon="116.681052">
        <ele>22.95325</ele>
        <time>2026-08-14T22:10:48.979000Z</time>
      </trkpt>
      <trkpt lat="39.861842" lon="116.680929">
        <ele>22.86593</ele>
        <time>2026-08-14T22:10:52.960000Z</time>
      </trkpt>
      <trkpt lat="39.8618512" lon="116.680808">
        <ele>22.77859</ele>
        <time>2026-08-14T22:10:56.941000Z</time>
      </trkpt>
      <trkpt lat="39.8618674" lon="116.6806912">
        <ele>22.69488</ele>
        <time>2026-08-14T22:11:00.923000Z</time>
      </trkpt>
      <trkpt lat="39.8618833" lon="116.6805745">
        <ele>22.63668</ele>
        <time>2026-08-14T22:11:04.904000Z</time>
      </trkpt>
      <trkpt lat="39.8618959" lon="116.6804581">
        <ele>22.6202</ele>
        <time>2026-08-14T22:11:08.885000Z</time>
      </trkpt>
      <trkpt lat="39.8619058" lon="116.6803413">
        <ele>22.659</ele>
        <time>2026-08-14T22:11:12.866000Z</time>
      </trkpt>
      <trkpt lat="39.8619117" lon="116.680224">
        <ele>22.74852</ele>
        <time>2026-08-14T22:11:16.848000Z</time>
      </trkpt>
      <trkpt lat="39.8619161" lon="116.6801057">
        <ele>22.8762</ele>
        <time>2026-08-14T22:11:20.829000Z</time>
      </trkpt>
      <trkpt lat="39.861923" lon="116.6799869">
        <ele>23.03954</ele>
        <time>2026-08-14T22:11:24.810000Z</time>
      </trkpt>
      <trkpt lat="39.8619289" lon="116.6798439">
        <ele>23.26317</ele>
        <time>2026-08-14T22:11:29.786000Z</time>
      </trkpt>
      <trkpt lat="39.8619348" lon="116.679704">
        <ele>23.44187</ele>
        <time>2026-08-14T22:11:34.763000Z</time>
      </trkpt>
      <trkpt lat="39.8619325" lon="116.6795641">
        <ele>23.51773</ele>
        <time>2026-08-14T22:11:39.740000Z</time>
      </trkpt>
      <trkpt lat="39.8619346" lon="116.679423">
        <ele>23.51523</ele>
        <time>2026-08-14T22:11:44.716000Z</time>
      </trkpt>
      <trkpt lat="39.8619676" lon="116.6793001">
        <ele>23.46148</ele>
        <time>2026-08-14T22:11:49.693000Z</time>
      </trkpt>
      <trkpt lat="39.8620509" lon="116.6792208">
        <ele>23.36457</ele>
        <time>2026-08-14T22:11:57.655000Z</time>
      </trkpt>
      <trkpt lat="39.8621254" lon="116.6791412">
        <ele>23.42055</ele>
        <time>2026-08-14T22:12:02.632000Z</time>
      </trkpt>
      <trkpt lat="39.8621117" lon="116.6789949">
        <ele>23.54377</ele>
        <time>2026-08-14T22:12:07.608000Z</time>
      </trkpt>
      <trkpt lat="39.8621037" lon="116.6788773">
        <ele>23.65389</ele>
        <time>2026-08-14T22:12:11.589000Z</time>
      </trkpt>
      <trkpt lat="39.8621135" lon="116.6787479">
        <ele>23.76993</ele>
        <time>2026-08-14T22:12:16.566000Z</time>
      </trkpt>
      <trkpt lat="39.8621299" lon="116.6786215">
        <ele>23.852</ele>
        <time>2026-08-14T22:12:21.542000Z</time>
      </trkpt>
      <trkpt lat="39.8621445" lon="116.6784887">
        <ele>23.90084</ele>
        <time>2026-08-14T22:12:26.519000Z</time>
      </trkpt>
      <trkpt lat="39.8621587" lon="116.6783503">
        <ele>23.92564</ele>
        <time>2026-08-14T22:12:31.496000Z</time>
      </trkpt>
      <trkpt lat="39.8621742" lon="116.6782094">
        <ele>23.93925</ele>
        <time>2026-08-14T22:12:36.472000Z</time>
      </trkpt>
      <trkpt lat="39.8621887" lon="116.6780717">
        <ele>23.93856</ele>
        <time>2026-08-14T22:12:41.449000Z</time>
      </trkpt>
      <trkpt lat="39.8621889" lon="116.6779276">
        <ele>23.93286</ele>
        <time>2026-08-14T22:12:46.425000Z</time>
      </trkpt>
      <trkpt lat="39.8621852" lon="116.6777855">
        <ele>23.90256</ele>
        <time>2026-08-14T22:12:51.402000Z</time>
      </trkpt>
      <trkpt lat="39.8621927" lon="116.677642">
        <ele>23.83561</ele>
        <time>2026-08-14T22:12:56.378000Z</time>
      </trkpt>
      <trkpt lat="39.8622026" lon="116.6775012">
        <ele>23.77125</ele>
        <time>2026-08-14T22:13:01.355000Z</time>
      </trkpt>
      <trkpt lat="39.8622158" lon="116.6773636">
        <ele>23.73334</ele>
        <time>2026-08-14T22:13:06.331000Z</time>
      </trkpt>
      <trkpt lat="39.8622319" lon="116.677226">
        <ele>23.71789</ele>
        <time>2026-08-14T22:13:11.308000Z</time>
      </trkpt>
      <trkpt lat="39.8622468" lon="116.6770878">
        <ele>23.71142</ele>
        <time>2026-08-14T22:13:16.284000Z</time>
      </trkpt>
      <trkpt lat="39.8622637" lon="116.6769493">
        <ele>23.7219</ele>
        <time>2026-08-14T22:13:21.261000Z</time>
      </trkpt>
      <trkpt lat="39.8622773" lon="116.6768043">
        <ele>23.76691</ele>
        <time>2026-08-14T22:13:26.238000Z</time>
      </trkpt>
      <trkpt lat="39.862285" lon="116.6766857">
        <ele>23.82272</ele>
        <time>2026-08-14T22:13:30.219000Z</time>
      </trkpt>
      <trkpt lat="39.862297" lon="116.6765431">
        <ele>23.87451</ele>
        <time>2026-08-14T22:13:35.195000Z</time>
      </trkpt>
      <trkpt lat="39.862308" lon="116.6764103">
        <ele>23.86906</ele>
        <time>2026-08-14T22:13:40Z</time>
      </trkpt>
      <trkpt lat="39.8623223" lon="116.6762749">
        <ele>23.79167</ele>
        <time>2026-08-14T22:13:45Z</time>
      </trkpt>
      <trkpt lat="39.8623409" lon="116.6761375">
        <ele>23.6622</ele>
        <time>2026-08-14T22:13:50Z</time>
      </trkpt>
      <trkpt lat="39.8623501" lon="116.6759976">
        <ele>23.60047</ele>
        <time>2026-08-14T22:13:55Z</time>
      </trkpt>
      <trkpt lat="39.8623668" lon="116.6758556">
        <ele>23.61275</ele>
        <time>2026-08-14T22:14:00.078000Z</time>
      </trkpt>
      <trkpt lat="39.8623818" lon="116.6757172">
        <ele>23.60911</ele>
        <time>2026-08-14T22:14:05.055000Z</time>
      </trkpt>
      <trkpt lat="39.8623924" lon="116.6756011">
        <ele>23.57199</ele>
        <time>2026-08-14T22:14:09.036000Z</time>
      </trkpt>
      <trkpt lat="39.8624034" lon="116.675456">
        <ele>23.49709</ele>
        <time>2026-08-14T22:14:14.012000Z</time>
      </trkpt>
      <trkpt lat="39.8624093" lon="116.6753352">
        <ele>23.4391</ele>
        <time>2026-08-14T22:14:17.994000Z</time>
      </trkpt>
      <trkpt lat="39.8624149" lon="116.675197">
        <ele>23.42134</ele>
        <time>2026-08-14T22:14:21.975000Z</time>
      </trkpt>
      <trkpt lat="39.8624227" lon="116.6750508">
        <ele>23.45725</ele>
        <time>2026-08-14T22:14:25.956000Z</time>
      </trkpt>
      <trkpt lat="39.8624279" lon="116.6749083">
        <ele>23.54676</ele>
        <time>2026-08-14T22:14:29.938000Z</time>
      </trkpt>
      <trkpt lat="39.8624308" lon="116.6747661">
        <ele>23.68144</ele>
        <time>2026-08-14T22:14:33.919000Z</time>
      </trkpt>
      <trkpt lat="39.8624322" lon="116.6746328">
        <ele>23.83674</ele>
        <time>2026-08-14T22:14:37.900000Z</time>
      </trkpt>
      <trkpt lat="39.8624339" lon="116.6745133">
        <ele>23.9825</ele>
        <time>2026-08-14T22:14:41.881000Z</time>
      </trkpt>
      <trkpt lat="39.862438" lon="116.6743881">
        <ele>24.12293</ele>
        <time>2026-08-14T22:14:46.858000Z</time>
      </trkpt>
      <trkpt lat="39.8624406" lon="116.6742496">
        <ele>24.24211</ele>
        <time>2026-08-14T22:14:51.834000Z</time>
      </trkpt>
      <trkpt lat="39.8624384" lon="116.6741043">
        <ele>24.36104</ele>
        <time>2026-08-14T22:14:56.811000Z</time>
      </trkpt>
      <trkpt lat="39.8624364" lon="116.6739652">
        <ele>24.49056</ele>
        <time>2026-08-14T22:15:01.788000Z</time>
      </trkpt>
      <trkpt lat="39.8624397" lon="116.6738287">
        <ele>24.64521</ele>
        <time>2026-08-14T22:15:06.764000Z</time>
      </trkpt>
      <trkpt lat="39.8624415" lon="116.6736876">
        <ele>24.80817</ele>
        <time>2026-08-14T22:15:11.741000Z</time>
      </trkpt>
      <trkpt lat="39.8624461" lon="116.6735684">
        <ele>24.9293</ele>
        <time>2026-08-14T22:15:15.722000Z</time>
      </trkpt>
      <trkpt lat="39.8624519" lon="116.6734454">
        <ele>25.05275</ele>
        <time>2026-08-14T22:15:19.703000Z</time>
      </trkpt>
      <trkpt lat="39.8624554" lon="116.6733236">
        <ele>25.16021</ele>
        <time>2026-08-14T22:15:23.684000Z</time>
      </trkpt>
      <trkpt lat="39.8624566" lon="116.6732013">
        <ele>25.21178</ele>
        <time>2026-08-14T22:15:27.676000Z</time>
      </trkpt>
      <trkpt lat="39.862451" lon="116.6730793">
        <ele>25.19224</ele>
        <time>2026-08-14T22:15:31.657000Z</time>
      </trkpt>
      <trkpt lat="39.8624434" lon="116.6729538">
        <ele>25.1296</ele>
        <time>2026-08-14T22:15:35.638000Z</time>
      </trkpt>
      <trkpt lat="39.8624445" lon="116.6728265">
        <ele>25.03841</ele>
        <time>2026-08-14T22:15:39.619000Z</time>
      </trkpt>
      <trkpt lat="39.8624499" lon="116.6726995">
        <ele>24.94088</ele>
        <time>2026-08-14T22:15:43.601000Z</time>
      </trkpt>
      <trkpt lat="39.8624543" lon="116.6725735">
        <ele>24.84834</ele>
        <time>2026-08-14T22:15:47.582000Z</time>
      </trkpt>
      <trkpt lat="39.8624565" lon="116.6724504">
        <ele>24.75727</ele>
        <time>2026-08-14T22:15:51.563000Z</time>
      </trkpt>
      <trkpt lat="39.8624556" lon="116.6723263">
        <ele>24.65571</ele>
        <time>2026-08-14T22:15:55.544000Z</time>
      </trkpt>
      <trkpt lat="39.8624517" lon="116.6722019">
        <ele>24.53537</ele>
        <time>2026-08-14T22:15:59.526000Z</time>
      </trkpt>
      <trkpt lat="39.8624548" lon="116.6720723">
        <ele>24.41081</ele>
        <time>2026-08-14T22:16:03.507000Z</time>
      </trkpt>
      <trkpt lat="39.862465" lon="116.6719428">
        <ele>24.30095</ele>
        <time>2026-08-14T22:16:07.488000Z</time>
      </trkpt>
      <trkpt lat="39.8624704" lon="116.6718177">
        <ele>24.19429</ele>
        <time>2026-08-14T22:16:11.470000Z</time>
      </trkpt>
      <trkpt lat="39.8624701" lon="116.6716936">
        <ele>24.08332</ele>
        <time>2026-08-14T22:16:15.451000Z</time>
      </trkpt>
      <trkpt lat="39.8624704" lon="116.6715624">
        <ele>23.97825</ele>
        <time>2026-08-14T22:16:19.432000Z</time>
      </trkpt>
      <trkpt lat="39.8624719" lon="116.6714366">
        <ele>23.87495</ele>
        <time>2026-08-14T22:16:23.413000Z</time>
      </trkpt>
      <trkpt lat="39.8624691" lon="116.671319">
        <ele>23.7811</ele>
        <time>2026-08-14T22:16:27.395000Z</time>
      </trkpt>
      <trkpt lat="39.8624633" lon="116.6712016">
        <ele>23.71854</ele>
        <time>2026-08-14T22:16:31.376000Z</time>
      </trkpt>
      <trkpt lat="39.8624602" lon="116.671056">
        <ele>23.69627</ele>
        <time>2026-08-14T22:16:36.352000Z</time>
      </trkpt>
      <trkpt lat="39.8624632" lon="116.6709102">
        <ele>23.73851</ele>
        <time>2026-08-14T22:16:41.329000Z</time>
      </trkpt>
      <trkpt lat="39.8624647" lon="116.6707898">
        <ele>23.81491</ele>
        <time>2026-08-14T22:16:45.310000Z</time>
      </trkpt>
      <trkpt lat="39.8624665" lon="116.6706691">
        <ele>23.92254</ele>
        <time>2026-08-14T22:16:49.292000Z</time>
      </trkpt>
      <trkpt lat="39.8624604" lon="116.6705482">
        <ele>24.05468</ele>
        <time>2026-08-14T22:16:53.273000Z</time>
      </trkpt>
      <trkpt lat="39.8624572" lon="116.6704289">
        <ele>24.20943</ele>
        <time>2026-08-14T22:16:57.254000Z</time>
      </trkpt>
      <trkpt lat="39.8624566" lon="116.6703114">
        <ele>24.40244</ele>
        <time>2026-08-14T22:17:01.235000Z</time>
      </trkpt>
      <trkpt lat="39.8624554" lon="116.6701936">
        <ele>24.66618</ele>
        <time>2026-08-14T22:17:05.217000Z</time>
      </trkpt>
      <trkpt lat="39.8624563" lon="116.670055">
        <ele>25.04749</ele>
        <time>2026-08-14T22:17:10Z</time>
      </trkpt>
      <trkpt lat="39.8624531" lon="116.6699132">
        <ele>25.30369</ele>
        <time>2026-08-14T22:17:15Z</time>
      </trkpt>
      <trkpt lat="39.8624479" lon="116.6697697">
        <ele>25.38789</ele>
        <time>2026-08-14T22:17:20Z</time>
      </trkpt>
      <trkpt lat="39.8624485" lon="116.6696253">
        <ele>25.40207</ele>
        <time>2026-08-14T22:17:25Z</time>
      </trkpt>
      <trkpt lat="39.8624479" lon="116.6695026">
        <ele>25.4039</ele>
        <time>2026-08-14T22:17:29.104000Z</time>
      </trkpt>
      <trkpt lat="39.8624477" lon="116.6693565">
        <ele>25.45609</ele>
        <time>2026-08-14T22:17:34Z</time>
      </trkpt>
      <trkpt lat="39.8624471" lon="116.669231">
        <ele>25.50846</ele>
        <time>2026-08-14T22:17:38Z</time>
      </trkpt>
      <trkpt lat="39.8624531" lon="116.669097">
        <ele>25.50841</ele>
        <time>2026-08-14T22:17:42Z</time>
      </trkpt>
      <trkpt lat="39.8624637" lon="116.66896">
        <ele>25.46287</ele>
        <time>2026-08-14T22:17:46Z</time>
      </trkpt>
      <trkpt lat="39.8624706" lon="116.6688216">
        <ele>25.35854</ele>
        <time>2026-08-14T22:17:50Z</time>
      </trkpt>
      <trkpt lat="39.8624718" lon="116.6686924">
        <ele>25.16693</ele>
        <time>2026-08-14T22:17:53.987000Z</time>
      </trkpt>
      <trkpt lat="39.8624658" lon="116.6685682">
        <ele>25.03546</ele>
        <time>2026-08-14T22:17:57.969000Z</time>
      </trkpt>
      <trkpt lat="39.862459" lon="116.6684514">
        <ele>25.00835</ele>
        <time>2026-08-14T22:18:01.950000Z</time>
      </trkpt>
      <trkpt lat="39.8624524" lon="116.6683059">
        <ele>25.05636</ele>
        <time>2026-08-14T22:18:06.926000Z</time>
      </trkpt>
      <trkpt lat="39.8624486" lon="116.6681607">
        <ele>25.07074</ele>
        <time>2026-08-14T22:18:11.903000Z</time>
      </trkpt>
      <trkpt lat="39.862449" lon="116.6680424">
        <ele>25.00705</ele>
        <time>2026-08-14T22:18:15.884000Z</time>
      </trkpt>
      <trkpt lat="39.8624484" lon="116.6679178">
        <ele>24.90506</ele>
        <time>2026-08-14T22:18:19.866000Z</time>
      </trkpt>
      <trkpt lat="39.8624481" lon="116.6677853">
        <ele>24.81662</ele>
        <time>2026-08-14T22:18:23.847000Z</time>
      </trkpt>
      <trkpt lat="39.8624604" lon="116.6676575">
        <ele>24.76704</ele>
        <time>2026-08-14T22:18:27.828000Z</time>
      </trkpt>
      <trkpt lat="39.862467" lon="116.6675385">
        <ele>24.73819</ele>
        <time>2026-08-14T22:18:31.809000Z</time>
      </trkpt>
      <trkpt lat="39.862475" lon="116.6674189">
        <ele>24.70468</ele>
        <time>2026-08-14T22:18:35.791000Z</time>
      </trkpt>
      <trkpt lat="39.8624854" lon="116.6673013">
        <ele>24.6557</ele>
        <time>2026-08-14T22:18:39.772000Z</time>
      </trkpt>
      <trkpt lat="39.8624916" lon="116.6671811">
        <ele>24.61021</ele>
        <time>2026-08-14T22:18:43.753000Z</time>
      </trkpt>
      <trkpt lat="39.8625017" lon="116.6670578">
        <ele>24.60276</ele>
        <time>2026-08-14T22:18:47.734000Z</time>
      </trkpt>
      <trkpt lat="39.862507" lon="116.6669383">
        <ele>24.60557</ele>
        <time>2026-08-14T22:18:51.716000Z</time>
      </trkpt>
      <trkpt lat="39.8625068" lon="116.6668205">
        <ele>24.58283</ele>
        <time>2026-08-14T22:18:55.697000Z</time>
      </trkpt>
      <trkpt lat="39.8625025" lon="116.6667008">
        <ele>24.54219</ele>
        <time>2026-08-14T22:18:59.678000Z</time>
      </trkpt>
      <trkpt lat="39.8624984" lon="116.6665808">
        <ele>24.49019</ele>
        <time>2026-08-14T22:19:03.659000Z</time>
      </trkpt>
      <trkpt lat="39.8624987" lon="116.6664639">
        <ele>24.43888</ele>
        <time>2026-08-14T22:19:07.641000Z</time>
      </trkpt>
      <trkpt lat="39.8625025" lon="116.66632">
        <ele>24.38867</ele>
        <time>2026-08-14T22:19:12.617000Z</time>
      </trkpt>
      <trkpt lat="39.8625026" lon="116.6662018">
        <ele>24.35324</ele>
        <time>2026-08-14T22:19:16.599000Z</time>
      </trkpt>
      <trkpt lat="39.862498" lon="116.6660816">
        <ele>24.30909</ele>
        <time>2026-08-14T22:19:20.580000Z</time>
      </trkpt>
      <trkpt lat="39.8624804" lon="116.6659389">
        <ele>24.24284</ele>
        <time>2026-08-14T22:19:25.556000Z</time>
      </trkpt>
      <trkpt lat="39.8624597" lon="116.6657956">
        <ele>24.17876</ele>
        <time>2026-08-14T22:19:30.533000Z</time>
      </trkpt>
      <trkpt lat="39.8624572" lon="116.6656491">
        <ele>24.13449</ele>
        <time>2026-08-14T22:19:35.510000Z</time>
      </trkpt>
      <trkpt lat="39.8624597" lon="116.6655316">
        <ele>24.09722</ele>
        <time>2026-08-14T22:19:39.491000Z</time>
      </trkpt>
      <trkpt lat="39.8624635" lon="116.6654126">
        <ele>24.05382</ele>
        <time>2026-08-14T22:19:43.472000Z</time>
      </trkpt>
      <trkpt lat="39.8624659" lon="116.6652899">
        <ele>24.02233</ele>
        <time>2026-08-14T22:19:47.453000Z</time>
      </trkpt>
      <trkpt lat="39.8624679" lon="116.6651652">
        <ele>24.00977</ele>
        <time>2026-08-14T22:19:51.435000Z</time>
      </trkpt>
      <trkpt lat="39.862472" lon="116.6650413">
        <ele>24.01868</ele>
        <time>2026-08-14T22:19:55.416000Z</time>
      </trkpt>
      <trkpt lat="39.8624723" lon="116.6649172">
        <ele>24.04791</ele>
        <time>2026-08-14T22:19:59.397000Z</time>
      </trkpt>
      <trkpt lat="39.8624734" lon="116.6647951">
        <ele>24.09824</ele>
        <time>2026-08-14T22:20:03.378000Z</time>
      </trkpt>
      <trkpt lat="39.8624763" lon="116.6646733">
        <ele>24.17204</ele>
        <time>2026-08-14T22:20:07.360000Z</time>
      </trkpt>
      <trkpt lat="39.8624792" lon="116.6645477">
        <ele>24.26061</ele>
        <time>2026-08-14T22:20:11.341000Z</time>
      </trkpt>
      <trkpt lat="39.8624809" lon="116.6644259">
        <ele>24.34352</ele>
        <time>2026-08-14T22:20:15.322000Z</time>
      </trkpt>
      <trkpt lat="39.8624808" lon="116.6643046">
        <ele>24.39497</ele>
        <time>2026-08-14T22:20:19.303000Z</time>
      </trkpt>
      <trkpt lat="39.862479" lon="116.6641825">
        <ele>24.40023</ele>
        <time>2026-08-14T22:20:23.285000Z</time>
      </trkpt>
      <trkpt lat="39.8624726" lon="116.6640623">
        <ele>24.37954</ele>
        <time>2026-08-14T22:20:27.266000Z</time>
      </trkpt>
      <trkpt lat="39.8624691" lon="116.663943">
        <ele>24.38224</ele>
        <time>2026-08-14T22:20:31.247000Z</time>
      </trkpt>
      <trkpt lat="39.8624763" lon="116.6638248">
        <ele>24.4368</ele>
        <time>2026-08-14T22:20:35.229000Z</time>
      </trkpt>
      <trkpt lat="39.8624867" lon="116.6637052">
        <ele>24.53224</ele>
        <time>2026-08-14T22:20:39.210000Z</time>
      </trkpt>
      <trkpt lat="39.8624918" lon="116.6635869">
        <ele>24.62429</ele>
        <time>2026-08-14T22:20:43.191000Z</time>
      </trkpt>
      <trkpt lat="39.8624933" lon="116.6634424">
        <ele>24.73475</ele>
        <time>2026-08-14T22:20:48.168000Z</time>
      </trkpt>
      <trkpt lat="39.8624916" lon="116.6633229">
        <ele>24.87267</ele>
        <time>2026-08-14T22:20:52.149000Z</time>
      </trkpt>
      <trkpt lat="39.8624871" lon="116.6632032">
        <ele>25.06071</ele>
        <time>2026-08-14T22:20:56.130000Z</time>
      </trkpt>
      <trkpt lat="39.8624823" lon="116.6630603">
        <ele>25.22096</ele>
        <time>2026-08-14T22:21:01Z</time>
      </trkpt>
      <trkpt lat="39.862483" lon="116.6629381">
        <ele>25.28312</ele>
        <time>2026-08-14T22:21:05Z</time>
      </trkpt>
      <trkpt lat="39.8624842" lon="116.6628169">
        <ele>25.32581</ele>
        <time>2026-08-14T22:21:09Z</time>
      </trkpt>
      <trkpt lat="39.8624856" lon="116.6626991">
        <ele>25.39375</ele>
        <time>2026-08-14T22:21:13Z</time>
      </trkpt>
      <trkpt lat="39.8624887" lon="116.6625611">
        <ele>25.48662</ele>
        <time>2026-08-14T22:21:18Z</time>
      </trkpt>
      <trkpt lat="39.8624942" lon="116.6624152">
        <ele>25.37061</ele>
        <time>2026-08-14T22:21:23Z</time>
      </trkpt>
      <trkpt lat="39.8624925" lon="116.6622718">
        <ele>24.92208</ele>
        <time>2026-08-14T22:21:27.980000Z</time>
      </trkpt>
      <trkpt lat="39.8624935" lon="116.6621296">
        <ele>24.50231</ele>
        <time>2026-08-14T22:21:32.957000Z</time>
      </trkpt>
      <trkpt lat="39.8624921" lon="116.6619869">
        <ele>24.21871</ele>
        <time>2026-08-14T22:21:37.934000Z</time>
      </trkpt>
      <trkpt lat="39.8624841" lon="116.6618449">
        <ele>24.02909</ele>
        <time>2026-08-14T22:21:42.910000Z</time>
      </trkpt>
      <trkpt lat="39.8624813" lon="116.6617044">
        <ele>23.92906</ele>
        <time>2026-08-14T22:21:47.887000Z</time>
      </trkpt>
      <trkpt lat="39.8624828" lon="116.6615597">
        <ele>23.94215</ele>
        <time>2026-08-14T22:21:52.863000Z</time>
      </trkpt>
      <trkpt lat="39.862493" lon="116.6614398">
        <ele>24.06623</ele>
        <time>2026-08-14T22:21:56.845000Z</time>
      </trkpt>
      <trkpt lat="39.8625005" lon="116.661319">
        <ele>24.26529</ele>
        <time>2026-08-14T22:22:00.826000Z</time>
      </trkpt>
      <trkpt lat="39.8625031" lon="116.6611767">
        <ele>24.49632</ele>
        <time>2026-08-14T22:22:05.803000Z</time>
      </trkpt>
      <trkpt lat="39.8624981" lon="116.6610416">
        <ele>24.63999</ele>
        <time>2026-08-14T22:22:10.779000Z</time>
      </trkpt>
      <trkpt lat="39.8624959" lon="116.6609058">
        <ele>24.71995</ele>
        <time>2026-08-14T22:22:15.756000Z</time>
      </trkpt>
      <trkpt lat="39.8624939" lon="116.6607627">
        <ele>24.70945</ele>
        <time>2026-08-14T22:22:20.732000Z</time>
      </trkpt>
      <trkpt lat="39.8624964" lon="116.6606181">
        <ele>24.56291</ele>
        <time>2026-08-14T22:22:25.709000Z</time>
      </trkpt>
      <trkpt lat="39.8625011" lon="116.6604981">
        <ele>24.3634</ele>
        <time>2026-08-14T22:22:29.690000Z</time>
      </trkpt>
      <trkpt lat="39.8625024" lon="116.6603766">
        <ele>24.14562</ele>
        <time>2026-08-14T22:22:33.672000Z</time>
      </trkpt>
      <trkpt lat="39.8625032" lon="116.6602575">
        <ele>23.95569</ele>
        <time>2026-08-14T22:22:37.653000Z</time>
      </trkpt>
      <trkpt lat="39.8625171" lon="116.6601361">
        <ele>23.80714</ele>
        <time>2026-08-14T22:22:42.629000Z</time>
      </trkpt>
      <trkpt lat="39.8625277" lon="116.6599996">
        <ele>23.78263</ele>
        <time>2026-08-14T22:22:47.606000Z</time>
      </trkpt>
      <trkpt lat="39.8625256" lon="116.6598781">
        <ele>23.82727</ele>
        <time>2026-08-14T22:22:51.587000Z</time>
      </trkpt>
      <trkpt lat="39.8625204" lon="116.6597568">
        <ele>23.89901</ele>
        <time>2026-08-14T22:22:55.569000Z</time>
      </trkpt>
      <trkpt lat="39.8625201" lon="116.6596186">
        <ele>23.97601</ele>
        <time>2026-08-14T22:23:00.545000Z</time>
      </trkpt>
      <trkpt lat="39.8625203" lon="116.6594765">
        <ele>24.01342</ele>
        <time>2026-08-14T22:23:05.522000Z</time>
      </trkpt>
      <trkpt lat="39.8625229" lon="116.6593571">
        <ele>24.05753</ele>
        <time>2026-08-14T22:23:09.503000Z</time>
      </trkpt>
      <trkpt lat="39.8625248" lon="116.6592394">
        <ele>24.14935</ele>
        <time>2026-08-14T22:23:13.484000Z</time>
      </trkpt>
      <trkpt lat="39.8625218" lon="116.6591226">
        <ele>24.27911</ele>
        <time>2026-08-14T22:23:17.466000Z</time>
      </trkpt>
      <trkpt lat="39.8625175" lon="116.6590007">
        <ele>24.41234</ele>
        <time>2026-08-14T22:23:21.447000Z</time>
      </trkpt>
      <trkpt lat="39.8625126" lon="116.6588789">
        <ele>24.53023</ele>
        <time>2026-08-14T22:23:25.428000Z</time>
      </trkpt>
      <trkpt lat="39.8625021" lon="116.6587626">
        <ele>24.61589</ele>
        <time>2026-08-14T22:23:29.409000Z</time>
      </trkpt>
      <trkpt lat="39.8624888" lon="116.6586231">
        <ele>24.67089</ele>
        <time>2026-08-14T22:23:34.386000Z</time>
      </trkpt>
      <trkpt lat="39.8624855" lon="116.6584825">
        <ele>24.6999</ele>
        <time>2026-08-14T22:23:39.363000Z</time>
      </trkpt>
      <trkpt lat="39.8624863" lon="116.6583366">
        <ele>24.73859</ele>
        <time>2026-08-14T22:23:44.339000Z</time>
      </trkpt>
      <trkpt lat="39.8624857" lon="116.6582188">
        <ele>24.77455</ele>
        <time>2026-08-14T22:23:48.321000Z</time>
      </trkpt>
      <trkpt lat="39.8624841" lon="116.6581017">
        <ele>24.79633</ele>
        <time>2026-08-14T22:23:52.302000Z</time>
      </trkpt>
      <trkpt lat="39.8624853" lon="116.6579845">
        <ele>24.80366</ele>
        <time>2026-08-14T22:23:56.283000Z</time>
      </trkpt>
      <trkpt lat="39.8624872" lon="116.6578656">
        <ele>24.80027</ele>
        <time>2026-08-14T22:24:00.264000Z</time>
      </trkpt>
      <trkpt lat="39.8624884" lon="116.6577477">
        <ele>24.7596</ele>
        <time>2026-08-14T22:24:04.246000Z</time>
      </trkpt>
      <trkpt lat="39.8624891" lon="116.6576078">
        <ele>24.65524</ele>
        <time>2026-08-14T22:24:09.222000Z</time>
      </trkpt>
      <trkpt lat="39.862491" lon="116.6574627">
        <ele>24.52414</ele>
        <time>2026-08-14T22:24:14.199000Z</time>
      </trkpt>
      <trkpt lat="39.8624932" lon="116.657323">
        <ele>24.44611</ele>
        <time>2026-08-14T22:24:19Z</time>
      </trkpt>
      <trkpt lat="39.8624933" lon="116.6572051">
        <ele>24.47101</ele>
        <time>2026-08-14T22:24:23Z</time>
      </trkpt>
      <trkpt lat="39.8624927" lon="116.65708">
        <ele>24.58019</ele>
        <time>2026-08-14T22:24:27.138000Z</time>
      </trkpt>
      <trkpt lat="39.86249" lon="116.6569529">
        <ele>24.71622</ele>
        <time>2026-08-14T22:24:31.119000Z</time>
      </trkpt>
      <trkpt lat="39.8624872" lon="116.6568277">
        <ele>24.85215</ele>
        <time>2026-08-14T22:24:35.101000Z</time>
      </trkpt>
      <trkpt lat="39.8624922" lon="116.6567053">
        <ele>24.97766</ele>
        <time>2026-08-14T22:24:39.082000Z</time>
      </trkpt>
      <trkpt lat="39.8625098" lon="116.6565798">
        <ele>25.09104</ele>
        <time>2026-08-14T22:24:43.063000Z</time>
      </trkpt>
      <trkpt lat="39.8625305" lon="116.6564561">
        <ele>25.20771</ele>
        <time>2026-08-14T22:24:47.045000Z</time>
      </trkpt>
      <trkpt lat="39.8625416" lon="116.6563315">
        <ele>25.33348</ele>
        <time>2026-08-14T22:24:51.026000Z</time>
      </trkpt>
      <trkpt lat="39.862548" lon="116.6562068">
        <ele>25.4444</ele>
        <time>2026-08-14T22:24:55.007000Z</time>
      </trkpt>
      <trkpt lat="39.8625545" lon="116.6560822">
        <ele>25.50725</ele>
        <time>2026-08-14T22:24:58.988000Z</time>
      </trkpt>
      <trkpt lat="39.8625603" lon="116.6559571">
        <ele>25.48811</ele>
        <time>2026-08-14T22:25:02.970000Z</time>
      </trkpt>
      <trkpt lat="39.8625603" lon="116.6558323">
        <ele>25.36413</ele>
        <time>2026-08-14T22:25:06.951000Z</time>
      </trkpt>
      <trkpt lat="39.8625563" lon="116.6557146">
        <ele>25.15682</ele>
        <time>2026-08-14T22:25:10.932000Z</time>
      </trkpt>
      <trkpt lat="39.8625583" lon="116.6555782">
        <ele>24.86828</ele>
        <time>2026-08-14T22:25:15.909000Z</time>
      </trkpt>
      <trkpt lat="39.8626035" lon="116.6555284">
        <ele>24.79596</ele>
        <time>2026-08-14T22:25:23.872000Z</time>
      </trkpt>
      <trkpt lat="39.8626904" lon="116.6555721">
        <ele>25.0902</ele>
        <time>2026-08-14T22:25:28.848000Z</time>
      </trkpt>
      <trkpt lat="39.8627805" lon="116.6555875">
        <ele>25.33856</ele>
        <time>2026-08-14T22:25:32.830000Z</time>
      </trkpt>
      <trkpt lat="39.8628741" lon="116.6555986">
        <ele>25.56869</ele>
        <time>2026-08-14T22:25:36.811000Z</time>
      </trkpt>
      <trkpt lat="39.8629695" lon="116.6556118">
        <ele>25.78911</ele>
        <time>2026-08-14T22:25:40.792000Z</time>
      </trkpt>
      <trkpt lat="39.8630651" lon="116.6556188">
        <ele>26.00493</ele>
        <time>2026-08-14T22:25:44.773000Z</time>
      </trkpt>
      <trkpt lat="39.8631593" lon="116.6556228">
        <ele>26.20787</ele>
        <time>2026-08-14T22:25:48.755000Z</time>
      </trkpt>
      <trkpt lat="39.8632526" lon="116.6556319">
        <ele>26.38074</ele>
        <time>2026-08-14T22:25:52.736000Z</time>
      </trkpt>
      <trkpt lat="39.8633462" lon="116.6556436">
        <ele>26.50104</ele>
        <time>2026-08-14T22:25:56.717000Z</time>
      </trkpt>
      <trkpt lat="39.86344" lon="116.6556546">
        <ele>26.57118</ele>
        <time>2026-08-14T22:26:00.699000Z</time>
      </trkpt>
      <trkpt lat="39.8635344" lon="116.6556709">
        <ele>26.59957</ele>
        <time>2026-08-14T22:26:04.680000Z</time>
      </trkpt>
      <trkpt lat="39.8636263" lon="116.6556924">
        <ele>26.58235</ele>
        <time>2026-08-14T22:26:08.661000Z</time>
      </trkpt>
      <trkpt lat="39.8637159" lon="116.6557142">
        <ele>26.5228</ele>
        <time>2026-08-14T22:26:12.643000Z</time>
      </trkpt>
      <trkpt lat="39.8638041" lon="116.6557388">
        <ele>26.45961</ele>
        <time>2026-08-14T22:26:16.624000Z</time>
      </trkpt>
      <trkpt lat="39.8639125" lon="116.6557768">
        <ele>26.44663</ele>
        <time>2026-08-14T22:26:21.600000Z</time>
      </trkpt>
      <trkpt lat="39.8640213" lon="116.655805">
        <ele>26.46204</ele>
        <time>2026-08-14T22:26:26.577000Z</time>
      </trkpt>
      <trkpt lat="39.864129" lon="116.6558497">
        <ele>26.47376</ele>
        <time>2026-08-14T22:26:31.554000Z</time>
      </trkpt>
      <trkpt lat="39.864217" lon="116.6558858">
        <ele>26.48994</ele>
        <time>2026-08-14T22:26:35.535000Z</time>
      </trkpt>
      <trkpt lat="39.8643259" lon="116.6559227">
        <ele>26.50078</ele>
        <time>2026-08-14T22:26:40.512000Z</time>
      </trkpt>
      <trkpt lat="39.864415" lon="116.6559459">
        <ele>26.47356</ele>
        <time>2026-08-14T22:26:44.493000Z</time>
      </trkpt>
      <trkpt lat="39.8645058" lon="116.65597">
        <ele>26.40843</ele>
        <time>2026-08-14T22:26:48.474000Z</time>
      </trkpt>
      <trkpt lat="39.8645963" lon="116.6559992">
        <ele>26.32217</ele>
        <time>2026-08-14T22:26:52.456000Z</time>
      </trkpt>
      <trkpt lat="39.864686" lon="116.6560303">
        <ele>26.24939</ele>
        <time>2026-08-14T22:26:56.437000Z</time>
      </trkpt>
      <trkpt lat="39.8647768" lon="116.6560587">
        <ele>26.20588</ele>
        <time>2026-08-14T22:27:00.418000Z</time>
      </trkpt>
      <trkpt lat="39.864867" lon="116.6560852">
        <ele>26.18894</ele>
        <time>2026-08-14T22:27:04.400000Z</time>
      </trkpt>
      <trkpt lat="39.8649571" lon="116.6561093">
        <ele>26.19744</ele>
        <time>2026-08-14T22:27:08.381000Z</time>
      </trkpt>
      <trkpt lat="39.8650496" lon="116.6561364">
        <ele>26.2023</ele>
        <time>2026-08-14T22:27:12.362000Z</time>
      </trkpt>
      <trkpt lat="39.8651464" lon="116.6561637">
        <ele>26.17141</ele>
        <time>2026-08-14T22:27:16.344000Z</time>
      </trkpt>
      <trkpt lat="39.865239" lon="116.6561857">
        <ele>26.09614</ele>
        <time>2026-08-14T22:27:20.325000Z</time>
      </trkpt>
      <trkpt lat="39.8653301" lon="116.6562102">
        <ele>25.94823</ele>
        <time>2026-08-14T22:27:24.306000Z</time>
      </trkpt>
      <trkpt lat="39.8654199" lon="116.6562427">
        <ele>25.68576</ele>
        <time>2026-08-14T22:27:28.288000Z</time>
      </trkpt>
      <trkpt lat="39.8655083" lon="116.656274">
        <ele>25.27196</ele>
        <time>2026-08-14T22:27:32.269000Z</time>
      </trkpt>
      <trkpt lat="39.8655989" lon="116.6562959">
        <ele>24.63513</ele>
        <time>2026-08-14T22:27:37Z</time>
      </trkpt>
      <trkpt lat="39.8657011" lon="116.6563213">
        <ele>24.26112</ele>
        <time>2026-08-14T22:27:43Z</time>
      </trkpt>
      <trkpt lat="39.8657931" lon="116.6563538">
        <ele>24.30086</ele>
        <time>2026-08-14T22:27:47Z</time>
      </trkpt>
      <trkpt lat="39.8658803" lon="116.6563855">
        <ele>24.34779</ele>
        <time>2026-08-14T22:27:51Z</time>
      </trkpt>
      <trkpt lat="39.8659708" lon="116.6564123">
        <ele>24.36217</ele>
        <time>2026-08-14T22:27:55Z</time>
      </trkpt>
      <trkpt lat="39.8660798" lon="116.6564432">
        <ele>24.3679</ele>
        <time>2026-08-14T22:28:00Z</time>
      </trkpt>
      <trkpt lat="39.8661849" lon="116.6564767">
        <ele>24.36224</ele>
        <time>2026-08-14T22:28:05Z</time>
      </trkpt>
      <trkpt lat="39.8662732" lon="116.6565048">
        <ele>24.37785</ele>
        <time>2026-08-14T22:28:09Z</time>
      </trkpt>
      <trkpt lat="39.8663624" lon="116.6565322">
        <ele>24.40219</ele>
        <time>2026-08-14T22:28:13Z</time>
      </trkpt>
      <trkpt lat="39.866455" lon="116.6565578">
        <ele>24.42002</ele>
        <time>2026-08-14T22:28:17Z</time>
      </trkpt>
      <trkpt lat="39.866544" lon="116.6565845">
        <ele>24.43502</ele>
        <time>2026-08-14T22:28:21Z</time>
      </trkpt>
      <trkpt lat="39.8666311" lon="116.6566244">
        <ele>24.48399</ele>
        <time>2026-08-14T22:28:25Z</time>
      </trkpt>
      <trkpt lat="39.8667163" lon="116.6566683">
        <ele>24.72419</ele>
        <time>2026-08-14T22:28:29Z</time>
      </trkpt>
      <trkpt lat="39.8668263" lon="116.656702">
        <ele>25.25619</ele>
        <time>2026-08-14T22:28:33.979000Z</time>
      </trkpt>
      <trkpt lat="39.8669248" lon="116.6567219">
        <ele>25.60702</ele>
        <time>2026-08-14T22:28:37.961000Z</time>
      </trkpt>
      <trkpt lat="39.8670241" lon="116.6567452">
        <ele>25.8175</ele>
        <time>2026-08-14T22:28:41.942000Z</time>
      </trkpt>
      <trkpt lat="39.8671253" lon="116.6567743">
        <ele>25.91355</ele>
        <time>2026-08-14T22:28:45.923000Z</time>
      </trkpt>
      <trkpt lat="39.8672251" lon="116.6568024">
        <ele>25.94915</ele>
        <time>2026-08-14T22:28:49.905000Z</time>
      </trkpt>
      <trkpt lat="39.8673249" lon="116.6568284">
        <ele>25.97632</ele>
        <time>2026-08-14T22:28:53.886000Z</time>
      </trkpt>
      <trkpt lat="39.8674239" lon="116.6568534">
        <ele>26.02278</ele>
        <time>2026-08-14T22:28:57.867000Z</time>
      </trkpt>
      <trkpt lat="39.867521" lon="116.6568774">
        <ele>26.08416</ele>
        <time>2026-08-14T22:29:01.849000Z</time>
      </trkpt>
      <trkpt lat="39.8676159" lon="116.6569044">
        <ele>26.13397</ele>
        <time>2026-08-14T22:29:05.830000Z</time>
      </trkpt>
    </trkseg>
  </trk>
</gpx>