<?xml version="1.0" encoding="UTF-8"?>
<gpx xmlns="http://www.topografix.com/GPX/1/1" xmlns:gpxtpx="http://www.garmin.com/xmlschemas/TrackPointExtension/v1" xmlns:xsi="http://www.w3.org/2001/XMLSchema-instance" xsi:schemaLocation="http://www.topografix.com/GPX/1/1 http://www.topografix.com/GPX/1/1/gpx.xsd" version="1.1" creator="gpx.py -- https://github.com/tkrajina/gpxpy">
  <trk>
    <name>gpx from codoon</name>
    <type>Run</type>
    <trkseg>
      <trkpt lat="39.8727029" lon="116.6654712">
        <ele>22.9173</ele>
        <time>2026-08-19T22:23:38.002000Z</time>
      </trkpt>
      <trkpt lat="39.872791" lon="116.6655432">
        <ele>22.43455</ele>
        <time>2026-08-19T22:23:46.001000Z</time>
      </trkpt>
      <trkpt lat="39.8728917" lon="116.6655735">
        <ele>22.49563</ele>
        <time>2026-08-19T22:23:51.001000Z</time>
      </trkpt>
      <trkpt lat="39.8729896" lon="116.6655843">
        <ele>22.63726</ele>
        <time>2026-08-19T22:23:55.001000Z</time>
      </trkpt>
      <trkpt lat="39.8730833" lon="116.6656041">
        <ele>22.7901</ele>
        <time>2026-08-19T22:23:58.997000Z</time>
      </trkpt>
      <trkpt lat="39.8731791" lon="116.6656782">
        <ele>22.90294</ele>
        <time>2026-08-19T22:24:03.974000Z</time>
      </trkpt>
      <trkpt lat="39.8732535" lon="116.6657581">
        <ele>22.85306</ele>
        <time>2026-08-19T22:24:07.955000Z</time>
      </trkpt>
      <trkpt lat="39.8733429" lon="116.6658066">
        <ele>22.77639</ele>
        <time>2026-08-19T22:24:11.937000Z</time>
      </trkpt>
      <trkpt lat="39.873449" lon="116.6658405">
        <ele>22.76253</ele>
        <time>2026-08-19T22:24:16.914000Z</time>
      </trkpt>
      <trkpt lat="39.8735519" lon="116.6658425">
        <ele>22.8505</ele>
        <time>2026-08-19T22:24:21.891000Z</time>
      </trkpt>
      <trkpt lat="39.8736513" lon="116.6657881">
        <ele>23.03466</ele>
        <time>2026-08-19T22:24:26.868000Z</time>
      </trkpt>
      <trkpt lat="39.8737428" lon="116.6657201">
        <ele>23.3447</ele>
        <time>2026-08-19T22:24:31.845000Z</time>
      </trkpt>
      <trkpt lat="39.8738329" lon="116.6656533">
        <ele>23.68435</ele>
        <time>2026-08-19T22:24:36.822000Z</time>
      </trkpt>
      <trkpt lat="39.8739214" lon="116.665586">
        <ele>23.94111</ele>
        <time>2026-08-19T22:24:41.798000Z</time>
      </trkpt>
      <trkpt lat="39.8740139" lon="116.6655262">
        <ele>24.13226</ele>
        <time>2026-08-19T22:24:46.775000Z</time>
      </trkpt>
      <trkpt lat="39.874111" lon="116.6654781">
        <ele>24.2444</ele>
        <time>2026-08-19T22:24:51.752000Z</time>
      </trkpt>
      <trkpt lat="39.8742105" lon="116.665429">
        <ele>24.23159</ele>
        <time>2026-08-19T22:24:56.729000Z</time>
      </trkpt>
      <trkpt lat="39.8743166" lon="116.6653913">
        <ele>24.08942</ele>
        <time>2026-08-19T22:25:01.706000Z</time>
      </trkpt>
      <trkpt lat="39.8744208" lon="116.6654118">
        <ele>23.93672</ele>
        <time>2026-08-19T22:25:06.683000Z</time>
      </trkpt>
      <trkpt lat="39.8744797" lon="116.6655036">
        <ele>23.83676</ele>
        <time>2026-08-19T22:25:10.664000Z</time>
      </trkpt>
      <trkpt lat="39.8745267" lon="116.6656149">
        <ele>23.70938</ele>
        <time>2026-08-19T22:25:14.646000Z</time>
      </trkpt>
      <trkpt lat="39.8745733" lon="116.6657263">
        <ele>23.53995</ele>
        <time>2026-08-19T22:25:18.627000Z</time>
      </trkpt>
      <trkpt lat="39.874621" lon="116.6658336">
        <ele>23.33992</ele>
        <time>2026-08-19T22:25:22.609000Z</time>
      </trkpt>
      <trkpt lat="39.8746684" lon="116.665936">
        <ele>23.12653</ele>
        <time>2026-08-19T22:25:26.590000Z</time>
      </trkpt>
      <trkpt lat="39.874716" lon="116.6660372">
        <ele>22.92919</ele>
        <time>2026-08-19T22:25:30.572000Z</time>
      </trkpt>
      <trkpt lat="39.8747652" lon="116.666141">
        <ele>22.78329</ele>
        <time>2026-08-19T22:25:34.553000Z</time>
      </trkpt>
      <trkpt lat="39.8748159" lon="116.6662384">
        <ele>22.71305</ele>
        <time>2026-08-19T22:25:38.535000Z</time>
      </trkpt>
      <trkpt lat="39.8748798" lon="116.6663549">
        <ele>22.70318</ele>
        <time>2026-08-19T22:25:43.512000Z</time>
      </trkpt>
      <trkpt lat="39.8749456" lon="116.6664695">
        <ele>22.81717</ele>
        <time>2026-08-19T22:25:48.489000Z</time>
      </trkpt>
      <trkpt lat="39.8750159" lon="116.6665797">
        <ele>23.06891</ele>
        <time>2026-08-19T22:25:53.465000Z</time>
      </trkpt>
      <trkpt lat="39.8750863" lon="116.666688">
        <ele>23.35198</ele>
        <time>2026-08-19T22:25:58.442000Z</time>
      </trkpt>
      <trkpt lat="39.8751563" lon="116.6667969">
        <ele>23.53307</ele>
        <time>2026-08-19T22:26:03.419000Z</time>
      </trkpt>
      <trkpt lat="39.8752292" lon="116.666903">
        <ele>23.56926</ele>
        <time>2026-08-19T22:26:08.396000Z</time>
      </trkpt>
      <trkpt lat="39.8753049" lon="116.6670074">
        <ele>23.52095</ele>
        <time>2026-08-19T22:26:13.373000Z</time>
      </trkpt>
      <trkpt lat="39.8753771" lon="116.6671154">
        <ele>23.43174</ele>
        <time>2026-08-19T22:26:18.349000Z</time>
      </trkpt>
      <trkpt lat="39.8754488" lon="116.6672209">
        <ele>23.35975</ele>
        <time>2026-08-19T22:26:23.326000Z</time>
      </trkpt>
      <trkpt lat="39.8755193" lon="116.6673252">
        <ele>23.37296</ele>
        <time>2026-08-19T22:26:28.303000Z</time>
      </trkpt>
      <trkpt lat="39.8755942" lon="116.667431">
        <ele>23.45364</ele>
        <time>2026-08-19T22:26:33.280000Z</time>
      </trkpt>
      <trkpt lat="39.8756519" lon="116.6675209">
        <ele>23.52704</ele>
        <time>2026-08-19T22:26:37.261000Z</time>
      </trkpt>
      <trkpt lat="39.8757084" lon="116.667613">
        <ele>23.58624</ele>
        <time>2026-08-19T22:26:41.243000Z</time>
      </trkpt>
      <trkpt lat="39.8757621" lon="116.6677075">
        <ele>23.63618</ele>
        <time>2026-08-19T22:26:45.224000Z</time>
      </trkpt>
      <trkpt lat="39.8757966" lon="116.6678272">
        <ele>23.70239</ele>
        <time>2026-08-19T22:26:50.201000Z</time>
      </trkpt>
      <trkpt lat="39.8757243" lon="116.6679183">
        <ele>23.82507</ele>
        <time>2026-08-19T22:26:56Z</time>
      </trkpt>
      <trkpt lat="39.8756827" lon="116.6680365">
        <ele>24.05164</ele>
        <time>2026-08-19T22:27:01Z</time>
      </trkpt>
      <trkpt lat="39.8756044" lon="116.6681135">
        <ele>24.16973</ele>
        <time>2026-08-19T22:27:06Z</time>
      </trkpt>
      <trkpt lat="39.8755113" lon="116.6680967">
        <ele>23.99348</ele>
        <time>2026-08-19T22:27:10Z</time>
      </trkpt>
      <trkpt lat="39.8754196" lon="116.6680562">
        <ele>23.56165</ele>
        <time>2026-08-19T22:27:14Z</time>
      </trkpt>
      <trkpt lat="39.8753322" lon="116.6680112">
        <ele>23.07682</ele>
        <time>2026-08-19T22:27:18Z</time>
      </trkpt>
      <trkpt lat="39.8752508" lon="116.6679551">
        <ele>22.72683</ele>
        <time>2026-08-19T22:27:22Z</time>
      </trkpt>
      <trkpt lat="39.8751907" lon="116.6678633">
        <ele>22.56424</ele>
        <time>2026-08-19T22:27:26Z</time>
      </trkpt>
      <trkpt lat="39.8751357" lon="116.6677633">
        <ele>22.53333</ele>
        <time>2026-08-19T22:27:30Z</time>
      </trkpt>
      <trkpt lat="39.8750699" lon="116.6676777">
        <ele>22.51084</ele>
        <time>2026-08-19T22:27:33.996000Z</time>
      </trkpt>
      <trkpt lat="39.8749935" lon="116.6676134">
        <ele>22.4513</ele>
        <time>2026-08-19T22:27:37.977000Z</time>
      </trkpt>
      <trkpt lat="39.8748869" lon="116.6675672">
        <ele>22.31037</ele>
        <time>2026-08-19T22:27:42.954000Z</time>
      </trkpt>
      <trkpt lat="39.8747971" lon="116.6675424">
        <ele>22.16745</ele>
        <time>2026-08-19T22:27:46.935000Z</time>
      </trkpt>
      <trkpt lat="39.8747065" lon="116.6675192">
        <ele>22.05081</ele>
        <time>2026-08-19T22:27:50.917000Z</time>
      </trkpt>
      <trkpt lat="39.8746167" lon="116.6675022">
        <ele>21.97391</ele>
        <time>2026-08-19T22:27:54.898000Z</time>
      </trkpt>
      <trkpt lat="39.8745069" lon="116.6675056">
        <ele>21.91639</ele>
        <time>2026-08-19T22:27:59.875000Z</time>
      </trkpt>
      <trkpt lat="39.8743994" lon="116.6675406">
        <ele>21.85684</ele>
        <time>2026-08-19T22:28:04.852000Z</time>
      </trkpt>
      <trkpt lat="39.8742944" lon="116.6675923">
        <ele>21.74266</ele>
        <time>2026-08-19T22:28:09.828000Z</time>
      </trkpt>
      <trkpt lat="39.8742131" lon="116.6676439">
        <ele>21.63872</ele>
        <time>2026-08-19T22:28:13.810000Z</time>
      </trkpt>
      <trkpt lat="39.8741148" lon="116.667713">
        <ele>21.51982</ele>
        <time>2026-08-19T22:28:18.786000Z</time>
      </trkpt>
      <trkpt lat="39.8740292" lon="116.667752">
        <ele>21.41952</ele>
        <time>2026-08-19T22:28:22.768000Z</time>
      </trkpt>
      <trkpt lat="39.8739362" lon="116.6677744">
        <ele>21.33228</ele>
        <time>2026-08-19T22:28:26.749000Z</time>
      </trkpt>
      <trkpt lat="39.8738391" lon="116.6677834">
        <ele>21.27981</ele>
        <time>2026-08-19T22:28:30.730000Z</time>
      </trkpt>
      <trkpt lat="39.8737439" lon="116.6677771">
        <ele>21.25291</ele>
        <time>2026-08-19T22:28:34.712000Z</time>
      </trkpt>
      <trkpt lat="39.8736476" lon="116.6677604">
        <ele>21.25108</ele>
        <time>2026-08-19T22:28:38.693000Z</time>
      </trkpt>
      <trkpt lat="39.8735534" lon="116.6677326">
        <ele>21.30764</ele>
        <time>2026-08-19T22:28:42.674000Z</time>
      </trkpt>
      <trkpt lat="39.8734591" lon="116.6677092">
        <ele>21.42044</ele>
        <time>2026-08-19T22:28:46.656000Z</time>
      </trkpt>
      <trkpt lat="39.8733655" lon="116.6677139">
        <ele>21.56801</ele>
        <time>2026-08-19T22:28:50.637000Z</time>
      </trkpt>
      <trkpt lat="39.873278" lon="116.6677543">
        <ele>21.72246</ele>
        <time>2026-08-19T22:28:54.618000Z</time>
      </trkpt>
      <trkpt lat="39.8731925" lon="116.6678068">
        <ele>21.81599</ele>
        <time>2026-08-19T22:28:58.600000Z</time>
      </trkpt>
      <trkpt lat="39.8731003" lon="116.6678396">
        <ele>21.81209</ele>
        <time>2026-08-19T22:29:02.581000Z</time>
      </trkpt>
      <trkpt lat="39.8730042" lon="116.6678396">
        <ele>21.72126</ele>
        <time>2026-08-19T22:29:06.563000Z</time>
      </trkpt>
      <trkpt lat="39.8729125" lon="116.6678132">
        <ele>21.5996</ele>
        <time>2026-08-19T22:29:10.544000Z</time>
      </trkpt>
      <trkpt lat="39.8728256" lon="116.6677744">
        <ele>21.49402</ele>
        <time>2026-08-19T22:29:14.525000Z</time>
      </trkpt>
      <trkpt lat="39.8727383" lon="116.6677437">
        <ele>21.42827</ele>
        <time>2026-08-19T22:29:18.507000Z</time>
      </trkpt>
      <trkpt lat="39.8726479" lon="116.6677193">
        <ele>21.40851</ele>
        <time>2026-08-19T22:29:22.488000Z</time>
      </trkpt>
      <trkpt lat="39.8725525" lon="116.6677062">
        <ele>21.42682</ele>
        <time>2026-08-19T22:29:26.469000Z</time>
      </trkpt>
      <trkpt lat="39.8724596" lon="116.6677105">
        <ele>21.45059</ele>
        <time>2026-08-19T22:29:30.451000Z</time>
      </trkpt>
      <trkpt lat="39.8723678" lon="116.6677283">
        <ele>21.43942</ele>
        <time>2026-08-19T22:29:34.432000Z</time>
      </trkpt>
      <trkpt lat="39.8722772" lon="116.6677495">
        <ele>21.39792</ele>
        <time>2026-08-19T22:29:38.413000Z</time>
      </trkpt>
      <trkpt lat="39.8721816" lon="116.667758">
        <ele>21.32929</ele>
        <time>2026-08-19T22:29:42.395000Z</time>
      </trkpt>
      <trkpt lat="39.8720858" lon="116.6677535">
        <ele>21.21857</ele>
        <time>2026-08-19T22:29:46.376000Z</time>
      </trkpt>
      <trkpt lat="39.8719917" lon="116.6677362">
        <ele>21.05463</ele>
        <time>2026-08-19T22:29:50.357000Z</time>
      </trkpt>
      <trkpt lat="39.8718985" lon="116.6677018">
        <ele>20.86556</ele>
        <time>2026-08-19T22:29:54.338000Z</time>
      </trkpt>
      <trkpt lat="39.8718081" lon="116.667651">
        <ele>20.69572</ele>
        <time>2026-08-19T22:29:58.320000Z</time>
      </trkpt>
      <trkpt lat="39.8717156" lon="116.6675989">
        <ele>20.56472</ele>
        <time>2026-08-19T22:30:02.301000Z</time>
      </trkpt>
      <trkpt lat="39.871621" lon="116.6675573">
        <ele>20.48842</ele>
        <time>2026-08-19T22:30:06.282000Z</time>
      </trkpt>
      <trkpt lat="39.8715261" lon="116.6675305">
        <ele>20.47184</ele>
        <time>2026-08-19T22:30:10.264000Z</time>
      </trkpt>
      <trkpt lat="39.8714319" lon="116.6675184">
        <ele>20.50255</ele>
        <time>2026-08-19T22:30:14.245000Z</time>
      </trkpt>
      <trkpt lat="39.8713404" lon="116.6675232">
        <ele>20.57121</ele>
        <time>2026-08-19T22:30:18.226000Z</time>
      </trkpt>
      <trkpt lat="39.8712505" lon="116.667533">
        <ele>20.67344</ele>
        <time>2026-08-19T22:30:22.208000Z</time>
      </trkpt>
      <trkpt lat="39.8711414" lon="116.6675404">
        <ele>20.8174</ele>
        <time>2026-08-19T22:30:27Z</time>
      </trkpt>
      <trkpt lat="39.8710486" lon="116.6676026">
        <ele>20.90622</ele>
        <time>2026-08-19T22:30:32Z</time>
      </trkpt>
      <trkpt lat="39.8710101" lon="116.6677101">
        <ele>20.83976</ele>
        <time>2026-08-19T22:30:36Z</time>
      </trkpt>
      <trkpt lat="39.8709652" lon="116.667816">
        <ele>20.61505</ele>
        <time>2026-08-19T22:30:40Z</time>
      </trkpt>
      <trkpt lat="39.8708815" lon="116.6678605">
        <ele>20.41585</ele>
        <time>2026-08-19T22:30:44Z</time>
      </trkpt>
      <trkpt lat="39.8707862" lon="116.6678603">
        <ele>20.37522</ele>
        <time>2026-08-19T22:30:48Z</time>
      </trkpt>
      <trkpt lat="39.8706904" lon="116.6678551">
        <ele>20.43225</ele>
        <time>2026-08-19T22:30:52Z</time>
      </trkpt>
      <trkpt lat="39.8705978" lon="116.6678537">
        <ele>20.53355</ele>
        <time>2026-08-19T22:30:56Z</time>
      </trkpt>
      <trkpt lat="39.8705042" lon="116.6678552">
        <ele>20.67946</ele>
        <time>2026-08-19T22:31:00Z</time>
      </trkpt>
      <trkpt lat="39.8704097" lon="116.6678464">
        <ele>20.86035</ele>
        <time>2026-08-19T22:31:04Z</time>
      </trkpt>
      <trkpt lat="39.8703241" lon="116.6678044">
        <ele>20.95076</ele>
        <time>2026-08-19T22:31:07.993000Z</time>
      </trkpt>
      <trkpt lat="39.8702174" lon="116.6677635">
        <ele>20.90413</ele>
        <time>2026-08-19T22:31:12.969000Z</time>
      </trkpt>
      <trkpt lat="39.8701266" lon="116.6677798">
        <ele>20.80225</ele>
        <time>2026-08-19T22:31:16.951000Z</time>
      </trkpt>
      <trkpt lat="39.8700347" lon="116.667788">
        <ele>20.69862</ele>
        <time>2026-08-19T22:31:20.932000Z</time>
      </trkpt>
      <trkpt lat="39.8699403" lon="116.667777">
        <ele>20.61579</ele>
        <time>2026-08-19T22:31:24.913000Z</time>
      </trkpt>
      <trkpt lat="39.8698468" lon="116.667748">
        <ele>20.5543</ele>
        <time>2026-08-19T22:31:28.894000Z</time>
      </trkpt>
      <trkpt lat="39.8697524" lon="116.6677254">
        <ele>20.54838</ele>
        <time>2026-08-19T22:31:32.876000Z</time>
      </trkpt>
      <trkpt lat="39.8696612" lon="116.6677292">
        <ele>20.60644</ele>
        <time>2026-08-19T22:31:36.857000Z</time>
      </trkpt>
      <trkpt lat="39.8695628" lon="116.6677815">
        <ele>20.75053</ele>
        <time>2026-08-19T22:31:41.834000Z</time>
      </trkpt>
      <trkpt lat="39.8694991" lon="116.6678864">
        <ele>20.9446</ele>
        <time>2026-08-19T22:31:46.810000Z</time>
      </trkpt>
      <trkpt lat="39.8694718" lon="116.668023">
        <ele>21.12701</ele>
        <time>2026-08-19T22:31:51.787000Z</time>
      </trkpt>
      <trkpt lat="39.869476" lon="116.6681682">
        <ele>21.24563</ele>
        <time>2026-08-19T22:31:56.764000Z</time>
      </trkpt>
      <trkpt lat="39.8695291" lon="116.6682949">
        <ele>21.26107</ele>
        <time>2026-08-19T22:32:01.740000Z</time>
      </trkpt>
      <trkpt lat="39.8696209" lon="116.6683693">
        <ele>21.19205</ele>
        <time>2026-08-19T22:32:06.717000Z</time>
      </trkpt>
      <trkpt lat="39.8697304" lon="116.6683594">
        <ele>21.10144</ele>
        <time>2026-08-19T22:32:11.693000Z</time>
      </trkpt>
      <trkpt lat="39.8698321" lon="116.6683147">
        <ele>21.05513</ele>
        <time>2026-08-19T22:32:16.670000Z</time>
      </trkpt>
      <trkpt lat="39.8699208" lon="116.6682924">
        <ele>21.04153</ele>
        <time>2026-08-19T22:32:20.651000Z</time>
      </trkpt>
      <trkpt lat="39.8700119" lon="116.6682914">
        <ele>21.02018</ele>
        <time>2026-08-19T22:32:24.632000Z</time>
      </trkpt>
      <trkpt lat="39.8701047" lon="116.6682969">
        <ele>20.95065</ele>
        <time>2026-08-19T22:32:28.614000Z</time>
      </trkpt>
      <trkpt lat="39.8701937" lon="116.6682767">
        <ele>20.82825</ele>
        <time>2026-08-19T22:32:32.595000Z</time>
      </trkpt>
      <trkpt lat="39.8702979" lon="116.6682226">
        <ele>20.69348</ele>
        <time>2026-08-19T22:32:37.572000Z</time>
      </trkpt>
      <trkpt lat="39.8703785" lon="116.6681659">
        <ele>20.63215</ele>
        <time>2026-08-19T22:32:41.553000Z</time>
      </trkpt>
      <trkpt lat="39.870461" lon="116.6681189">
        <ele>20.59523</ele>
        <time>2026-08-19T22:32:45.534000Z</time>
      </trkpt>
      <trkpt lat="39.8705526" lon="116.6681003">
        <ele>20.56514</ele>
        <time>2026-08-19T22:32:49.515000Z</time>
      </trkpt>
      <trkpt lat="39.8706443" lon="116.6681084">
        <ele>20.54797</ele>
        <time>2026-08-19T22:32:53.497000Z</time>
      </trkpt>
      <trkpt lat="39.8707328" lon="116.668132">
        <ele>20.58071</ele>
        <time>2026-08-19T22:32:57.478000Z</time>
      </trkpt>
      <trkpt lat="39.8708214" lon="116.6681533">
        <ele>20.6634</ele>
        <time>2026-08-19T22:33:01.459000Z</time>
      </trkpt>
      <trkpt lat="39.8709146" lon="116.6681513">
        <ele>20.79201</ele>
        <time>2026-08-19T22:33:05.440000Z</time>
      </trkpt>
      <trkpt lat="39.8710079" lon="116.6681286">
        <ele>20.9662</ele>
        <time>2026-08-19T22:33:09.422000Z</time>
      </trkpt>
      <trkpt lat="39.8710961" lon="116.6680956">
        <ele>21.14753</ele>
        <time>2026-08-19T22:33:13.403000Z</time>
      </trkpt>
      <trkpt lat="39.8711984" lon="116.6680416">
        <ele>21.27491</ele>
        <time>2026-08-19T22:33:18.379000Z</time>
      </trkpt>
      <trkpt lat="39.871286" lon="116.6680031">
        <ele>21.2565</ele>
        <time>2026-08-19T22:33:22.361000Z</time>
      </trkpt>
      <trkpt lat="39.8713757" lon="116.6679761">
        <ele>21.15303</ele>
        <time>2026-08-19T22:33:26.342000Z</time>
      </trkpt>
      <trkpt lat="39.8714661" lon="116.6679727">
        <ele>20.98908</ele>
        <time>2026-08-19T22:33:30.323000Z</time>
      </trkpt>
      <trkpt lat="39.8715572" lon="116.6679918">
        <ele>20.80067</ele>
        <time>2026-08-19T22:33:34.304000Z</time>
      </trkpt>
      <trkpt lat="39.8716452" lon="116.6680294">
        <ele>20.64192</ele>
        <time>2026-08-19T22:33:38.286000Z</time>
      </trkpt>
      <trkpt lat="39.8717275" lon="116.6680877">
        <ele>20.57023</ele>
        <time>2026-08-19T22:33:42.267000Z</time>
      </trkpt>
      <trkpt lat="39.8718132" lon="116.6681451">
        <ele>20.59948</ele>
        <time>2026-08-19T22:33:46.248000Z</time>
      </trkpt>
      <trkpt lat="39.8719041" lon="116.6681885">
        <ele>20.72579</ele>
        <time>2026-08-19T22:33:50.229000Z</time>
      </trkpt>
      <trkpt lat="39.8719971" lon="116.6682116">
        <ele>20.94031</ele>
        <time>2026-08-19T22:33:54.210000Z</time>
      </trkpt>
      <trkpt lat="39.8721107" lon="116.6682175">
        <ele>21.22204</ele>
        <time>2026-08-19T22:33:59.001000Z</time>
      </trkpt>
      <trkpt lat="39.8722083" lon="116.6682194">
        <ele>21.39328</ele>
        <time>2026-08-19T22:34:03Z</time>
      </trkpt>
      <trkpt lat="39.8723016" lon="116.6682403">
        <ele>21.53408</ele>
        <time>2026-08-19T22:34:07Z</time>
      </trkpt>
      <trkpt lat="39.8723869" lon="116.6682901">
        <ele>21.6825</ele>
        <time>2026-08-19T22:34:11Z</time>
      </trkpt>
      <trkpt lat="39.8724622" lon="116.6683662">
        <ele>21.80281</ele>
        <time>2026-08-19T22:34:15Z</time>
      </trkpt>
      <trkpt lat="39.8725253" lon="116.6684633">
        <ele>21.85136</ele>
        <time>2026-08-19T22:34:19Z</time>
      </trkpt>
      <trkpt lat="39.8725775" lon="116.6685756">
        <ele>21.77265</ele>
        <time>2026-08-19T22:34:23Z</time>
      </trkpt>
      <trkpt lat="39.8726077" lon="116.6686961">
        <ele>21.63034</ele>
        <time>2026-08-19T22:34:27Z</time>
      </trkpt>
      <trkpt lat="39.8726187" lon="116.6688175">
        <ele>21.52462</ele>
        <time>2026-08-19T22:34:31Z</time>
      </trkpt>
      <trkpt lat="39.8726079" lon="116.6689386">
        <ele>21.49909</ele>
        <time>2026-08-19T22:34:35Z</time>
      </trkpt>
      <trkpt lat="39.8725762" lon="116.6690596">
        <ele>21.5671</ele>
        <time>2026-08-19T22:34:38.999000Z</time>
      </trkpt>
      <trkpt lat="39.8725427" lon="116.6691779">
        <ele>21.68367</ele>
        <time>2026-08-19T22:34:42.981000Z</time>
      </trkpt>
      <trkpt lat="39.8725128" lon="116.6692941">
        <ele>21.75816</ele>
        <time>2026-08-19T22:34:46.962000Z</time>
      </trkpt>
      <trkpt lat="39.8724951" lon="116.6694113">
        <ele>21.77752</ele>
        <time>2026-08-19T22:34:50.943000Z</time>
      </trkpt>
      <trkpt lat="39.8724911" lon="116.6695298">
        <ele>21.7696</ele>
        <time>2026-08-19T22:34:54.924000Z</time>
      </trkpt>
      <trkpt lat="39.8724972" lon="116.6696473">
        <ele>21.72133</ele>
        <time>2026-08-19T22:34:58.906000Z</time>
      </trkpt>
      <trkpt lat="39.872516" lon="116.6697625">
        <ele>21.63416</ele>
        <time>2026-08-19T22:35:02.887000Z</time>
      </trkpt>
      <trkpt lat="39.8725534" lon="116.6698689">
        <ele>21.55619</ele>
        <time>2026-08-19T22:35:06.868000Z</time>
      </trkpt>
      <trkpt lat="39.8726128" lon="116.6699615">
        <ele>21.5054</ele>
        <time>2026-08-19T22:35:10.849000Z</time>
      </trkpt>
      <trkpt lat="39.8726849" lon="116.6700348">
        <ele>21.43507</ele>
        <time>2026-08-19T22:35:14.830000Z</time>
      </trkpt>
      <trkpt lat="39.8727684" lon="116.670087">
        <ele>21.34803</ele>
        <time>2026-08-19T22:35:18.812000Z</time>
      </trkpt>
      <trkpt lat="39.8728571" lon="116.670124">
        <ele>21.29193</ele>
        <time>2026-08-19T22:35:22.793000Z</time>
      </trkpt>
      <trkpt lat="39.8729474" lon="116.6701509">
        <ele>21.27651</ele>
        <time>2026-08-19T22:35:26.774000Z</time>
      </trkpt>
      <trkpt lat="39.8730423" lon="116.6701607">
        <ele>21.29482</ele>
        <time>2026-08-19T22:35:30.755000Z</time>
      </trkpt>
      <trkpt lat="39.8731351" lon="116.6701516">
        <ele>21.32428</ele>
        <time>2026-08-19T22:35:34.737000Z</time>
      </trkpt>
      <trkpt lat="39.8732275" lon="116.670126">
        <ele>21.33385</ele>
        <time>2026-08-19T22:35:38.718000Z</time>
      </trkpt>
      <trkpt lat="39.8733168" lon="116.6700916">
        <ele>21.32055</ele>
        <time>2026-08-19T22:35:42.699000Z</time>
      </trkpt>
      <trkpt lat="39.8734004" lon="116.6700424">
        <ele>21.29137</ele>
        <time>2026-08-19T22:35:46.680000Z</time>
      </trkpt>
      <trkpt lat="39.8734801" lon="116.669977">
        <ele>21.27861</ele>
        <time>2026-08-19T22:35:50.662000Z</time>
      </trkpt>
      <trkpt lat="39.8735624" lon="116.6699095">
        <ele>21.29373</ele>
        <time>2026-08-19T22:35:54.643000Z</time>
      </trkpt>
      <trkpt lat="39.8736463" lon="116.6698417">
        <ele>21.31668</ele>
        <time>2026-08-19T22:35:58.624000Z</time>
      </trkpt>
      <trkpt lat="39.8737365" lon="116.6697926">
        <ele>21.33334</ele>
        <time>2026-08-19T22:36:02.605000Z</time>
      </trkpt>
      <trkpt lat="39.8738297" lon="116.6697826">
        <ele>21.34242</ele>
        <time>2026-08-19T22:36:06.587000Z</time>
      </trkpt>
      <trkpt lat="39.8739251" lon="116.6698069">
        <ele>21.36134</ele>
        <time>2026-08-19T22:36:10.568000Z</time>
      </trkpt>
      <trkpt lat="39.8740193" lon="116.66984">
        <ele>21.39939</ele>
        <time>2026-08-19T22:36:14.549000Z</time>
      </trkpt>
      <trkpt lat="39.874117" lon="116.6698596">
        <ele>21.43535</ele>
        <time>2026-08-19T22:36:18.530000Z</time>
      </trkpt>
      <trkpt lat="39.8742116" lon="116.6698517">
        <ele>21.46167</ele>
        <time>2026-08-19T22:36:22.512000Z</time>
      </trkpt>
      <trkpt lat="39.8743058" lon="116.6698084">
        <ele>21.48375</ele>
        <time>2026-08-19T22:36:26.493000Z</time>
      </trkpt>
      <trkpt lat="39.8743831" lon="116.6697323">
        <ele>21.53321</ele>
        <time>2026-08-19T22:36:30.474000Z</time>
      </trkpt>
      <trkpt lat="39.8744504" lon="116.6696402">
        <ele>21.64002</ele>
        <time>2026-08-19T22:36:34.455000Z</time>
      </trkpt>
      <trkpt lat="39.874521" lon="116.6695563">
        <ele>21.79608</ele>
        <time>2026-08-19T22:36:38.437000Z</time>
      </trkpt>
      <trkpt lat="39.8746061" lon="116.6694976">
        <ele>21.97481</ele>
        <time>2026-08-19T22:36:42.418000Z</time>
      </trkpt>
      <trkpt lat="39.8746984" lon="116.6694831">
        <ele>22.15845</ele>
        <time>2026-08-19T22:36:46.399000Z</time>
      </trkpt>
      <trkpt lat="39.8747952" lon="116.6695156">
        <ele>22.34903</ele>
        <time>2026-08-19T22:36:50.380000Z</time>
      </trkpt>
      <trkpt lat="39.8748826" lon="116.6695673">
        <ele>22.55433</ele>
        <time>2026-08-19T22:36:54.362000Z</time>
      </trkpt>
      <trkpt lat="39.8749568" lon="116.6696395">
        <ele>22.75947</ele>
        <time>2026-08-19T22:36:58.343000Z</time>
      </trkpt>
      <trkpt lat="39.8750568" lon="116.669701">
        <ele>23.02623</ele>
        <time>2026-08-19T22:37:03.319000Z</time>
      </trkpt>
      <trkpt lat="39.8751513" lon="116.6696801">
        <ele>23.22246</ele>
        <time>2026-08-19T22:37:07.301000Z</time>
      </trkpt>
      <trkpt lat="39.8752404" lon="116.6696244">
        <ele>23.3819</ele>
        <time>2026-08-19T22:37:11.282000Z</time>
      </trkpt>
      <trkpt lat="39.8753291" lon="116.6695747">
        <ele>23.48705</ele>
        <time>2026-08-19T22:37:15.263000Z</time>
      </trkpt>
      <trkpt lat="39.8754191" lon="116.6695423">
        <ele>23.51616</ele>
        <time>2026-08-19T22:37:19.244000Z</time>
      </trkpt>
      <trkpt lat="39.8755092" lon="116.6695005">
        <ele>23.49488</ele>
        <time>2026-08-19T22:37:23.226000Z</time>
      </trkpt>
      <trkpt lat="39.8755854" lon="116.6694234">
        <ele>23.47374</ele>
        <time>2026-08-19T22:37:27.207000Z</time>
      </trkpt>
      <trkpt lat="39.875636" lon="116.6693186">
        <ele>23.44377</ele>
        <time>2026-08-19T22:37:31.188000Z</time>
      </trkpt>
      <trkpt lat="39.875654" lon="116.6691979">
        <ele>23.34675</ele>
        <time>2026-08-19T22:37:35.169000Z</time>
      </trkpt>
      <trkpt lat="39.8756454" lon="116.6690562">
        <ele>23.19546</ele>
        <time>2026-08-19T22:37:40.001000Z</time>
      </trkpt>
      <trkpt lat="39.8756168" lon="116.668944">
        <ele>23.13908</ele>
        <time>2026-08-19T22:37:44.001000Z</time>
      </trkpt>
      <trkpt lat="39.875566" lon="116.6688379">
        <ele>23.09359</ele>
        <time>2026-08-19T22:37:48.001000Z</time>
      </trkpt>
      <trkpt lat="39.8754985" lon="116.6687523">
        <ele>23.03697</ele>
        <time>2026-08-19T22:37:52.090000Z</time>
      </trkpt>
      <trkpt lat="39.8754206" lon="116.6686473">
        <ele>22.92095</ele>
        <time>2026-08-19T22:37:57.001000Z</time>
      </trkpt>
      <trkpt lat="39.8753671" lon="116.6685428">
        <ele>22.84041</ele>
        <time>2026-08-19T22:38:01.001000Z</time>
      </trkpt>
      <trkpt lat="39.8753281" lon="116.6684257">
        <ele>22.76767</ele>
        <time>2026-08-19T22:38:05.001000Z</time>
      </trkpt>
      <trkpt lat="39.8753" lon="116.6683069">
        <ele>22.72769</ele>
        <time>2026-08-19T22:38:09.001000Z</time>
      </trkpt>
      <trkpt lat="39.8752729" lon="116.6681877">
        <ele>22.7567</ele>
        <time>2026-08-19T22:38:12.991000Z</time>
      </trkpt>
      <trkpt lat="39.875239" lon="116.6680702">
        <ele>22.80152</ele>
        <time>2026-08-19T22:38:16.973000Z</time>
      </trkpt>
      <trkpt lat="39.8752011" lon="116.6679611">
        <ele>22.81811</ele>
        <time>2026-08-19T22:38:20.954000Z</time>
      </trkpt>
      <trkpt lat="39.8751576" lon="116.6678535">
        <ele>22.79334</ele>
        <time>2026-08-19T22:38:24.935000Z</time>
      </trkpt>
      <trkpt lat="39.8751015" lon="116.6677597">
        <ele>22.73652</ele>
        <time>2026-08-19T22:38:28.916000Z</time>
      </trkpt>
      <trkpt lat="39.875032" lon="116.6676776">
        <ele>22.6422</ele>
        <time>2026-08-19T22:38:32.898000Z</time>
      </trkpt>
      <trkpt lat="39.8749467" lon="116.6676154">
        <ele>22.51648</ele>
        <time>2026-08-19T22:38:36.879000Z</time>
      </trkpt>
      <trkpt lat="39.8748545" lon="116.6675768">
        <ele>22.37494</ele>
        <time>2026-08-19T22:38:40.860000Z</time>
      </trkpt>
      <trkpt lat="39.8747604" lon="116.6675459">
        <ele>22.23269</ele>
        <time>2026-08-19T22:38:44.841000Z</time>
      </trkpt>
      <trkpt lat="39.8746627" lon="116.6675187">
        <ele>22.10136</ele>
        <time>2026-08-19T22:38:48.823000Z</time>
      </trkpt>
      <trkpt lat="39.8745648" lon="116.6675061">
        <ele>21.98824</ele>
        <time>2026-08-19T22:38:52.804000Z</time>
      </trkpt>
      <trkpt lat="39.874469" lon="116.6675138">
        <ele>21.90515</ele>
        <time>2026-08-19T22:38:56.785000Z</time>
      </trkpt>
      <trkpt lat="39.8743747" lon="116.6675383">
        <ele>21.84523</ele>
        <time>2026-08-19T22:39:00.766000Z</time>
      </trkpt>
      <trkpt lat="39.8742852" lon="116.6675839">
        <ele>21.77867</ele>
        <time>2026-08-19T22:39:04.748000Z</time>
      </trkpt>
      <trkpt lat="39.8741997" lon="116.6676424">
        <ele>21.67222</ele>
        <time>2026-08-19T22:39:08.729000Z</time>
      </trkpt>
      <trkpt lat="39.8741177" lon="116.6677056">
        <ele>21.54527</ele>
        <time>2026-08-19T22:39:12.710000Z</time>
      </trkpt>
      <trkpt lat="39.8740313" lon="116.6677648">
        <ele>21.45517</ele>
        <time>2026-08-19T22:39:16.691000Z</time>
      </trkpt>
      <trkpt lat="39.8739384" lon="116.6678069">
        <ele>21.42476</ele>
        <time>2026-08-19T22:39:20.673000Z</time>
      </trkpt>
      <trkpt lat="39.8738426" lon="116.6678173">
        <ele>21.448</ele>
        <time>2026-08-19T22:39:24.654000Z</time>
      </trkpt>
      <trkpt lat="39.8737483" lon="116.6678068">
        <ele>21.51315</ele>
        <time>2026-08-19T22:39:28.635000Z</time>
      </trkpt>
      <trkpt lat="39.8736511" lon="116.6677836">
        <ele>21.59187</ele>
        <time>2026-08-19T22:39:32.616000Z</time>
      </trkpt>
      <trkpt lat="39.8735533" lon="116.6677595">
        <ele>21.66153</ele>
        <time>2026-08-19T22:39:36.598000Z</time>
      </trkpt>
      <trkpt lat="39.8734561" lon="116.6677389">
        <ele>21.72523</ele>
        <time>2026-08-19T22:39:40.579000Z</time>
      </trkpt>
      <trkpt lat="39.8733629" lon="116.667748">
        <ele>21.79673</ele>
        <time>2026-08-19T22:39:44.560000Z</time>
      </trkpt>
      <trkpt lat="39.8732744" lon="116.667787">
        <ele>21.85063</ele>
        <time>2026-08-19T22:39:48.541000Z</time>
      </trkpt>
      <trkpt lat="39.8731863" lon="116.6678365">
        <ele>21.85312</ele>
        <time>2026-08-19T22:39:52.523000Z</time>
      </trkpt>
      <trkpt lat="39.8730952" lon="116.6678617">
        <ele>21.83508</ele>
        <time>2026-08-19T22:39:56.504000Z</time>
      </trkpt>
      <trkpt lat="39.8730003" lon="116.6678553">
        <ele>21.79659</ele>
        <time>2026-08-19T22:40:00.485000Z</time>
      </trkpt>
      <trkpt lat="39.8729084" lon="116.6678252">
        <ele>21.73852</ele>
        <time>2026-08-19T22:40:04.467000Z</time>
      </trkpt>
      <trkpt lat="39.8728171" lon="116.667791">
        <ele>21.68805</ele>
        <time>2026-08-19T22:40:08.448000Z</time>
      </trkpt>
      <trkpt lat="39.8727279" lon="116.667748">
        <ele>21.68332</ele>
        <time>2026-08-19T22:40:12.429000Z</time>
      </trkpt>
      <trkpt lat="39.8726327" lon="116.6677108">
        <ele>21.72802</ele>
        <time>2026-08-19T22:40:16.410000Z</time>
      </trkpt>
      <trkpt lat="39.8725357" lon="116.6676955">
        <ele>21.77746</ele>
        <time>2026-08-19T22:40:20.392000Z</time>
      </trkpt>
      <trkpt lat="39.8724409" lon="116.6676981">
        <ele>21.74944</ele>
        <time>2026-08-19T22:40:24.373000Z</time>
      </trkpt>
      <trkpt lat="39.8723471" lon="116.6677113">
        <ele>21.59985</ele>
        <time>2026-08-19T22:40:28.354000Z</time>
      </trkpt>
      <trkpt lat="39.8722526" lon="116.6677246">
        <ele>21.40197</ele>
        <time>2026-08-19T22:40:32.335000Z</time>
      </trkpt>
      <trkpt lat="39.8721562" lon="116.6677267">
        <ele>21.2316</ele>
        <time>2026-08-19T22:40:36.317000Z</time>
      </trkpt>
      <trkpt lat="39.8720621" lon="116.6677149">
        <ele>21.10896</ele>
        <time>2026-08-19T22:40:40.298000Z</time>
      </trkpt>
      <trkpt lat="39.8719689" lon="116.6676886">
        <ele>21.00485</ele>
        <time>2026-08-19T22:40:44.279000Z</time>
      </trkpt>
      <trkpt lat="39.8718776" lon="116.6676478">
        <ele>20.89822</ele>
        <time>2026-08-19T22:40:48.261000Z</time>
      </trkpt>
      <trkpt lat="39.8717873" lon="116.6676006">
        <ele>20.85429</ele>
        <time>2026-08-19T22:40:52.242000Z</time>
      </trkpt>
      <trkpt lat="39.8716931" lon="116.6675554">
        <ele>20.91884</ele>
        <time>2026-08-19T22:40:56.223000Z</time>
      </trkpt>
      <trkpt lat="39.8715962" lon="116.6675204">
        <ele>21.05439</ele>
        <time>2026-08-19T22:41:00.204000Z</time>
      </trkpt>
      <trkpt lat="39.8715074" lon="116.6674995">
        <ele>21.16191</ele>
        <time>2026-08-19T22:41:04Z</time>
      </trkpt>
      <trkpt lat="39.8714153" lon="116.6674954">
        <ele>21.1478</ele>
        <time>2026-08-19T22:41:08Z</time>
      </trkpt>
      <trkpt lat="39.871322" lon="116.6675012">
        <ele>21.0488</ele>
        <time>2026-08-19T22:41:12Z</time>
      </trkpt>
      <trkpt lat="39.8712263" lon="116.6675052">
        <ele>20.97472</ele>
        <time>2026-08-19T22:41:16.130000Z</time>
      </trkpt>
      <trkpt lat="39.8711345" lon="116.667516">
        <ele>21.02048</ele>
        <time>2026-08-19T22:41:20Z</time>
      </trkpt>
      <trkpt lat="39.8710489" lon="116.6675535">
        <ele>21.0979</ele>
        <time>2026-08-19T22:41:24Z</time>
      </trkpt>
      <trkpt lat="39.8709971" lon="116.6676515">
        <ele>21.07699</ele>
        <time>2026-08-19T22:41:28Z</time>
      </trkpt>
      <trkpt lat="39.8709651" lon="116.6677748">
        <ele>20.9065</ele>
        <time>2026-08-19T22:41:32Z</time>
      </trkpt>
      <trkpt lat="39.8708852" lon="116.6678657">
        <ele>20.65919</ele>
        <time>2026-08-19T22:41:37Z</time>
      </trkpt>
      <trkpt lat="39.8707926" lon="116.6678705">
        <ele>20.62331</ele>
        <time>2026-08-19T22:41:41.013000Z</time>
      </trkpt>
      <trkpt lat="39.8706953" lon="116.6678556">
        <ele>20.68332</ele>
        <time>2026-08-19T22:41:44.994000Z</time>
      </trkpt>
      <trkpt lat="39.8706011" lon="116.6678554">
        <ele>20.75902</ele>
        <time>2026-08-19T22:41:48.975000Z</time>
      </trkpt>
      <trkpt lat="39.8705076" lon="116.667856">
        <ele>20.815</ele>
        <time>2026-08-19T22:41:52.956000Z</time>
      </trkpt>
      <trkpt lat="39.870417" lon="116.6678483">
        <ele>20.86107</ele>
        <time>2026-08-19T22:41:56.938000Z</time>
      </trkpt>
      <trkpt lat="39.870317" lon="116.6677943">
        <ele>20.91277</ele>
        <time>2026-08-19T22:42:01.914000Z</time>
      </trkpt>
      <trkpt lat="39.8702151" lon="116.6677587">
        <ele>20.93042</ele>
        <time>2026-08-19T22:42:06.891000Z</time>
      </trkpt>
      <trkpt lat="39.8701047" lon="116.6677719">
        <ele>20.88627</ele>
        <time>2026-08-19T22:42:11.868000Z</time>
      </trkpt>
      <trkpt lat="39.8700129" lon="116.6677736">
        <ele>20.79026</ele>
        <time>2026-08-19T22:42:15.849000Z</time>
      </trkpt>
      <trkpt lat="39.8699208" lon="116.6677588">
        <ele>20.66535</ele>
        <time>2026-08-19T22:42:19.830000Z</time>
      </trkpt>
      <trkpt lat="39.8698277" lon="116.6677364">
        <ele>20.57553</ele>
        <time>2026-08-19T22:42:23.811000Z</time>
      </trkpt>
      <trkpt lat="39.8697376" lon="116.6677208">
        <ele>20.55461</ele>
        <time>2026-08-19T22:42:27.793000Z</time>
      </trkpt>
      <trkpt lat="39.8696307" lon="116.6677452">
        <ele>20.58465</ele>
        <time>2026-08-19T22:42:32.769000Z</time>
      </trkpt>
      <trkpt lat="39.8695457" lon="116.6678369">
        <ele>20.65483</ele>
        <time>2026-08-19T22:42:37.746000Z</time>
      </trkpt>
      <trkpt lat="39.8695005" lon="116.667968">
        <ele>20.74829</ele>
        <time>2026-08-19T22:42:42.723000Z</time>
      </trkpt>
      <trkpt lat="39.8694918" lon="116.668087">
        <ele>20.84396</ele>
        <time>2026-08-19T22:42:46.704000Z</time>
      </trkpt>
      <trkpt lat="39.8695112" lon="116.6682283">
        <ele>20.88895</ele>
        <time>2026-08-19T22:42:51.680000Z</time>
      </trkpt>
      <trkpt lat="39.8695775" lon="116.668337">
        <ele>20.84567</ele>
        <time>2026-08-19T22:42:56.657000Z</time>
      </trkpt>
      <trkpt lat="39.8696812" lon="116.6683689">
        <ele>20.80689</ele>
        <time>2026-08-19T22:43:01.634000Z</time>
      </trkpt>
      <trkpt lat="39.8697703" lon="116.6683446">
        <ele>20.80013</ele>
        <time>2026-08-19T22:43:05.615000Z</time>
      </trkpt>
      <trkpt lat="39.8698789" lon="116.6683077">
        <ele>20.84744</ele>
        <time>2026-08-19T22:43:10.592000Z</time>
      </trkpt>
      <trkpt lat="39.8699697" lon="116.6682971">
        <ele>20.91197</ele>
        <time>2026-08-19T22:43:14.573000Z</time>
      </trkpt>
      <trkpt lat="39.8700642" lon="116.6683012">
        <ele>20.95445</ele>
        <time>2026-08-19T22:43:18.554000Z</time>
      </trkpt>
      <trkpt lat="39.87016" lon="116.6682894">
        <ele>20.94656</ele>
        <time>2026-08-19T22:43:22.536000Z</time>
      </trkpt>
      <trkpt lat="39.8702475" lon="116.6682499">
        <ele>20.8945</ele>
        <time>2026-08-19T22:43:26.517000Z</time>
      </trkpt>
      <trkpt lat="39.8703479" lon="116.6681842">
        <ele>20.79709</ele>
        <time>2026-08-19T22:43:31.493000Z</time>
      </trkpt>
      <trkpt lat="39.8704264" lon="116.6681239">
        <ele>20.70576</ele>
        <time>2026-08-19T22:43:35.475000Z</time>
      </trkpt>
      <trkpt lat="39.8705154" lon="116.6680917">
        <ele>20.59369</ele>
        <time>2026-08-19T22:43:39.456000Z</time>
      </trkpt>
      <trkpt lat="39.8706143" lon="116.6680938">
        <ele>20.50224</ele>
        <time>2026-08-19T22:43:43.437000Z</time>
      </trkpt>
      <trkpt lat="39.8707134" lon="116.6681182">
        <ele>20.5007</ele>
        <time>2026-08-19T22:43:47.419000Z</time>
      </trkpt>
      <trkpt lat="39.8708125" lon="116.6681417">
        <ele>20.59291</ele>
        <time>2026-08-19T22:43:51.400000Z</time>
      </trkpt>
      <trkpt lat="39.8709127" lon="116.6681381">
        <ele>20.72158</ele>
        <time>2026-08-19T22:43:55.381000Z</time>
      </trkpt>
      <trkpt lat="39.8710083" lon="116.6681121">
        <ele>20.85563</ele>
        <time>2026-08-19T22:43:59.363000Z</time>
      </trkpt>
      <trkpt lat="39.8710942" lon="116.6680711">
        <ele>20.98498</ele>
        <time>2026-08-19T22:44:03.344000Z</time>
      </trkpt>
      <trkpt lat="39.8711905" lon="116.6680049">
        <ele>21.12148</ele>
        <time>2026-08-19T22:44:08.320000Z</time>
      </trkpt>
      <trkpt lat="39.8712942" lon="116.6679519">
        <ele>21.17848</ele>
        <time>2026-08-19T22:44:13.297000Z</time>
      </trkpt>
      <trkpt lat="39.8713877" lon="116.6679329">
        <ele>21.17133</ele>
        <time>2026-08-19T22:44:17.278000Z</time>
      </trkpt>
      <trkpt lat="39.8714849" lon="116.6679395">
        <ele>21.15011</ele>
        <time>2026-08-19T22:44:21.260000Z</time>
      </trkpt>
      <trkpt lat="39.8715817" lon="116.6679684">
        <ele>21.11871</ele>
        <time>2026-08-19T22:44:25.241000Z</time>
      </trkpt>
      <trkpt lat="39.8716744" lon="116.6680186">
        <ele>21.09019</ele>
        <time>2026-08-19T22:44:29.222000Z</time>
      </trkpt>
      <trkpt lat="39.8717581" lon="116.6680868">
        <ele>21.12166</ele>
        <time>2026-08-19T22:44:33.204000Z</time>
      </trkpt>
      <trkpt lat="39.871839" lon="116.6681498">
        <ele>21.21435</ele>
        <time>2026-08-19T22:44:37Z</time>
      </trkpt>
      <trkpt lat="39.8719335" lon="116.6681965">
        <ele>21.30543</ele>
        <time>2026-08-19T22:44:41.166000Z</time>
      </trkpt>
      <trkpt lat="39.8720272" lon="116.6682151">
        <ele>21.38368</ele>
        <time>2026-08-19T22:44:45.147000Z</time>
      </trkpt>
      <trkpt lat="39.8721197" lon="116.6682221">
        <ele>21.46154</ele>
        <time>2026-08-19T22:44:49.129000Z</time>
      </trkpt>
      <trkpt lat="39.8722151" lon="116.668228">
        <ele>21.55978</ele>
        <time>2026-08-19T22:44:53.110000Z</time>
      </trkpt>
      <trkpt lat="39.8723087" lon="116.6682514">
        <ele>21.68848</ele>
        <time>2026-08-19T22:44:57.091000Z</time>
      </trkpt>
      <trkpt lat="39.8723976" lon="116.6683051">
        <ele>21.8294</ele>
        <time>2026-08-19T22:45:01.073000Z</time>
      </trkpt>
      <trkpt lat="39.8724771" lon="116.6683865">
        <ele>21.95456</ele>
        <time>2026-08-19T22:45:05.054000Z</time>
      </trkpt>
      <trkpt lat="39.8725415" lon="116.6684845">
        <ele>21.98438</ele>
        <time>2026-08-19T22:45:09Z</time>
      </trkpt>
      <trkpt lat="39.8725929" lon="116.6685961">
        <ele>21.91049</ele>
        <time>2026-08-19T22:45:13Z</time>
      </trkpt>
      <trkpt lat="39.8726237" lon="116.6687186">
        <ele>21.79645</ele>
        <time>2026-08-19T22:45:16.998000Z</time>
      </trkpt>
      <trkpt lat="39.8726283" lon="116.6688474">
        <ele>21.69273</ele>
        <time>2026-08-19T22:45:20.979000Z</time>
      </trkpt>
      <trkpt lat="39.8726111" lon="116.6689755">
        <ele>21.63866</ele>
        <time>2026-08-19T22:45:24.960000Z</time>
      </trkpt>
      <trkpt lat="39.872579" lon="116.6690977">
        <ele>21.63636</ele>
        <time>2026-08-19T22:45:28.942000Z</time>
      </trkpt>
      <trkpt lat="39.8725399" lon="116.6692163">
        <ele>21.64455</ele>
        <time>2026-08-19T22:45:32.923000Z</time>
      </trkpt>
      <trkpt lat="39.8725058" lon="116.6693356">
        <ele>21.6007</ele>
        <time>2026-08-19T22:45:36.904000Z</time>
      </trkpt>
      <trkpt lat="39.872489" lon="116.6694583">
        <ele>21.54316</ele>
        <time>2026-08-19T22:45:40.885000Z</time>
      </trkpt>
      <trkpt lat="39.8724897" lon="116.6695815">
        <ele>21.52548</ele>
        <time>2026-08-19T22:45:44.867000Z</time>
      </trkpt>
      <trkpt lat="39.8725058" lon="116.6697026">
        <ele>21.54298</ele>
        <time>2026-08-19T22:45:48.848000Z</time>
      </trkpt>
      <trkpt lat="39.8725343" lon="116.669822">
        <ele>21.57887</ele>
        <time>2026-08-19T22:45:52.829000Z</time>
      </trkpt>
      <trkpt lat="39.8725779" lon="116.6699276">
        <ele>21.63848</ele>
        <time>2026-08-19T22:45:56.811000Z</time>
      </trkpt>
      <trkpt lat="39.8726407" lon="116.6700146">
        <ele>21.69619</ele>
        <time>2026-08-19T22:46:00.792000Z</time>
      </trkpt>
      <trkpt lat="39.8727175" lon="116.6700761">
        <ele>21.73368</ele>
        <time>2026-08-19T22:46:04.773000Z</time>
      </trkpt>
      <trkpt lat="39.8728236" lon="116.6701228">
        <ele>21.71552</ele>
        <time>2026-08-19T22:46:09.750000Z</time>
      </trkpt>
      <trkpt lat="39.8729346" lon="116.6701425">
        <ele>21.63189</ele>
        <time>2026-08-19T22:46:14.726000Z</time>
      </trkpt>
      <trkpt lat="39.8730251" lon="116.6701419">
        <ele>21.52778</ele>
        <time>2026-08-19T22:46:18.708000Z</time>
      </trkpt>
      <trkpt lat="39.8731355" lon="116.6701208">
        <ele>21.35998</ele>
        <time>2026-08-19T22:46:23.684000Z</time>
      </trkpt>
      <trkpt lat="39.8732241" lon="116.6700982">
        <ele>21.22245</ele>
        <time>2026-08-19T22:46:27.666000Z</time>
      </trkpt>
      <trkpt lat="39.8733122" lon="116.6700706">
        <ele>21.11205</ele>
        <time>2026-08-19T22:46:31.647000Z</time>
      </trkpt>
      <trkpt lat="39.8734127" lon="116.6700113">
        <ele>21.01924</ele>
        <time>2026-08-19T22:46:36.624000Z</time>
      </trkpt>
      <trkpt lat="39.8735017" lon="116.6699235">
        <ele>20.99735</ele>
        <time>2026-08-19T22:46:41.600000Z</time>
      </trkpt>
      <trkpt lat="39.8735733" lon="116.6698464">
        <ele>21.034</ele>
        <time>2026-08-19T22:46:45.582000Z</time>
      </trkpt>
      <trkpt lat="39.8736502" lon="116.6697816">
        <ele>21.07929</ele>
        <time>2026-08-19T22:46:49.563000Z</time>
      </trkpt>
      <trkpt lat="39.873736" lon="116.669745">
        <ele>21.13043</ele>
        <time>2026-08-19T22:46:53.544000Z</time>
      </trkpt>
      <trkpt lat="39.8738274" lon="116.6697419">
        <ele>21.19155</ele>
        <time>2026-08-19T22:46:57.525000Z</time>
      </trkpt>
      <trkpt lat="39.8739221" lon="116.6697677">
        <ele>21.24623</ele>
        <time>2026-08-19T22:47:01.507000Z</time>
      </trkpt>
      <trkpt lat="39.8740193" lon="116.6697977">
        <ele>21.29282</ele>
        <time>2026-08-19T22:47:05.488000Z</time>
      </trkpt>
      <trkpt lat="39.8741162" lon="116.6698082">
        <ele>21.34186</ele>
        <time>2026-08-19T22:47:09.469000Z</time>
      </trkpt>
      <trkpt lat="39.874209" lon="116.6697876">
        <ele>21.403</ele>
        <time>2026-08-19T22:47:13.451000Z</time>
      </trkpt>
      <trkpt lat="39.8742922" lon="116.6697388">
        <ele>21.49286</ele>
        <time>2026-08-19T22:47:17.432000Z</time>
      </trkpt>
      <trkpt lat="39.874376" lon="116.6696405">
        <ele>21.63581</ele>
        <time>2026-08-19T22:47:22.409000Z</time>
      </trkpt>
      <trkpt lat="39.8744405" lon="116.6695547">
        <ele>21.77201</ele>
        <time>2026-08-19T22:47:26.390000Z</time>
      </trkpt>
      <trkpt lat="39.8745172" lon="116.66949">
        <ele>21.92574</ele>
        <time>2026-08-19T22:47:30.371000Z</time>
      </trkpt>
      <trkpt lat="39.8746106" lon="116.6694614">
        <ele>22.10285</ele>
        <time>2026-08-19T22:47:34.352000Z</time>
      </trkpt>
      <trkpt lat="39.8747078" lon="116.669482">
        <ele>22.301</ele>
        <time>2026-08-19T22:47:38.334000Z</time>
      </trkpt>
      <trkpt lat="39.8748021" lon="116.6695309">
        <ele>22.50341</ele>
        <time>2026-08-19T22:47:42.315000Z</time>
      </trkpt>
      <trkpt lat="39.8748929" lon="116.6695861">
        <ele>22.69092</ele>
        <time>2026-08-19T22:47:46.296000Z</time>
      </trkpt>
      <trkpt lat="39.874982" lon="116.6696365">
        <ele>22.83868</ele>
        <time>2026-08-19T22:47:50.278000Z</time>
      </trkpt>
      <trkpt lat="39.8750739" lon="116.6696609">
        <ele>22.92409</ele>
        <time>2026-08-19T22:47:54.259000Z</time>
      </trkpt>
      <trkpt lat="39.8751641" lon="116.6696289">
        <ele>22.95151</ele>
        <time>2026-08-19T22:47:58.240000Z</time>
      </trkpt>
      <trkpt lat="39.8752429" lon="116.6695573">
        <ele>22.96237</ele>
        <time>2026-08-19T22:48:02.221000Z</time>
      </trkpt>
      <trkpt lat="39.8753261" lon="116.6695002">
        <ele>22.9693</ele>
        <time>2026-08-19T22:48:06.203000Z</time>
      </trkpt>
      <trkpt lat="39.8754338" lon="116.66947">
        <ele>23.00527</ele>
        <time>2026-08-19T22:48:11Z</time>
      </trkpt>
      <trkpt lat="39.8755286" lon="116.66943">
        <ele>23.14613</ele>
        <time>2026-08-19T22:48:15.161000Z</time>
      </trkpt>
      <trkpt lat="39.8756069" lon="116.6693539">
        <ele>23.26841</ele>
        <time>2026-08-19T22:48:19.142000Z</time>
      </trkpt>
      <trkpt lat="39.8756581" lon="116.6692514">
        <ele>23.33252</ele>
        <time>2026-08-19T22:48:23.123000Z</time>
      </trkpt>
      <trkpt lat="39.875678" lon="116.669134">
        <ele>23.3321</ele>
        <time>2026-08-19T22:48:27.104000Z</time>
      </trkpt>
      <trkpt lat="39.8756642" lon="116.6689916">
        <ele>23.25692</ele>
        <time>2026-08-19T22:48:32.081000Z</time>
      </trkpt>
      <trkpt lat="39.8756132" lon="116.6688647">
        <ele>23.10554</ele>
        <time>2026-08-19T22:48:37.058000Z</time>
      </trkpt>
      <trkpt lat="39.8755484" lon="116.6687524">
        <ele>22.92356</ele>
        <time>2026-08-19T22:48:42Z</time>
      </trkpt>
      <trkpt lat="39.8754689" lon="116.6686526">
        <ele>22.80958</ele>
        <time>2026-08-19T22:48:47Z</time>
      </trkpt>
      <trkpt lat="39.8754049" lon="116.6685671">
        <ele>22.78168</ele>
        <time>2026-08-19T22:48:50.992000Z</time>
      </trkpt>
      <trkpt lat="39.8753503" lon="116.6684427">
        <ele>22.77285</ele>
        <time>2026-08-19T22:48:55.968000Z</time>
      </trkpt>
      <trkpt lat="39.8753201" lon="116.6683305">
        <ele>22.7441</ele>
        <time>2026-08-19T22:48:59.950000Z</time>
      </trkpt>
      <trkpt lat="39.8752937" lon="116.6682177">
        <ele>22.71288</ele>
        <time>2026-08-19T22:49:03.931000Z</time>
      </trkpt>
      <trkpt lat="39.8752645" lon="116.6681048">
        <ele>22.69935</ele>
        <time>2026-08-19T22:49:07.912000Z</time>
      </trkpt>
      <trkpt lat="39.8752234" lon="116.6679938">
        <ele>22.70441</ele>
        <time>2026-08-19T22:49:11.893000Z</time>
      </trkpt>
      <trkpt lat="39.8751752" lon="116.6678864">
        <ele>22.70703</ele>
        <time>2026-08-19T22:49:15.875000Z</time>
      </trkpt>
      <trkpt lat="39.8751195" lon="116.6677858">
        <ele>22.6937</ele>
        <time>2026-08-19T22:49:19.856000Z</time>
      </trkpt>
      <trkpt lat="39.8750525" lon="116.6677012">
        <ele>22.66179</ele>
        <time>2026-08-19T22:49:23.837000Z</time>
      </trkpt>
      <trkpt lat="39.8749755" lon="116.6676333">
        <ele>22.61731</ele>
        <time>2026-08-19T22:49:27.818000Z</time>
      </trkpt>
      <trkpt lat="39.8748898" lon="116.6675841">
        <ele>22.56361</ele>
        <time>2026-08-19T22:49:31.800000Z</time>
      </trkpt>
      <trkpt lat="39.8747998" lon="116.6675458">
        <ele>22.49195</ele>
        <time>2026-08-19T22:49:35.781000Z</time>
      </trkpt>
      <trkpt lat="39.8747082" lon="116.667512">
        <ele>22.40191</ele>
        <time>2026-08-19T22:49:39.762000Z</time>
      </trkpt>
      <trkpt lat="39.8746116" lon="116.6675007">
        <ele>22.30165</ele>
        <time>2026-08-19T22:49:43.753000Z</time>
      </trkpt>
      <trkpt lat="39.8745181" lon="116.6675145">
        <ele>22.19155</ele>
        <time>2026-08-19T22:49:47.735000Z</time>
      </trkpt>
      <trkpt lat="39.8744256" lon="116.66754">
        <ele>22.08034</ele>
        <time>2026-08-19T22:49:51.716000Z</time>
      </trkpt>
      <trkpt lat="39.8743365" lon="116.6675768">
        <ele>21.96327</ele>
        <time>2026-08-19T22:49:55.697000Z</time>
      </trkpt>
      <trkpt lat="39.8742548" lon="116.6676276">
        <ele>21.83122</ele>
        <time>2026-08-19T22:49:59.678000Z</time>
      </trkpt>
      <trkpt lat="39.8741608" lon="116.6676927">
        <ele>21.6505</ele>
        <time>2026-08-19T22:50:04.655000Z</time>
      </trkpt>
      <trkpt lat="39.8740589" lon="116.6677518">
        <ele>21.4979</ele>
        <time>2026-08-19T22:50:09.632000Z</time>
      </trkpt>
      <trkpt lat="39.8739705" lon="116.6677997">
        <ele>21.43647</ele>
        <time>2026-08-19T22:50:13.613000Z</time>
      </trkpt>
      <trkpt lat="39.8738721" lon="116.6678272">
        <ele>21.43429</ele>
        <time>2026-08-19T22:50:17.594000Z</time>
      </trkpt>
      <trkpt lat="39.8737728" lon="116.6678264">
        <ele>21.49709</ele>
        <time>2026-08-19T22:50:21.575000Z</time>
      </trkpt>
      <trkpt lat="39.8736736" lon="116.6678044">
        <ele>21.61997</ele>
        <time>2026-08-19T22:50:25.557000Z</time>
      </trkpt>
      <trkpt lat="39.8735758" lon="116.6677765">
        <ele>21.76561</ele>
        <time>2026-08-19T22:50:29.538000Z</time>
      </trkpt>
      <trkpt lat="39.8734766" lon="116.6677574">
        <ele>21.9094</ele>
        <time>2026-08-19T22:50:33.519000Z</time>
      </trkpt>
      <trkpt lat="39.8733807" lon="116.6677644">
        <ele>22.01651</ele>
        <time>2026-08-19T22:50:37.500000Z</time>
      </trkpt>
      <trkpt lat="39.87329" lon="116.6678037">
        <ele>22.05046</ele>
        <time>2026-08-19T22:50:41.482000Z</time>
      </trkpt>
      <trkpt lat="39.8732063" lon="116.6678598">
        <ele>22.00237</ele>
        <time>2026-08-19T22:50:45.463000Z</time>
      </trkpt>
      <trkpt lat="39.8731167" lon="116.6678957">
        <ele>21.89975</ele>
        <time>2026-08-19T22:50:49.444000Z</time>
      </trkpt>
      <trkpt lat="39.873024" lon="116.6678916">
        <ele>21.77851</ele>
        <time>2026-08-19T22:50:53.426000Z</time>
      </trkpt>
      <trkpt lat="39.8729282" lon="116.6678642">
        <ele>21.65925</ele>
        <time>2026-08-19T22:50:57.407000Z</time>
      </trkpt>
      <trkpt lat="39.8728361" lon="116.6678251">
        <ele>21.55683</ele>
        <time>2026-08-19T22:51:01.388000Z</time>
      </trkpt>
      <trkpt lat="39.8727456" lon="116.6678067">
        <ele>21.47138</ele>
        <time>2026-08-19T22:51:05.369000Z</time>
      </trkpt>
      <trkpt lat="39.8726492" lon="116.6678509">
        <ele>21.39493</ele>
        <time>2026-08-19T22:51:10.346000Z</time>
      </trkpt>
      <trkpt lat="39.8725614" lon="116.6679285">
        <ele>21.36068</ele>
        <time>2026-08-19T22:51:15.322000Z</time>
      </trkpt>
      <trkpt lat="39.8725293" lon="116.6680668">
        <ele>21.38714</ele>
        <time>2026-08-19T22:51:20.299000Z</time>
      </trkpt>
      <trkpt lat="39.872538" lon="116.6682011">
        <ele>21.44278</ele>
        <time>2026-08-19T22:51:24.280000Z</time>
      </trkpt>
      <trkpt lat="39.8725319" lon="116.6683405">
        <ele>21.49231</ele>
        <time>2026-08-19T22:51:28.261000Z</time>
      </trkpt>
      <trkpt lat="39.8725334" lon="116.6684761">
        <ele>21.51263</ele>
        <time>2026-08-19T22:51:32.243000Z</time>
      </trkpt>
      <trkpt lat="39.8725768" lon="116.668615">
        <ele>21.50899</ele>
        <time>2026-08-19T22:51:36.224000Z</time>
      </trkpt>
      <trkpt lat="39.8726084" lon="116.6687596">
        <ele>21.48997</ele>
        <time>2026-08-19T22:51:40.205000Z</time>
      </trkpt>
      <trkpt lat="39.8726122" lon="116.6689037">
        <ele>21.44871</ele>
        <time>2026-08-19T22:51:44Z</time>
      </trkpt>
      <trkpt lat="39.8725923" lon="116.6690522">
        <ele>21.37701</ele>
        <time>2026-08-19T22:51:48Z</time>
      </trkpt>
      <trkpt lat="39.8725556" lon="116.6691913">
        <ele>21.32659</ele>
        <time>2026-08-19T22:51:52Z</time>
      </trkpt>
      <trkpt lat="39.8725263" lon="116.6693297">
        <ele>21.33615</ele>
        <time>2026-08-19T22:51:56Z</time>
      </trkpt>
      <trkpt lat="39.8725178" lon="116.6694758">
        <ele>21.36276</ele>
        <time>2026-08-19T22:52:00Z</time>
      </trkpt>
      <trkpt lat="39.8725145" lon="116.6696259">
        <ele>21.34507</ele>
        <time>2026-08-19T22:52:04Z</time>
      </trkpt>
      <trkpt lat="39.8725317" lon="116.6697732">
        <ele>21.29175</ele>
        <time>2026-08-19T22:52:08Z</time>
      </trkpt>
      <trkpt lat="39.8725785" lon="116.6699043">
        <ele>21.26871</ele>
        <time>2026-08-19T22:52:12Z</time>
      </trkpt>
      <trkpt lat="39.8726555" lon="116.6700091">
        <ele>21.27296</ele>
        <time>2026-08-19T22:52:16Z</time>
      </trkpt>
      <trkpt lat="39.8727468" lon="116.6700844">
        <ele>21.25909</ele>
        <time>2026-08-19T22:52:20Z</time>
      </trkpt>
      <trkpt lat="39.8728531" lon="116.6701291">
        <ele>21.20615</ele>
        <time>2026-08-19T22:52:23.999000Z</time>
      </trkpt>
      <trkpt lat="39.8729593" lon="116.6701582">
        <ele>21.12434</ele>
        <time>2026-08-19T22:52:27.980000Z</time>
      </trkpt>
      <trkpt lat="39.8730652" lon="116.6701636">
        <ele>21.03729</ele>
        <time>2026-08-19T22:52:31.961000Z</time>
      </trkpt>
      <trkpt lat="39.8731708" lon="116.6701413">
        <ele>20.98388</ele>
        <time>2026-08-19T22:52:35.942000Z</time>
      </trkpt>
      <trkpt lat="39.8732729" lon="116.6701077">
        <ele>20.99687</ele>
        <time>2026-08-19T22:52:39.923000Z</time>
      </trkpt>
      <trkpt lat="39.873371" lon="116.6700616">
        <ele>21.05339</ele>
        <time>2026-08-19T22:52:43.905000Z</time>
      </trkpt>
      <trkpt lat="39.8734598" lon="116.6699934">
        <ele>21.11821</ele>
        <time>2026-08-19T22:52:47.886000Z</time>
      </trkpt>
      <trkpt lat="39.873545" lon="116.6699124">
        <ele>21.19518</ele>
        <time>2026-08-19T22:52:51.867000Z</time>
      </trkpt>
      <trkpt lat="39.8736337" lon="116.6698315">
        <ele>21.2835</ele>
        <time>2026-08-19T22:52:55.848000Z</time>
      </trkpt>
      <trkpt lat="39.8737318" lon="116.6697761">
        <ele>21.35596</ele>
        <time>2026-08-19T22:52:59.830000Z</time>
      </trkpt>
      <trkpt lat="39.873838" lon="116.6697648">
        <ele>21.40559</ele>
        <time>2026-08-19T22:53:03.811000Z</time>
      </trkpt>
      <trkpt lat="39.8739438" lon="116.6697832">
        <ele>21.41142</ele>
        <time>2026-08-19T22:53:07.792000Z</time>
      </trkpt>
      <trkpt lat="39.8740501" lon="116.6698034">
        <ele>21.39581</ele>
        <time>2026-08-19T22:53:11.773000Z</time>
      </trkpt>
      <trkpt lat="39.8741615" lon="116.6698074">
        <ele>21.40622</ele>
        <time>2026-08-19T22:53:15.755000Z</time>
      </trkpt>
      <trkpt lat="39.8742664" lon="116.6697744">
        <ele>21.4512</ele>
        <time>2026-08-19T22:53:19.736000Z</time>
      </trkpt>
      <trkpt lat="39.874358" lon="116.6696966">
        <ele>21.5423</ele>
        <time>2026-08-19T22:53:23.717000Z</time>
      </trkpt>
      <trkpt lat="39.8744399" lon="116.6695997">
        <ele>21.70549</ele>
        <time>2026-08-19T22:53:27.698000Z</time>
      </trkpt>
      <trkpt lat="39.8745261" lon="116.6695143">
        <ele>21.92544</ele>
        <time>2026-08-19T22:53:31.680000Z</time>
      </trkpt>
      <trkpt lat="39.8746316" lon="116.6694795">
        <ele>22.16286</ele>
        <time>2026-08-19T22:53:35.661000Z</time>
      </trkpt>
      <trkpt lat="39.8747423" lon="116.6694969">
        <ele>22.39458</ele>
        <time>2026-08-19T22:53:39.642000Z</time>
      </trkpt>
      <trkpt lat="39.8748471" lon="116.6695476">
        <ele>22.61178</ele>
        <time>2026-08-19T22:53:43.623000Z</time>
      </trkpt>
      <trkpt lat="39.8749466" lon="116.6696089">
        <ele>22.81395</ele>
        <time>2026-08-19T22:53:47.605000Z</time>
      </trkpt>
      <trkpt lat="39.8750459" lon="116.6696727">
        <ele>22.98901</ele>
        <time>2026-08-19T22:53:51.586000Z</time>
      </trkpt>
      <trkpt lat="39.8751485" lon="116.6696826">
        <ele>23.09345</ele>
        <time>2026-08-19T22:53:55.567000Z</time>
      </trkpt>
      <trkpt lat="39.8752357" lon="116.6696103">
        <ele>23.10341</ele>
        <time>2026-08-19T22:53:59.548000Z</time>
      </trkpt>
      <trkpt lat="39.8753183" lon="116.6695234">
        <ele>23.05178</ele>
        <time>2026-08-19T22:54:03.530000Z</time>
      </trkpt>
      <trkpt lat="39.8754091" lon="116.6694778">
        <ele>22.99851</ele>
        <time>2026-08-19T22:54:07.511000Z</time>
      </trkpt>
      <trkpt lat="39.875505" lon="116.6694439">
        <ele>22.98322</ele>
        <time>2026-08-19T22:54:11.492000Z</time>
      </trkpt>
      <trkpt lat="39.8755947" lon="116.6693768">
        <ele>23.0038</ele>
        <time>2026-08-19T22:54:15.473000Z</time>
      </trkpt>
      <trkpt lat="39.8756523" lon="116.6692703">
        <ele>23.0397</ele>
        <time>2026-08-19T22:54:19.455000Z</time>
      </trkpt>
      <trkpt lat="39.8756664" lon="116.6691403">
        <ele>23.089</ele>
        <time>2026-08-19T22:54:23.436000Z</time>
      </trkpt>
      <trkpt lat="39.875648" lon="116.6690081">
        <ele>23.13803</ele>
        <time>2026-08-19T22:54:27.417000Z</time>
      </trkpt>
      <trkpt lat="39.8756041" lon="116.668888">
        <ele>23.18444</ele>
        <time>2026-08-19T22:54:31.398000Z</time>
      </trkpt>
      <trkpt lat="39.8755364" lon="116.6687873">
        <ele>23.23229</ele>
        <time>2026-08-19T22:54:35.380000Z</time>
      </trkpt>
      <trkpt lat="39.8754564" lon="116.668694">
        <ele>23.26842</ele>
        <time>2026-08-19T22:54:39.361000Z</time>
      </trkpt>
      <trkpt lat="39.8753816" lon="116.6685872">
        <ele>23.26715</ele>
        <time>2026-08-19T22:54:43.342000Z</time>
      </trkpt>
      <trkpt lat="39.8753289" lon="116.6684604">
        <ele>23.19021</ele>
        <time>2026-08-19T22:54:47.323000Z</time>
      </trkpt>
      <trkpt lat="39.8752995" lon="116.6683265">
        <ele>23.0745</ele>
        <time>2026-08-19T22:54:51.304000Z</time>
      </trkpt>
      <trkpt lat="39.8752812" lon="116.6681953">
        <ele>22.99091</ele>
        <time>2026-08-19T22:54:55.286000Z</time>
      </trkpt>
      <trkpt lat="39.8752601" lon="116.6680601">
        <ele>22.98563</ele>
        <time>2026-08-19T22:54:59.267000Z</time>
      </trkpt>
      <trkpt lat="39.8752215" lon="116.6679305">
        <ele>23.03107</ele>
        <time>2026-08-19T22:55:03.248000Z</time>
      </trkpt>
      <trkpt lat="39.8751625" lon="116.6678132">
        <ele>23.07043</ele>
        <time>2026-08-19T22:55:07.229000Z</time>
      </trkpt>
      <trkpt lat="39.8750841" lon="116.6677215">
        <ele>23.08543</ele>
        <time>2026-08-19T22:55:11.210000Z</time>
      </trkpt>
    </trkseg>
  </trk>
</gpx>