<?xml version="1.0" encoding="UTF-8"?>
<gpx xmlns="http://www.topografix.com/GPX/1/1" xmlns:gpxtpx="http://www.garmin.com/xmlschemas/TrackPointExtension/v1" xmlns:xsi="http://www.w3.org/2001/XMLSchema-instance" xsi:schemaLocation="http://www.topografix.com/GPX/1/1 http://www.topografix.com/GPX/1/1/gpx.xsd" version="1.1" creator="gpx.py -- https://github.com/tkrajina/gpxpy">
  <trk>
    <name>gpx from codoon</name>
    <type>Run</type>
    <trkseg>
      <trkpt lat="39.8734264" lon="116.6658817">
        <ele>22.48612</ele>
        <time>2026-08-08T12:25:14.001000Z</time>
      </trkpt>
      <trkpt lat="39.8735282" lon="116.6658733">
        <ele>23.09638</ele>
        <time>2026-08-08T12:25:21.001000Z</time>
      </trkpt>
      <trkpt lat="39.8736141" lon="116.6658218">
        <ele>23.25546</ele>
        <time>2026-08-08T12:25:26.001000Z</time>
      </trkpt>
      <trkpt lat="39.8737025" lon="116.6657622">
        <ele>23.09773</ele>
        <time>2026-08-08T12:25:30.630000Z</time>
      </trkpt>
      <trkpt lat="39.8737862" lon="116.6656999">
        <ele>22.94353</ele>
        <time>2026-08-08T12:25:34.612000Z</time>
      </trkpt>
      <trkpt lat="39.873871" lon="116.665631">
        <ele>22.91975</ele>
        <time>2026-08-08T12:25:38.593000Z</time>
      </trkpt>
      <trkpt lat="39.8739555" lon="116.6655647">
        <ele>23.00215</ele>
        <time>2026-08-08T12:25:42.575000Z</time>
      </trkpt>
      <trkpt lat="39.8740478" lon="116.6655197">
        <ele>23.15692</ele>
        <time>2026-08-08T12:25:46.557000Z</time>
      </trkpt>
      <trkpt lat="39.8741476" lon="116.6654687">
        <ele>23.35482</ele>
        <time>2026-08-08T12:25:50.539000Z</time>
      </trkpt>
      <trkpt lat="39.8742452" lon="116.6654102">
        <ele>23.52578</ele>
        <time>2026-08-08T12:25:54.520000Z</time>
      </trkpt>
      <trkpt lat="39.8743431" lon="116.6653627">
        <ele>23.62611</ele>
        <time>2026-08-08T12:25:58.502000Z</time>
      </trkpt>
      <trkpt lat="39.8744389" lon="116.6653836">
        <ele>23.68795</ele>
        <time>2026-08-08T12:26:02.484000Z</time>
      </trkpt>
      <trkpt lat="39.8745085" lon="116.6655012">
        <ele>23.66487</ele>
        <time>2026-08-08T12:26:06.465000Z</time>
      </trkpt>
      <trkpt lat="39.874557" lon="116.6656298">
        <ele>23.51482</ele>
        <time>2026-08-08T12:26:10.447000Z</time>
      </trkpt>
      <trkpt lat="39.8746031" lon="116.6657539">
        <ele>23.30481</ele>
        <time>2026-08-08T12:26:14.429000Z</time>
      </trkpt>
      <trkpt lat="39.8746539" lon="116.6658741">
        <ele>23.11294</ele>
        <time>2026-08-08T12:26:18.410000Z</time>
      </trkpt>
      <trkpt lat="39.8747083" lon="116.6659831">
        <ele>22.97511</ele>
        <time>2026-08-08T12:26:22.392000Z</time>
      </trkpt>
      <trkpt lat="39.874764" lon="116.6660848">
        <ele>22.87915</ele>
        <time>2026-08-08T12:26:26.374000Z</time>
      </trkpt>
      <trkpt lat="39.8748189" lon="116.6661936">
        <ele>22.79405</ele>
        <time>2026-08-08T12:26:30.355000Z</time>
      </trkpt>
      <trkpt lat="39.8748723" lon="116.666306">
        <ele>22.6754</ele>
        <time>2026-08-08T12:26:34.337000Z</time>
      </trkpt>
      <trkpt lat="39.8749289" lon="116.6664163">
        <ele>22.52754</ele>
        <time>2026-08-08T12:26:38.319000Z</time>
      </trkpt>
      <trkpt lat="39.874988" lon="116.6665284">
        <ele>22.44071</ele>
        <time>2026-08-08T12:26:42.300000Z</time>
      </trkpt>
      <trkpt lat="39.8750443" lon="116.6666354">
        <ele>22.49275</ele>
        <time>2026-08-08T12:26:46.282000Z</time>
      </trkpt>
      <trkpt lat="39.8750965" lon="116.6667374">
        <ele>22.6596</ele>
        <time>2026-08-08T12:26:50.263000Z</time>
      </trkpt>
      <trkpt lat="39.8751575" lon="116.6668594">
        <ele>22.93131</ele>
        <time>2026-08-08T12:26:55.241000Z</time>
      </trkpt>
      <trkpt lat="39.8752226" lon="116.6669669">
        <ele>23.26526</ele>
        <time>2026-08-08T12:27:00.218000Z</time>
      </trkpt>
      <trkpt lat="39.8752729" lon="116.6670834">
        <ele>23.62976</ele>
        <time>2026-08-08T12:27:05.001000Z</time>
      </trkpt>
      <trkpt lat="39.8752773" lon="116.6672091">
        <ele>23.7721</ele>
        <time>2026-08-08T12:27:09.001000Z</time>
      </trkpt>
      <trkpt lat="39.8753021" lon="116.6673495">
        <ele>23.79733</ele>
        <time>2026-08-08T12:27:14.001000Z</time>
      </trkpt>
      <trkpt lat="39.8753532" lon="116.6674475">
        <ele>23.83129</ele>
        <time>2026-08-08T12:27:18.001000Z</time>
      </trkpt>
      <trkpt lat="39.8754324" lon="116.6675513">
        <ele>23.90272</ele>
        <time>2026-08-08T12:27:23.001000Z</time>
      </trkpt>
      <trkpt lat="39.8754982" lon="116.6676356">
        <ele>23.95313</ele>
        <time>2026-08-08T12:27:27.001000Z</time>
      </trkpt>
      <trkpt lat="39.8755768" lon="116.6677358">
        <ele>23.98759</ele>
        <time>2026-08-08T12:27:32.001000Z</time>
      </trkpt>
      <trkpt lat="39.8756355" lon="116.6678254">
        <ele>23.97651</ele>
        <time>2026-08-08T12:27:37.001000Z</time>
      </trkpt>
      <trkpt lat="39.8756762" lon="116.667946">
        <ele>23.96287</ele>
        <time>2026-08-08T12:27:44.001000Z</time>
      </trkpt>
      <trkpt lat="39.8756193" lon="116.6680595">
        <ele>23.84291</ele>
        <time>2026-08-08T12:27:49.988000Z</time>
      </trkpt>
      <trkpt lat="39.8755088" lon="116.6680675">
        <ele>23.6223</ele>
        <time>2026-08-08T12:27:54.965000Z</time>
      </trkpt>
      <trkpt lat="39.875419" lon="116.6680368">
        <ele>23.45351</ele>
        <time>2026-08-08T12:27:58.946000Z</time>
      </trkpt>
      <trkpt lat="39.8753248" lon="116.6680057">
        <ele>23.32266</ele>
        <time>2026-08-08T12:28:02.928000Z</time>
      </trkpt>
      <trkpt lat="39.875238" lon="116.6679523">
        <ele>23.23451</ele>
        <time>2026-08-08T12:28:06.909000Z</time>
      </trkpt>
      <trkpt lat="39.8751746" lon="116.6678654">
        <ele>23.1603</ele>
        <time>2026-08-08T12:28:10.891000Z</time>
      </trkpt>
      <trkpt lat="39.8751216" lon="116.6677641">
        <ele>23.0812</ele>
        <time>2026-08-08T12:28:14.872000Z</time>
      </trkpt>
      <trkpt lat="39.8750572" lon="116.6676792">
        <ele>23.0029</ele>
        <time>2026-08-08T12:28:18.854000Z</time>
      </trkpt>
      <trkpt lat="39.8749624" lon="116.6676026">
        <ele>22.87516</ele>
        <time>2026-08-08T12:28:23.831000Z</time>
      </trkpt>
      <trkpt lat="39.874875" lon="116.6675619">
        <ele>22.73258</ele>
        <time>2026-08-08T12:28:27.812000Z</time>
      </trkpt>
      <trkpt lat="39.8747654" lon="116.6675294">
        <ele>22.558</ele>
        <time>2026-08-08T12:28:32.789000Z</time>
      </trkpt>
      <trkpt lat="39.8746739" lon="116.6675035">
        <ele>22.44942</ele>
        <time>2026-08-08T12:28:36.771000Z</time>
      </trkpt>
      <trkpt lat="39.8745777" lon="116.6674837">
        <ele>22.37159</ele>
        <time>2026-08-08T12:28:40.752000Z</time>
      </trkpt>
      <trkpt lat="39.8744824" lon="116.667494">
        <ele>22.30885</ele>
        <time>2026-08-08T12:28:44.734000Z</time>
      </trkpt>
      <trkpt lat="39.8743889" lon="116.6675282">
        <ele>22.22814</ele>
        <time>2026-08-08T12:28:48.715000Z</time>
      </trkpt>
      <trkpt lat="39.8743007" lon="116.6675789">
        <ele>22.11547</ele>
        <time>2026-08-08T12:28:52.697000Z</time>
      </trkpt>
      <trkpt lat="39.8742165" lon="116.6676385">
        <ele>22.00245</ele>
        <time>2026-08-08T12:28:56.678000Z</time>
      </trkpt>
      <trkpt lat="39.8741333" lon="116.6676976">
        <ele>21.9118</ele>
        <time>2026-08-08T12:29:00.660000Z</time>
      </trkpt>
      <trkpt lat="39.8740453" lon="116.6677546">
        <ele>21.82984</ele>
        <time>2026-08-08T12:29:04.641000Z</time>
      </trkpt>
      <trkpt lat="39.8739524" lon="116.6677976">
        <ele>21.76649</ele>
        <time>2026-08-08T12:29:08.623000Z</time>
      </trkpt>
      <trkpt lat="39.8738535" lon="116.667818">
        <ele>21.73926</ele>
        <time>2026-08-08T12:29:12.604000Z</time>
      </trkpt>
      <trkpt lat="39.8737554" lon="116.6678167">
        <ele>21.74422</ele>
        <time>2026-08-08T12:29:16.586000Z</time>
      </trkpt>
      <trkpt lat="39.873656" lon="116.6678012">
        <ele>21.75343</ele>
        <time>2026-08-08T12:29:20.567000Z</time>
      </trkpt>
      <trkpt lat="39.8735589" lon="116.667777">
        <ele>21.77125</ele>
        <time>2026-08-08T12:29:24.549000Z</time>
      </trkpt>
      <trkpt lat="39.8734628" lon="116.6677599">
        <ele>21.8208</ele>
        <time>2026-08-08T12:29:28.530000Z</time>
      </trkpt>
      <trkpt lat="39.8733697" lon="116.6677713">
        <ele>21.88579</ele>
        <time>2026-08-08T12:29:32.512000Z</time>
      </trkpt>
      <trkpt lat="39.8732813" lon="116.6678091">
        <ele>21.93251</ele>
        <time>2026-08-08T12:29:36.493000Z</time>
      </trkpt>
      <trkpt lat="39.8731983" lon="116.6678601">
        <ele>21.9581</ele>
        <time>2026-08-08T12:29:40.475000Z</time>
      </trkpt>
      <trkpt lat="39.8731096" lon="116.6679016">
        <ele>21.96969</ele>
        <time>2026-08-08T12:29:44.456000Z</time>
      </trkpt>
      <trkpt lat="39.8730168" lon="116.6679131">
        <ele>21.96355</ele>
        <time>2026-08-08T12:29:48.438000Z</time>
      </trkpt>
      <trkpt lat="39.8729218" lon="116.6678875">
        <ele>21.94882</ele>
        <time>2026-08-08T12:29:52.419000Z</time>
      </trkpt>
      <trkpt lat="39.8728292" lon="116.6678452">
        <ele>21.9012</ele>
        <time>2026-08-08T12:29:56.401000Z</time>
      </trkpt>
      <trkpt lat="39.8727364" lon="116.667806">
        <ele>21.83146</ele>
        <time>2026-08-08T12:30:00.382000Z</time>
      </trkpt>
      <trkpt lat="39.8726458" lon="116.667777">
        <ele>21.80179</ele>
        <time>2026-08-08T12:30:04.364000Z</time>
      </trkpt>
      <trkpt lat="39.8725532" lon="116.6677594">
        <ele>21.8304</ele>
        <time>2026-08-08T12:30:08.345000Z</time>
      </trkpt>
      <trkpt lat="39.8724625" lon="116.6677589">
        <ele>21.87668</ele>
        <time>2026-08-08T12:30:12.327000Z</time>
      </trkpt>
      <trkpt lat="39.8723708" lon="116.6677686">
        <ele>21.89826</ele>
        <time>2026-08-08T12:30:16.308000Z</time>
      </trkpt>
      <trkpt lat="39.8722764" lon="116.667775">
        <ele>21.8711</ele>
        <time>2026-08-08T12:30:20.289000Z</time>
      </trkpt>
      <trkpt lat="39.8721833" lon="116.6677729">
        <ele>21.77644</ele>
        <time>2026-08-08T12:30:24.271000Z</time>
      </trkpt>
      <trkpt lat="39.8720897" lon="116.6677564">
        <ele>21.59589</ele>
        <time>2026-08-08T12:30:28.252000Z</time>
      </trkpt>
      <trkpt lat="39.8719967" lon="116.6677298">
        <ele>21.36025</ele>
        <time>2026-08-08T12:30:32.234000Z</time>
      </trkpt>
      <trkpt lat="39.8719029" lon="116.667696">
        <ele>21.14182</ele>
        <time>2026-08-08T12:30:36.215000Z</time>
      </trkpt>
      <trkpt lat="39.8718111" lon="116.6676524">
        <ele>20.98573</ele>
        <time>2026-08-08T12:30:40.197000Z</time>
      </trkpt>
      <trkpt lat="39.8717222" lon="116.6676074">
        <ele>20.87426</ele>
        <time>2026-08-08T12:30:44.001000Z</time>
      </trkpt>
      <trkpt lat="39.871625" lon="116.6675729">
        <ele>20.75792</ele>
        <time>2026-08-08T12:30:48.001000Z</time>
      </trkpt>
      <trkpt lat="39.8715324" lon="116.6675477">
        <ele>20.64434</ele>
        <time>2026-08-08T12:30:52.001000Z</time>
      </trkpt>
      <trkpt lat="39.8714409" lon="116.6675355">
        <ele>20.53912</ele>
        <time>2026-08-08T12:30:56.001000Z</time>
      </trkpt>
      <trkpt lat="39.8713312" lon="116.6675362">
        <ele>20.4572</ele>
        <time>2026-08-08T12:31:01.001000Z</time>
      </trkpt>
      <trkpt lat="39.8712197" lon="116.6675473">
        <ele>20.46916</ele>
        <time>2026-08-08T12:31:06.001000Z</time>
      </trkpt>
      <trkpt lat="39.8711294" lon="116.6675724">
        <ele>20.52075</ele>
        <time>2026-08-08T12:31:10.001000Z</time>
      </trkpt>
      <trkpt lat="39.8710466" lon="116.6676443">
        <ele>20.5371</ele>
        <time>2026-08-08T12:31:15.001000Z</time>
      </trkpt>
      <trkpt lat="39.8710022" lon="116.6677783">
        <ele>20.42365</ele>
        <time>2026-08-08T12:31:20.001000Z</time>
      </trkpt>
      <trkpt lat="39.8709267" lon="116.6678769">
        <ele>20.402</ele>
        <time>2026-08-08T12:31:24.988000Z</time>
      </trkpt>
      <trkpt lat="39.8708343" lon="116.6678923">
        <ele>20.49236</ele>
        <time>2026-08-08T12:31:28.969000Z</time>
      </trkpt>
      <trkpt lat="39.8707402" lon="116.6678942">
        <ele>20.60463</ele>
        <time>2026-08-08T12:31:32.950000Z</time>
      </trkpt>
      <trkpt lat="39.8706472" lon="116.6678919">
        <ele>20.71955</ele>
        <time>2026-08-08T12:31:36.932000Z</time>
      </trkpt>
      <trkpt lat="39.8705556" lon="116.6678902">
        <ele>20.84007</ele>
        <time>2026-08-08T12:31:40.913000Z</time>
      </trkpt>
      <trkpt lat="39.8704435" lon="116.6678864">
        <ele>20.98916</ele>
        <time>2026-08-08T12:31:45.890000Z</time>
      </trkpt>
      <trkpt lat="39.8703386" lon="116.6678475">
        <ele>21.08617</ele>
        <time>2026-08-08T12:31:50.867000Z</time>
      </trkpt>
      <trkpt lat="39.8702376" lon="116.6677981">
        <ele>21.10818</ele>
        <time>2026-08-08T12:31:55.843000Z</time>
      </trkpt>
      <trkpt lat="39.8701272" lon="116.6678017">
        <ele>21.04271</ele>
        <time>2026-08-08T12:32:00.820000Z</time>
      </trkpt>
      <trkpt lat="39.8700367" lon="116.6678061">
        <ele>20.94216</ele>
        <time>2026-08-08T12:32:04.802000Z</time>
      </trkpt>
      <trkpt lat="39.869946" lon="116.6677979">
        <ele>20.8407</ele>
        <time>2026-08-08T12:32:08.783000Z</time>
      </trkpt>
      <trkpt lat="39.8698362" lon="116.6677718">
        <ele>20.74298</ele>
        <time>2026-08-08T12:32:13.760000Z</time>
      </trkpt>
      <trkpt lat="39.8697263" lon="116.6677468">
        <ele>20.70696</ele>
        <time>2026-08-08T12:32:18.736000Z</time>
      </trkpt>
      <trkpt lat="39.8696245" lon="116.6677559">
        <ele>20.74018</ele>
        <time>2026-08-08T12:32:23.713000Z</time>
      </trkpt>
      <trkpt lat="39.8695389" lon="116.667817">
        <ele>20.82469</ele>
        <time>2026-08-08T12:32:28.690000Z</time>
      </trkpt>
      <trkpt lat="39.8694896" lon="116.6679288">
        <ele>20.92802</ele>
        <time>2026-08-08T12:32:33.667000Z</time>
      </trkpt>
      <trkpt lat="39.8694754" lon="116.6680608">
        <ele>21.01405</ele>
        <time>2026-08-08T12:32:38.643000Z</time>
      </trkpt>
      <trkpt lat="39.8695" lon="116.6681964">
        <ele>21.07613</ele>
        <time>2026-08-08T12:32:43.620000Z</time>
      </trkpt>
      <trkpt lat="39.8695632" lon="116.6683154">
        <ele>21.11987</ele>
        <time>2026-08-08T12:32:48.597000Z</time>
      </trkpt>
      <trkpt lat="39.8696547" lon="116.668363">
        <ele>21.11838</ele>
        <time>2026-08-08T12:32:53.573000Z</time>
      </trkpt>
      <trkpt lat="39.8697554" lon="116.6683409">
        <ele>21.07036</ele>
        <time>2026-08-08T12:32:58.550000Z</time>
      </trkpt>
      <trkpt lat="39.8698554" lon="116.6682928">
        <ele>21.03158</ele>
        <time>2026-08-08T12:33:03.527000Z</time>
      </trkpt>
      <trkpt lat="39.8699581" lon="116.6682727">
        <ele>21.01209</ele>
        <time>2026-08-08T12:33:08.504000Z</time>
      </trkpt>
      <trkpt lat="39.8700639" lon="116.6682773">
        <ele>20.96864</ele>
        <time>2026-08-08T12:33:13.480000Z</time>
      </trkpt>
      <trkpt lat="39.8701694" lon="116.6682676">
        <ele>20.89732</ele>
        <time>2026-08-08T12:33:18.457000Z</time>
      </trkpt>
      <trkpt lat="39.8702712" lon="116.6682162">
        <ele>20.79203</ele>
        <time>2026-08-08T12:33:23.434000Z</time>
      </trkpt>
      <trkpt lat="39.8703666" lon="116.6681446">
        <ele>20.65917</ele>
        <time>2026-08-08T12:33:28.410000Z</time>
      </trkpt>
      <trkpt lat="39.8704676" lon="116.6680828">
        <ele>20.55525</ele>
        <time>2026-08-08T12:33:33.387000Z</time>
      </trkpt>
      <trkpt lat="39.8705768" lon="116.6680619">
        <ele>20.53446</ele>
        <time>2026-08-08T12:33:38.364000Z</time>
      </trkpt>
      <trkpt lat="39.8706847" lon="116.6680811">
        <ele>20.62614</ele>
        <time>2026-08-08T12:33:43.340000Z</time>
      </trkpt>
      <trkpt lat="39.8707906" lon="116.6681129">
        <ele>20.7651</ele>
        <time>2026-08-08T12:33:48.317000Z</time>
      </trkpt>
      <trkpt lat="39.8709006" lon="116.6681232">
        <ele>20.90104</ele>
        <time>2026-08-08T12:33:53.294000Z</time>
      </trkpt>
      <trkpt lat="39.8710097" lon="116.6681025">
        <ele>21.00166</ele>
        <time>2026-08-08T12:33:58.271000Z</time>
      </trkpt>
      <trkpt lat="39.8711087" lon="116.6680559">
        <ele>21.02636</ele>
        <time>2026-08-08T12:34:03.247000Z</time>
      </trkpt>
      <trkpt lat="39.8712041" lon="116.6679936">
        <ele>20.899</ele>
        <time>2026-08-08T12:34:08.224000Z</time>
      </trkpt>
      <trkpt lat="39.8713041" lon="116.6679493">
        <ele>20.62133</ele>
        <time>2026-08-08T12:34:13.201000Z</time>
      </trkpt>
      <trkpt lat="39.8714101" lon="116.6679373">
        <ele>20.47541</ele>
        <time>2026-08-08T12:34:18.001000Z</time>
      </trkpt>
      <trkpt lat="39.8715217" lon="116.6679512">
        <ele>20.55</ele>
        <time>2026-08-08T12:34:23.001000Z</time>
      </trkpt>
      <trkpt lat="39.8716127" lon="116.6679796">
        <ele>20.64643</ele>
        <time>2026-08-08T12:34:27.001000Z</time>
      </trkpt>
      <trkpt lat="39.8716997" lon="116.6680222">
        <ele>20.73718</ele>
        <time>2026-08-08T12:34:31.001000Z</time>
      </trkpt>
      <trkpt lat="39.8717972" lon="116.6680901">
        <ele>20.83228</ele>
        <time>2026-08-08T12:34:36.001000Z</time>
      </trkpt>
      <trkpt lat="39.8718991" lon="116.6681463">
        <ele>20.91358</ele>
        <time>2026-08-08T12:34:41.001000Z</time>
      </trkpt>
      <trkpt lat="39.8720075" lon="116.6681713">
        <ele>21.01653</ele>
        <time>2026-08-08T12:34:46.001000Z</time>
      </trkpt>
      <trkpt lat="39.8721153" lon="116.6681818">
        <ele>21.15073</ele>
        <time>2026-08-08T12:34:51.001000Z</time>
      </trkpt>
      <trkpt lat="39.8722265" lon="116.6681852">
        <ele>21.24372</ele>
        <time>2026-08-08T12:34:56Z</time>
      </trkpt>
      <trkpt lat="39.8723179" lon="116.6682113">
        <ele>21.25449</ele>
        <time>2026-08-08T12:34:59.981000Z</time>
      </trkpt>
      <trkpt lat="39.8724046" lon="116.6682687">
        <ele>21.23567</ele>
        <time>2026-08-08T12:35:03.963000Z</time>
      </trkpt>
      <trkpt lat="39.8724802" lon="116.6683485">
        <ele>21.21427</ele>
        <time>2026-08-08T12:35:07.944000Z</time>
      </trkpt>
      <trkpt lat="39.8725438" lon="116.6684435">
        <ele>21.2027</ele>
        <time>2026-08-08T12:35:11.926000Z</time>
      </trkpt>
      <trkpt lat="39.8725961" lon="116.6685428">
        <ele>21.19678</ele>
        <time>2026-08-08T12:35:15.907000Z</time>
      </trkpt>
      <trkpt lat="39.8726307" lon="116.6686539">
        <ele>21.18442</ele>
        <time>2026-08-08T12:35:19.888000Z</time>
      </trkpt>
      <trkpt lat="39.8726443" lon="116.6687722">
        <ele>21.15401</ele>
        <time>2026-08-08T12:35:23.870000Z</time>
      </trkpt>
      <trkpt lat="39.8726358" lon="116.668894">
        <ele>21.09969</ele>
        <time>2026-08-08T12:35:27.851000Z</time>
      </trkpt>
      <trkpt lat="39.8726133" lon="116.6690129">
        <ele>21.03273</ele>
        <time>2026-08-08T12:35:31.832000Z</time>
      </trkpt>
      <trkpt lat="39.8725824" lon="116.6691304">
        <ele>20.97649</ele>
        <time>2026-08-08T12:35:35.814000Z</time>
      </trkpt>
      <trkpt lat="39.8725422" lon="116.6692457">
        <ele>20.92992</ele>
        <time>2026-08-08T12:35:39.795000Z</time>
      </trkpt>
      <trkpt lat="39.8725085" lon="116.6693647">
        <ele>20.87808</ele>
        <time>2026-08-08T12:35:43.776000Z</time>
      </trkpt>
      <trkpt lat="39.8724981" lon="116.6694855">
        <ele>20.82713</ele>
        <time>2026-08-08T12:35:47.758000Z</time>
      </trkpt>
      <trkpt lat="39.8725022" lon="116.6696025">
        <ele>20.79476</ele>
        <time>2026-08-08T12:35:51.739000Z</time>
      </trkpt>
      <trkpt lat="39.8725246" lon="116.6697422">
        <ele>20.78803</ele>
        <time>2026-08-08T12:35:56.716000Z</time>
      </trkpt>
      <trkpt lat="39.872571" lon="116.6698701">
        <ele>20.79789</ele>
        <time>2026-08-08T12:36:01.692000Z</time>
      </trkpt>
      <trkpt lat="39.87264" lon="116.6699786">
        <ele>20.82024</ele>
        <time>2026-08-08T12:36:06.669000Z</time>
      </trkpt>
      <trkpt lat="39.8727263" lon="116.6700501">
        <ele>20.8437</ele>
        <time>2026-08-08T12:36:11.646000Z</time>
      </trkpt>
      <trkpt lat="39.8728304" lon="116.6700891">
        <ele>20.83866</ele>
        <time>2026-08-08T12:36:16.623000Z</time>
      </trkpt>
      <trkpt lat="39.8729346" lon="116.6701174">
        <ele>20.82369</ele>
        <time>2026-08-08T12:36:21.599000Z</time>
      </trkpt>
      <trkpt lat="39.8730407" lon="116.6701328">
        <ele>20.82919</ele>
        <time>2026-08-08T12:36:26.576000Z</time>
      </trkpt>
      <trkpt lat="39.8731469" lon="116.6701287">
        <ele>20.83411</ele>
        <time>2026-08-08T12:36:31.553000Z</time>
      </trkpt>
      <trkpt lat="39.8732547" lon="116.670107">
        <ele>20.79832</ele>
        <time>2026-08-08T12:36:36.529000Z</time>
      </trkpt>
      <trkpt lat="39.8733603" lon="116.6700712">
        <ele>20.7025</ele>
        <time>2026-08-08T12:36:41.506000Z</time>
      </trkpt>
      <trkpt lat="39.8734545" lon="116.6700104">
        <ele>20.58291</ele>
        <time>2026-08-08T12:36:46.483000Z</time>
      </trkpt>
      <trkpt lat="39.8735442" lon="116.6699294">
        <ele>20.49618</ele>
        <time>2026-08-08T12:36:51.459000Z</time>
      </trkpt>
      <trkpt lat="39.8736348" lon="116.6698463">
        <ele>20.50271</ele>
        <time>2026-08-08T12:36:56.436000Z</time>
      </trkpt>
      <trkpt lat="39.873718" lon="116.6697995">
        <ele>20.56905</ele>
        <time>2026-08-08T12:37:00.417000Z</time>
      </trkpt>
      <trkpt lat="39.8738275" lon="116.6697772">
        <ele>20.68686</ele>
        <time>2026-08-08T12:37:05.394000Z</time>
      </trkpt>
      <trkpt lat="39.8739389" lon="116.6697929">
        <ele>20.82344</ele>
        <time>2026-08-08T12:37:10.371000Z</time>
      </trkpt>
      <trkpt lat="39.8740276" lon="116.6698193">
        <ele>20.90145</ele>
        <time>2026-08-08T12:37:14.352000Z</time>
      </trkpt>
      <trkpt lat="39.8741371" lon="116.6698371">
        <ele>20.94478</ele>
        <time>2026-08-08T12:37:19.329000Z</time>
      </trkpt>
      <trkpt lat="39.8742447" lon="116.6698168">
        <ele>20.93472</ele>
        <time>2026-08-08T12:37:24.305000Z</time>
      </trkpt>
      <trkpt lat="39.8743376" lon="116.6697468">
        <ele>20.9341</ele>
        <time>2026-08-08T12:37:29.282000Z</time>
      </trkpt>
      <trkpt lat="39.8744156" lon="116.669644">
        <ele>21.01036</ele>
        <time>2026-08-08T12:37:34.259000Z</time>
      </trkpt>
      <trkpt lat="39.8744937" lon="116.6695387">
        <ele>21.13196</ele>
        <time>2026-08-08T12:37:39.236000Z</time>
      </trkpt>
      <trkpt lat="39.8745749" lon="116.6694862">
        <ele>21.19455</ele>
        <time>2026-08-08T12:37:43.217000Z</time>
      </trkpt>
      <trkpt lat="39.8746677" lon="116.6694735">
        <ele>21.18069</ele>
        <time>2026-08-08T12:37:47.198000Z</time>
      </trkpt>
      <trkpt lat="39.8747777" lon="116.6695006">
        <ele>21.17559</ele>
        <time>2026-08-08T12:37:52Z</time>
      </trkpt>
      <trkpt lat="39.8748647" lon="116.6695397">
        <ele>21.25952</ele>
        <time>2026-08-08T12:37:56Z</time>
      </trkpt>
      <trkpt lat="39.8749498" lon="116.6695877">
        <ele>21.42242</ele>
        <time>2026-08-08T12:38:00Z</time>
      </trkpt>
      <trkpt lat="39.8750502" lon="116.6696507">
        <ele>21.68533</ele>
        <time>2026-08-08T12:38:05Z</time>
      </trkpt>
      <trkpt lat="39.8751517" lon="116.6696567">
        <ele>21.94414</ele>
        <time>2026-08-08T12:38:10Z</time>
      </trkpt>
      <trkpt lat="39.8752414" lon="116.6695947">
        <ele>22.14509</ele>
        <time>2026-08-08T12:38:15Z</time>
      </trkpt>
      <trkpt lat="39.8753223" lon="116.6695224">
        <ele>22.22511</ele>
        <time>2026-08-08T12:38:20Z</time>
      </trkpt>
      <trkpt lat="39.8754163" lon="116.6694913">
        <ele>22.2972</ele>
        <time>2026-08-08T12:38:25Z</time>
      </trkpt>
      <trkpt lat="39.8755172" lon="116.6694573">
        <ele>22.58586</ele>
        <time>2026-08-08T12:38:29.998000Z</time>
      </trkpt>
      <trkpt lat="39.8756077" lon="116.6693799">
        <ele>22.99473</ele>
        <time>2026-08-08T12:38:34.974000Z</time>
      </trkpt>
      <trkpt lat="39.8756613" lon="116.6692653">
        <ele>23.17066</ele>
        <time>2026-08-08T12:38:39.951000Z</time>
      </trkpt>
      <trkpt lat="39.8756734" lon="116.6691284">
        <ele>23.15295</ele>
        <time>2026-08-08T12:38:44.928000Z</time>
      </trkpt>
      <trkpt lat="39.8756532" lon="116.6689996">
        <ele>23.10825</ele>
        <time>2026-08-08T12:38:49.904000Z</time>
      </trkpt>
      <trkpt lat="39.8756093" lon="116.6688757">
        <ele>23.07527</ele>
        <time>2026-08-08T12:38:54.881000Z</time>
      </trkpt>
      <trkpt lat="39.8755391" lon="116.6687677">
        <ele>23.03044</ele>
        <time>2026-08-08T12:38:59.858000Z</time>
      </trkpt>
      <trkpt lat="39.8754553" lon="116.6686747">
        <ele>22.92108</ele>
        <time>2026-08-08T12:39:04.835000Z</time>
      </trkpt>
      <trkpt lat="39.8753806" lon="116.6685683">
        <ele>22.77005</ele>
        <time>2026-08-08T12:39:09.811000Z</time>
      </trkpt>
      <trkpt lat="39.8753347" lon="116.6684436">
        <ele>22.65036</ele>
        <time>2026-08-08T12:39:14.788000Z</time>
      </trkpt>
      <trkpt lat="39.8753077" lon="116.668308">
        <ele>22.58086</ele>
        <time>2026-08-08T12:39:19.765000Z</time>
      </trkpt>
      <trkpt lat="39.8752857" lon="116.6681719">
        <ele>22.55829</ele>
        <time>2026-08-08T12:39:24.742000Z</time>
      </trkpt>
      <trkpt lat="39.8752536" lon="116.6680385">
        <ele>22.5483</ele>
        <time>2026-08-08T12:39:29.718000Z</time>
      </trkpt>
      <trkpt lat="39.8752115" lon="116.6679103">
        <ele>22.53391</ele>
        <time>2026-08-08T12:39:34.695000Z</time>
      </trkpt>
      <trkpt lat="39.8751552" lon="116.667794">
        <ele>22.50929</ele>
        <time>2026-08-08T12:39:39.672000Z</time>
      </trkpt>
      <trkpt lat="39.8750811" lon="116.6676896">
        <ele>22.45307</ele>
        <time>2026-08-08T12:39:44.648000Z</time>
      </trkpt>
      <trkpt lat="39.8749904" lon="116.6676066">
        <ele>22.37921</ele>
        <time>2026-08-08T12:39:49.625000Z</time>
      </trkpt>
      <trkpt lat="39.8749039" lon="116.6675636">
        <ele>22.341</ele>
        <time>2026-08-08T12:39:53.607000Z</time>
      </trkpt>
      <trkpt lat="39.8747962" lon="116.6675298">
        <ele>22.3591</ele>
        <time>2026-08-08T12:39:58.583000Z</time>
      </trkpt>
      <trkpt lat="39.874686" lon="116.667505">
        <ele>22.4189</ele>
        <time>2026-08-08T12:40:03.560000Z</time>
      </trkpt>
      <trkpt lat="39.8745803" lon="116.6674929">
        <ele>22.46774</ele>
        <time>2026-08-08T12:40:08.537000Z</time>
      </trkpt>
      <trkpt lat="39.8744725" lon="116.6675083">
        <ele>22.47694</ele>
        <time>2026-08-08T12:40:13.513000Z</time>
      </trkpt>
      <trkpt lat="39.8743708" lon="116.6675465">
        <ele>22.44128</ele>
        <time>2026-08-08T12:40:18.490000Z</time>
      </trkpt>
      <trkpt lat="39.8742706" lon="116.6676005">
        <ele>22.34732</ele>
        <time>2026-08-08T12:40:23.467000Z</time>
      </trkpt>
      <trkpt lat="39.8741736" lon="116.667665">
        <ele>22.18877</ele>
        <time>2026-08-08T12:40:28.444000Z</time>
      </trkpt>
      <trkpt lat="39.8740788" lon="116.6677364">
        <ele>21.99922</ele>
        <time>2026-08-08T12:40:33.420000Z</time>
      </trkpt>
      <trkpt lat="39.8739774" lon="116.6677933">
        <ele>21.81932</ele>
        <time>2026-08-08T12:40:38.397000Z</time>
      </trkpt>
      <trkpt lat="39.8738714" lon="116.6678174">
        <ele>21.69923</ele>
        <time>2026-08-08T12:40:43.374000Z</time>
      </trkpt>
      <trkpt lat="39.8737805" lon="116.6678131">
        <ele>21.66906</ele>
        <time>2026-08-08T12:40:47.355000Z</time>
      </trkpt>
      <trkpt lat="39.8736886" lon="116.6677965">
        <ele>21.69201</ele>
        <time>2026-08-08T12:40:51.336000Z</time>
      </trkpt>
      <trkpt lat="39.873579" lon="116.6677721">
        <ele>21.75827</ele>
        <time>2026-08-08T12:40:56.313000Z</time>
      </trkpt>
      <trkpt lat="39.8734703" lon="116.6677539">
        <ele>21.7986</ele>
        <time>2026-08-08T12:41:01.290000Z</time>
      </trkpt>
      <trkpt lat="39.8733639" lon="116.6677626">
        <ele>21.77772</ele>
        <time>2026-08-08T12:41:06.267000Z</time>
      </trkpt>
      <trkpt lat="39.8732634" lon="116.6678094">
        <ele>21.72658</ele>
        <time>2026-08-08T12:41:11.243000Z</time>
      </trkpt>
      <trkpt lat="39.873164" lon="116.6678648">
        <ele>21.6575</ele>
        <time>2026-08-08T12:41:16.220000Z</time>
      </trkpt>
      <trkpt lat="39.8730583" lon="116.6678813">
        <ele>21.53242</ele>
        <time>2026-08-08T12:41:21.197000Z</time>
      </trkpt>
      <trkpt lat="39.872948" lon="116.6678537">
        <ele>21.45526</ele>
        <time>2026-08-08T12:41:26Z</time>
      </trkpt>
      <trkpt lat="39.8728568" lon="116.6678074">
        <ele>21.4632</ele>
        <time>2026-08-08T12:41:30Z</time>
      </trkpt>
      <trkpt lat="39.8727673" lon="116.6677653">
        <ele>21.48459</ele>
        <time>2026-08-08T12:41:34Z</time>
      </trkpt>
      <trkpt lat="39.8726778" lon="116.6677375">
        <ele>21.47371</ele>
        <time>2026-08-08T12:41:38Z</time>
      </trkpt>
      <trkpt lat="39.8725859" lon="116.6677287">
        <ele>21.42584</ele>
        <time>2026-08-08T12:41:42Z</time>
      </trkpt>
      <trkpt lat="39.8724748" lon="116.6677311">
        <ele>21.35179</ele>
        <time>2026-08-08T12:41:47Z</time>
      </trkpt>
      <trkpt lat="39.8723664" lon="116.6677372">
        <ele>21.26948</ele>
        <time>2026-08-08T12:41:52Z</time>
      </trkpt>
      <trkpt lat="39.8722575" lon="116.6677468">
        <ele>21.19551</ele>
        <time>2026-08-08T12:41:57Z</time>
      </trkpt>
      <trkpt lat="39.8721448" lon="116.6677511">
        <ele>21.1525</ele>
        <time>2026-08-08T12:42:02Z</time>
      </trkpt>
      <trkpt lat="39.8720526" lon="116.667744">
        <ele>21.1224</ele>
        <time>2026-08-08T12:42:05.988000Z</time>
      </trkpt>
      <trkpt lat="39.8719622" lon="116.667723">
        <ele>21.04178</ele>
        <time>2026-08-08T12:42:09.969000Z</time>
      </trkpt>
      <trkpt lat="39.871875" lon="116.6676873">
        <ele>20.91637</ele>
        <time>2026-08-08T12:42:13.950000Z</time>
      </trkpt>
      <trkpt lat="39.8717886" lon="116.6676369">
        <ele>20.74354</ele>
        <time>2026-08-08T12:42:17.932000Z</time>
      </trkpt>
      <trkpt lat="39.8717062" lon="116.6675882">
        <ele>20.55935</ele>
        <time>2026-08-08T12:42:21.913000Z</time>
      </trkpt>
      <trkpt lat="39.8716203" lon="116.6675478">
        <ele>20.41814</ele>
        <time>2026-08-08T12:42:25.895000Z</time>
      </trkpt>
      <trkpt lat="39.8715117" lon="116.6675177">
        <ele>20.30327</ele>
        <time>2026-08-08T12:42:30.871000Z</time>
      </trkpt>
      <trkpt lat="39.8714037" lon="116.6675022">
        <ele>20.2345</ele>
        <time>2026-08-08T12:42:35.848000Z</time>
      </trkpt>
      <trkpt lat="39.8712985" lon="116.6675178">
        <ele>20.21026</ele>
        <time>2026-08-08T12:42:40.825000Z</time>
      </trkpt>
      <trkpt lat="39.8711928" lon="116.6675408">
        <ele>20.23372</ele>
        <time>2026-08-08T12:42:45.802000Z</time>
      </trkpt>
      <trkpt lat="39.8710902" lon="116.6675567">
        <ele>20.24196</ele>
        <time>2026-08-08T12:42:50.778000Z</time>
      </trkpt>
      <trkpt lat="39.8710255" lon="116.6676509">
        <ele>20.24845</ele>
        <time>2026-08-08T12:42:55.755000Z</time>
      </trkpt>
      <trkpt lat="39.8709857" lon="116.6677835">
        <ele>20.33093</ele>
        <time>2026-08-08T12:43:00.732000Z</time>
      </trkpt>
      <trkpt lat="39.8709053" lon="116.6678768">
        <ele>20.48943</ele>
        <time>2026-08-08T12:43:05.708000Z</time>
      </trkpt>
      <trkpt lat="39.8708139" lon="116.6678965">
        <ele>20.62565</ele>
        <time>2026-08-08T12:43:09.690000Z</time>
      </trkpt>
      <trkpt lat="39.8707231" lon="116.6679">
        <ele>20.76495</ele>
        <time>2026-08-08T12:43:13.671000Z</time>
      </trkpt>
      <trkpt lat="39.8706158" lon="116.6679011">
        <ele>20.93568</ele>
        <time>2026-08-08T12:43:18.648000Z</time>
      </trkpt>
      <trkpt lat="39.8705093" lon="116.6679022">
        <ele>21.11076</ele>
        <time>2026-08-08T12:43:23.625000Z</time>
      </trkpt>
      <trkpt lat="39.8703991" lon="116.6678908">
        <ele>21.29955</ele>
        <time>2026-08-08T12:43:28.601000Z</time>
      </trkpt>
      <trkpt lat="39.8702988" lon="116.6678396">
        <ele>21.43217</ele>
        <time>2026-08-08T12:43:33.578000Z</time>
      </trkpt>
      <trkpt lat="39.8701938" lon="116.6678138">
        <ele>21.45228</ele>
        <time>2026-08-08T12:43:38.555000Z</time>
      </trkpt>
      <trkpt lat="39.8700844" lon="116.6678282">
        <ele>21.39302</ele>
        <time>2026-08-08T12:43:43.532000Z</time>
      </trkpt>
      <trkpt lat="39.8699753" lon="116.6678165">
        <ele>21.30468</ele>
        <time>2026-08-08T12:43:48.508000Z</time>
      </trkpt>
      <trkpt lat="39.8698694" lon="116.6677845">
        <ele>21.20581</ele>
        <time>2026-08-08T12:43:53.485000Z</time>
      </trkpt>
      <trkpt lat="39.8697624" lon="116.667752">
        <ele>21.11689</ele>
        <time>2026-08-08T12:43:58.462000Z</time>
      </trkpt>
      <trkpt lat="39.8696589" lon="116.6677499">
        <ele>21.04406</ele>
        <time>2026-08-08T12:44:03.438000Z</time>
      </trkpt>
      <trkpt lat="39.8695638" lon="116.667796">
        <ele>21.00696</ele>
        <time>2026-08-08T12:44:08.415000Z</time>
      </trkpt>
      <trkpt lat="39.8694959" lon="116.6678954">
        <ele>21.00886</ele>
        <time>2026-08-08T12:44:13.392000Z</time>
      </trkpt>
      <trkpt lat="39.8694653" lon="116.6680145">
        <ele>21.05151</ele>
        <time>2026-08-08T12:44:18.369000Z</time>
      </trkpt>
      <trkpt lat="39.8694841" lon="116.6681395">
        <ele>21.09978</ele>
        <time>2026-08-08T12:44:23.345000Z</time>
      </trkpt>
      <trkpt lat="39.8695306" lon="116.6682577">
        <ele>21.09459</ele>
        <time>2026-08-08T12:44:28.322000Z</time>
      </trkpt>
      <trkpt lat="39.8696118" lon="116.6683466">
        <ele>21.02487</ele>
        <time>2026-08-08T12:44:33.299000Z</time>
      </trkpt>
      <trkpt lat="39.8697115" lon="116.6683642">
        <ele>20.9077</ele>
        <time>2026-08-08T12:44:38.276000Z</time>
      </trkpt>
      <trkpt lat="39.8698122" lon="116.6683274">
        <ele>20.78633</ele>
        <time>2026-08-08T12:44:43.252000Z</time>
      </trkpt>
      <trkpt lat="39.8699152" lon="116.668296">
        <ele>20.69108</ele>
        <time>2026-08-08T12:44:48.229000Z</time>
      </trkpt>
      <trkpt lat="39.8700226" lon="116.6682978">
        <ele>20.62904</ele>
        <time>2026-08-08T12:44:53.206000Z</time>
      </trkpt>
      <trkpt lat="39.8701263" lon="116.6682934">
        <ele>20.56907</ele>
        <time>2026-08-08T12:44:58Z</time>
      </trkpt>
      <trkpt lat="39.8702296" lon="116.6682519">
        <ele>20.50957</ele>
        <time>2026-08-08T12:45:03Z</time>
      </trkpt>
      <trkpt lat="39.8703228" lon="116.6681837">
        <ele>20.42712</ele>
        <time>2026-08-08T12:45:08Z</time>
      </trkpt>
      <trkpt lat="39.8704156" lon="116.6681143">
        <ele>20.3097</ele>
        <time>2026-08-08T12:45:13Z</time>
      </trkpt>
      <trkpt lat="39.8705234" lon="116.6680818">
        <ele>20.20322</ele>
        <time>2026-08-08T12:45:18Z</time>
      </trkpt>
      <trkpt lat="39.8706346" lon="116.6680905">
        <ele>20.15627</ele>
        <time>2026-08-08T12:45:23Z</time>
      </trkpt>
      <trkpt lat="39.8707271" lon="116.668113">
        <ele>20.1675</ele>
        <time>2026-08-08T12:45:27.048000Z</time>
      </trkpt>
      <trkpt lat="39.8708357" lon="116.6681395">
        <ele>20.14038</ele>
        <time>2026-08-08T12:45:32.024000Z</time>
      </trkpt>
      <trkpt lat="39.8709465" lon="116.6681252">
        <ele>20.18823</ele>
        <time>2026-08-08T12:45:37Z</time>
      </trkpt>
      <trkpt lat="39.8710535" lon="116.6680801">
        <ele>20.51822</ele>
        <time>2026-08-08T12:45:41.978000Z</time>
      </trkpt>
      <trkpt lat="39.8711505" lon="116.6680172">
        <ele>20.83664</ele>
        <time>2026-08-08T12:45:46.955000Z</time>
      </trkpt>
      <trkpt lat="39.8712468" lon="116.6679599">
        <ele>20.99268</ele>
        <time>2026-08-08T12:45:51.931000Z</time>
      </trkpt>
      <trkpt lat="39.8713548" lon="116.6679312">
        <ele>21.03352</ele>
        <time>2026-08-08T12:45:56.908000Z</time>
      </trkpt>
      <trkpt lat="39.8714658" lon="116.6679279">
        <ele>21.05306</ele>
        <time>2026-08-08T12:46:01.885000Z</time>
      </trkpt>
      <trkpt lat="39.8715549" lon="116.6679455">
        <ele>21.05964</ele>
        <time>2026-08-08T12:46:05.866000Z</time>
      </trkpt>
      <trkpt lat="39.8716418" lon="116.6679779">
        <ele>21.03553</ele>
        <time>2026-08-08T12:46:09.848000Z</time>
      </trkpt>
      <trkpt lat="39.8717228" lon="116.6680316">
        <ele>21.01663</ele>
        <time>2026-08-08T12:46:13.829000Z</time>
      </trkpt>
      <trkpt lat="39.8718033" lon="116.6680904">
        <ele>21.03547</ele>
        <time>2026-08-08T12:46:17.810000Z</time>
      </trkpt>
      <trkpt lat="39.8718909" lon="116.6681424">
        <ele>21.07925</ele>
        <time>2026-08-08T12:46:21.792000Z</time>
      </trkpt>
      <trkpt lat="39.8719955" lon="116.6681771">
        <ele>21.16993</ele>
        <time>2026-08-08T12:46:26.768000Z</time>
      </trkpt>
      <trkpt lat="39.8721026" lon="116.6681903">
        <ele>21.30211</ele>
        <time>2026-08-08T12:46:31.745000Z</time>
      </trkpt>
      <trkpt lat="39.8722113" lon="116.6681993">
        <ele>21.42075</ele>
        <time>2026-08-08T12:46:36.722000Z</time>
      </trkpt>
      <trkpt lat="39.872318" lon="116.668232">
        <ele>21.51921</ele>
        <time>2026-08-08T12:46:41.699000Z</time>
      </trkpt>
      <trkpt lat="39.8724155" lon="116.6683042">
        <ele>21.60248</ele>
        <time>2026-08-08T12:46:46.675000Z</time>
      </trkpt>
      <trkpt lat="39.8724834" lon="116.6683835">
        <ele>21.62261</ele>
        <time>2026-08-08T12:46:50.657000Z</time>
      </trkpt>
      <trkpt lat="39.872542" lon="116.6684751">
        <ele>21.60673</ele>
        <time>2026-08-08T12:46:54.638000Z</time>
      </trkpt>
      <trkpt lat="39.8725914" lon="116.668576">
        <ele>21.57886</ele>
        <time>2026-08-08T12:46:58.619000Z</time>
      </trkpt>
      <trkpt lat="39.8726235" lon="116.6686856">
        <ele>21.53779</ele>
        <time>2026-08-08T12:47:02.601000Z</time>
      </trkpt>
      <trkpt lat="39.8726307" lon="116.6688026">
        <ele>21.49871</ele>
        <time>2026-08-08T12:47:06.582000Z</time>
      </trkpt>
      <trkpt lat="39.8726188" lon="116.6689195">
        <ele>21.48296</ele>
        <time>2026-08-08T12:47:10.564000Z</time>
      </trkpt>
      <trkpt lat="39.8725965" lon="116.6690342">
        <ele>21.49571</ele>
        <time>2026-08-08T12:47:14.545000Z</time>
      </trkpt>
      <trkpt lat="39.8725693" lon="116.6691462">
        <ele>21.52323</ele>
        <time>2026-08-08T12:47:18.526000Z</time>
      </trkpt>
      <trkpt lat="39.8725355" lon="116.6692826">
        <ele>21.55584</ele>
        <time>2026-08-08T12:47:23.503000Z</time>
      </trkpt>
      <trkpt lat="39.8725123" lon="116.6694196">
        <ele>21.57815</ele>
        <time>2026-08-08T12:47:28.480000Z</time>
      </trkpt>
      <trkpt lat="39.8725067" lon="116.6695628">
        <ele>21.57619</ele>
        <time>2026-08-08T12:47:33.456000Z</time>
      </trkpt>
      <trkpt lat="39.8725204" lon="116.6696972">
        <ele>21.56361</ele>
        <time>2026-08-08T12:47:38.433000Z</time>
      </trkpt>
      <trkpt lat="39.8725616" lon="116.669826">
        <ele>21.55352</ele>
        <time>2026-08-08T12:47:43.410000Z</time>
      </trkpt>
      <trkpt lat="39.8726279" lon="116.6699343">
        <ele>21.5096</ele>
        <time>2026-08-08T12:47:48.387000Z</time>
      </trkpt>
      <trkpt lat="39.8727089" lon="116.6700168">
        <ele>21.40527</ele>
        <time>2026-08-08T12:47:53.363000Z</time>
      </trkpt>
      <trkpt lat="39.8728027" lon="116.6700679">
        <ele>21.27628</ele>
        <time>2026-08-08T12:47:58.340000Z</time>
      </trkpt>
      <trkpt lat="39.872904" lon="116.6700985">
        <ele>21.14571</ele>
        <time>2026-08-08T12:48:03.317000Z</time>
      </trkpt>
      <trkpt lat="39.8730115" lon="116.6701154">
        <ele>21.02161</ele>
        <time>2026-08-08T12:48:08.294000Z</time>
      </trkpt>
      <trkpt lat="39.8731193" lon="116.6701132">
        <ele>20.93401</ele>
        <time>2026-08-08T12:48:13.270000Z</time>
      </trkpt>
      <trkpt lat="39.873228" lon="116.6700935">
        <ele>20.89966</ele>
        <time>2026-08-08T12:48:18.247000Z</time>
      </trkpt>
      <trkpt lat="39.8733361" lon="116.6700622">
        <ele>20.90612</ele>
        <time>2026-08-08T12:48:23.224000Z</time>
      </trkpt>
      <trkpt lat="39.8734403" lon="116.6700368">
        <ele>20.89125</ele>
        <time>2026-08-08T12:48:28.200000Z</time>
      </trkpt>
      <trkpt lat="39.8735404" lon="116.6700063">
        <ele>20.85537</ele>
        <time>2026-08-08T12:48:33.177000Z</time>
      </trkpt>
      <trkpt lat="39.8736301" lon="116.6699355">
        <ele>20.8641</ele>
        <time>2026-08-08T12:48:38.154000Z</time>
      </trkpt>
      <trkpt lat="39.8737033" lon="116.6698647">
        <ele>20.92249</ele>
        <time>2026-08-08T12:48:42.135000Z</time>
      </trkpt>
      <trkpt lat="39.873805" lon="116.6698126">
        <ele>21.0354</ele>
        <time>2026-08-08T12:48:47.112000Z</time>
      </trkpt>
      <trkpt lat="39.8739102" lon="116.6698181">
        <ele>21.19573</ele>
        <time>2026-08-08T12:48:52.089000Z</time>
      </trkpt>
      <trkpt lat="39.8740174" lon="116.6698434">
        <ele>21.37796</ele>
        <time>2026-08-08T12:48:57.065000Z</time>
      </trkpt>
      <trkpt lat="39.8741237" lon="116.6698422">
        <ele>21.4984</ele>
        <time>2026-08-08T12:49:02Z</time>
      </trkpt>
      <trkpt lat="39.8742331" lon="116.6698143">
        <ele>21.57208</ele>
        <time>2026-08-08T12:49:07Z</time>
      </trkpt>
      <trkpt lat="39.8743176" lon="116.6697503">
        <ele>21.6129</ele>
        <time>2026-08-08T12:49:11Z</time>
      </trkpt>
      <trkpt lat="39.8743879" lon="116.6696586">
        <ele>21.66939</ele>
        <time>2026-08-08T12:49:14.981000Z</time>
      </trkpt>
      <trkpt lat="39.874456" lon="116.6695604">
        <ele>21.77975</ele>
        <time>2026-08-08T12:49:18.963000Z</time>
      </trkpt>
      <trkpt lat="39.8745407" lon="116.6694859">
        <ele>21.94321</ele>
        <time>2026-08-08T12:49:22.944000Z</time>
      </trkpt>
      <trkpt lat="39.8746375" lon="116.6694583">
        <ele>22.1616</ele>
        <time>2026-08-08T12:49:26.926000Z</time>
      </trkpt>
      <trkpt lat="39.8747363" lon="116.669476">
        <ele>22.40647</ele>
        <time>2026-08-08T12:49:30.907000Z</time>
      </trkpt>
      <trkpt lat="39.8748313" lon="116.6695196">
        <ele>22.63276</ele>
        <time>2026-08-08T12:49:34.888000Z</time>
      </trkpt>
      <trkpt lat="39.8749193" lon="116.6695746">
        <ele>22.8147</ele>
        <time>2026-08-08T12:49:38.870000Z</time>
      </trkpt>
      <trkpt lat="39.875004" lon="116.6696305">
        <ele>22.95418</ele>
        <time>2026-08-08T12:49:42.851000Z</time>
      </trkpt>
      <trkpt lat="39.8750919" lon="116.6696561">
        <ele>23.06981</ele>
        <time>2026-08-08T12:49:46.832000Z</time>
      </trkpt>
      <trkpt lat="39.8751964" lon="116.6696142">
        <ele>23.22008</ele>
        <time>2026-08-08T12:49:51.809000Z</time>
      </trkpt>
      <trkpt lat="39.8752749" lon="116.6695531">
        <ele>23.36932</ele>
        <time>2026-08-08T12:49:55.790000Z</time>
      </trkpt>
      <trkpt lat="39.8753723" lon="116.6695056">
        <ele>23.51979</ele>
        <time>2026-08-08T12:50:00.767000Z</time>
      </trkpt>
      <trkpt lat="39.8754797" lon="116.6694725">
        <ele>23.56839</ele>
        <time>2026-08-08T12:50:05.744000Z</time>
      </trkpt>
      <trkpt lat="39.8755609" lon="116.6694205">
        <ele>23.54316</ele>
        <time>2026-08-08T12:50:09.725000Z</time>
      </trkpt>
      <trkpt lat="39.8756428" lon="116.6693231">
        <ele>23.4381</ele>
        <time>2026-08-08T12:50:14.702000Z</time>
      </trkpt>
      <trkpt lat="39.8756838" lon="116.6691938">
        <ele>23.24982</ele>
        <time>2026-08-08T12:50:19.679000Z</time>
      </trkpt>
      <trkpt lat="39.8756825" lon="116.6690568">
        <ele>23.02897</ele>
        <time>2026-08-08T12:50:24.655000Z</time>
      </trkpt>
      <trkpt lat="39.8756486" lon="116.6689303">
        <ele>22.91194</ele>
        <time>2026-08-08T12:50:29.632000Z</time>
      </trkpt>
      <trkpt lat="39.8755869" lon="116.6688151">
        <ele>22.96149</ele>
        <time>2026-08-08T12:50:34.609000Z</time>
      </trkpt>
      <trkpt lat="39.8755173" lon="116.6687376">
        <ele>23.05295</ele>
        <time>2026-08-08T12:50:38.590000Z</time>
      </trkpt>
      <trkpt lat="39.8754324" lon="116.6686456">
        <ele>23.168</ele>
        <time>2026-08-08T12:50:43.567000Z</time>
      </trkpt>
      <trkpt lat="39.8753672" lon="116.6685314">
        <ele>23.2139</ele>
        <time>2026-08-08T12:50:48.544000Z</time>
      </trkpt>
      <trkpt lat="39.8753273" lon="116.6683964">
        <ele>23.17654</ele>
        <time>2026-08-08T12:50:53.520000Z</time>
      </trkpt>
      <trkpt lat="39.8753044" lon="116.6682805">
        <ele>23.10773</ele>
        <time>2026-08-08T12:50:57.502000Z</time>
      </trkpt>
      <trkpt lat="39.8752804" lon="116.6681641">
        <ele>23.03021</ele>
        <time>2026-08-08T12:51:01.483000Z</time>
      </trkpt>
      <trkpt lat="39.8752473" lon="116.6680541">
        <ele>22.95941</ele>
        <time>2026-08-08T12:51:05.464000Z</time>
      </trkpt>
      <trkpt lat="39.8752044" lon="116.6679487">
        <ele>22.90005</ele>
        <time>2026-08-08T12:51:09.446000Z</time>
      </trkpt>
      <trkpt lat="39.8751563" lon="116.6678495">
        <ele>22.83269</ele>
        <time>2026-08-08T12:51:13.427000Z</time>
      </trkpt>
      <trkpt lat="39.8751014" lon="116.6677523">
        <ele>22.74757</ele>
        <time>2026-08-08T12:51:17.408000Z</time>
      </trkpt>
      <trkpt lat="39.8750351" lon="116.6676683">
        <ele>22.64391</ele>
        <time>2026-08-08T12:51:21.390000Z</time>
      </trkpt>
      <trkpt lat="39.8749567" lon="116.6676071">
        <ele>22.53106</ele>
        <time>2026-08-08T12:51:25.371000Z</time>
      </trkpt>
      <trkpt lat="39.8748696" lon="116.6675681">
        <ele>22.42165</ele>
        <time>2026-08-08T12:51:29.353000Z</time>
      </trkpt>
      <trkpt lat="39.8747598" lon="116.667534">
        <ele>22.36728</ele>
        <time>2026-08-08T12:51:34.329000Z</time>
      </trkpt>
      <trkpt lat="39.8746701" lon="116.6675095">
        <ele>22.42043</ele>
        <time>2026-08-08T12:51:38.311000Z</time>
      </trkpt>
      <trkpt lat="39.8745593" lon="116.6674924">
        <ele>22.55279</ele>
        <time>2026-08-08T12:51:43.287000Z</time>
      </trkpt>
      <trkpt lat="39.8744518" lon="116.6675074">
        <ele>22.68217</ele>
        <time>2026-08-08T12:51:48.264000Z</time>
      </trkpt>
      <trkpt lat="39.8743442" lon="116.6675469">
        <ele>22.76978</ele>
        <time>2026-08-08T12:51:53.241000Z</time>
      </trkpt>
      <trkpt lat="39.8742457" lon="116.6676156">
        <ele>22.84111</ele>
        <time>2026-08-08T12:51:58.218000Z</time>
      </trkpt>
      <trkpt lat="39.8741507" lon="116.6676802">
        <ele>22.90335</ele>
        <time>2026-08-08T12:52:03Z</time>
      </trkpt>
      <trkpt lat="39.8740685" lon="116.6677365">
        <ele>22.8858</ele>
        <time>2026-08-08T12:52:07Z</time>
      </trkpt>
      <trkpt lat="39.8739849" lon="116.6677818">
        <ele>22.81328</ele>
        <time>2026-08-08T12:52:11Z</time>
      </trkpt>
      <trkpt lat="39.8738967" lon="116.6678124">
        <ele>22.73777</ele>
        <time>2026-08-08T12:52:15Z</time>
      </trkpt>
      <trkpt lat="39.8738055" lon="116.6678116">
        <ele>22.68461</ele>
        <time>2026-08-08T12:52:19Z</time>
      </trkpt>
      <trkpt lat="39.8737147" lon="116.6677964">
        <ele>22.65294</ele>
        <time>2026-08-08T12:52:23Z</time>
      </trkpt>
      <trkpt lat="39.8736237" lon="116.6677739">
        <ele>22.62276</ele>
        <time>2026-08-08T12:52:27Z</time>
      </trkpt>
      <trkpt lat="39.8735309" lon="116.6677456">
        <ele>22.59672</ele>
        <time>2026-08-08T12:52:31Z</time>
      </trkpt>
      <trkpt lat="39.8734365" lon="116.6677233">
        <ele>22.57163</ele>
        <time>2026-08-08T12:52:35Z</time>
      </trkpt>
      <trkpt lat="39.8733451" lon="116.6677347">
        <ele>22.53479</ele>
        <time>2026-08-08T12:52:39Z</time>
      </trkpt>
      <trkpt lat="39.8732607" lon="116.6677791">
        <ele>22.44512</ele>
        <time>2026-08-08T12:52:43Z</time>
      </trkpt>
      <trkpt lat="39.8731761" lon="116.6678291">
        <ele>22.26502</ele>
        <time>2026-08-08T12:52:46.989000Z</time>
      </trkpt>
      <trkpt lat="39.8730843" lon="116.6678574">
        <ele>22.04562</ele>
        <time>2026-08-08T12:52:50.971000Z</time>
      </trkpt>
      <trkpt lat="39.8729902" lon="116.6678552">
        <ele>21.88111</ele>
        <time>2026-08-08T12:52:54.952000Z</time>
      </trkpt>
      <trkpt lat="39.8728989" lon="116.667825">
        <ele>21.79507</ele>
        <time>2026-08-08T12:52:58.933000Z</time>
      </trkpt>
      <trkpt lat="39.8728123" lon="116.6677822">
        <ele>21.7334</ele>
        <time>2026-08-08T12:53:02.915000Z</time>
      </trkpt>
      <trkpt lat="39.8727067" lon="116.6677899">
        <ele>21.66514</ele>
        <time>2026-08-08T12:53:07.891000Z</time>
      </trkpt>
      <trkpt lat="39.872616" lon="116.6678753">
        <ele>21.66596</ele>
        <time>2026-08-08T12:53:12.868000Z</time>
      </trkpt>
      <trkpt lat="39.8725517" lon="116.6679877">
        <ele>21.70998</ele>
        <time>2026-08-08T12:53:17.845000Z</time>
      </trkpt>
      <trkpt lat="39.8725494" lon="116.6681055">
        <ele>21.76902</ele>
        <time>2026-08-08T12:53:21.826000Z</time>
      </trkpt>
      <trkpt lat="39.8725593" lon="116.6682226">
        <ele>21.83788</ele>
        <time>2026-08-08T12:53:25.808000Z</time>
      </trkpt>
      <trkpt lat="39.8725413" lon="116.6683631">
        <ele>21.88538</ele>
        <time>2026-08-08T12:53:30.784000Z</time>
      </trkpt>
      <trkpt lat="39.8725527" lon="116.6684955">
        <ele>21.83546</ele>
        <time>2026-08-08T12:53:35.761000Z</time>
      </trkpt>
      <trkpt lat="39.8725964" lon="116.6685988">
        <ele>21.76148</ele>
        <time>2026-08-08T12:53:39.742000Z</time>
      </trkpt>
      <trkpt lat="39.8726305" lon="116.6687358">
        <ele>21.66197</ele>
        <time>2026-08-08T12:53:44.719000Z</time>
      </trkpt>
      <trkpt lat="39.8726352" lon="116.6688814">
        <ele>21.56675</ele>
        <time>2026-08-08T12:53:49.696000Z</time>
      </trkpt>
      <trkpt lat="39.8726142" lon="116.6689995">
        <ele>21.51534</ele>
        <time>2026-08-08T12:53:53.677000Z</time>
      </trkpt>
      <trkpt lat="39.8725816" lon="116.6691169">
        <ele>21.4754</ele>
        <time>2026-08-08T12:53:57.659000Z</time>
      </trkpt>
      <trkpt lat="39.872547" lon="116.6692315">
        <ele>21.43289</ele>
        <time>2026-08-08T12:54:01.640000Z</time>
      </trkpt>
      <trkpt lat="39.8725191" lon="116.669349">
        <ele>21.39453</ele>
        <time>2026-08-08T12:54:05.621000Z</time>
      </trkpt>
      <trkpt lat="39.8725046" lon="116.6694657">
        <ele>21.38137</ele>
        <time>2026-08-08T12:54:09.603000Z</time>
      </trkpt>
      <trkpt lat="39.8725136" lon="116.6696067">
        <ele>21.44152</ele>
        <time>2026-08-08T12:54:14.579000Z</time>
      </trkpt>
      <trkpt lat="39.8725492" lon="116.6697398">
        <ele>21.53986</ele>
        <time>2026-08-08T12:54:19.556000Z</time>
      </trkpt>
      <trkpt lat="39.8725981" lon="116.6698674">
        <ele>21.56702</ele>
        <time>2026-08-08T12:54:24.533000Z</time>
      </trkpt>
      <trkpt lat="39.8726687" lon="116.6699768">
        <ele>21.46848</ele>
        <time>2026-08-08T12:54:29.510000Z</time>
      </trkpt>
      <trkpt lat="39.8727607" lon="116.6700517">
        <ele>21.27565</ele>
        <time>2026-08-08T12:54:34.486000Z</time>
      </trkpt>
      <trkpt lat="39.8728575" lon="116.6701075">
        <ele>21.07255</ele>
        <time>2026-08-08T12:54:39.463000Z</time>
      </trkpt>
      <trkpt lat="39.8729624" lon="116.6701357">
        <ele>20.91491</ele>
        <time>2026-08-08T12:54:44.440000Z</time>
      </trkpt>
      <trkpt lat="39.873072" lon="116.6701329">
        <ele>20.80261</ele>
        <time>2026-08-08T12:54:49.416000Z</time>
      </trkpt>
      <trkpt lat="39.8731784" lon="116.6701121">
        <ele>20.72752</ele>
        <time>2026-08-08T12:54:54.393000Z</time>
      </trkpt>
      <trkpt lat="39.8732864" lon="116.670081">
        <ele>20.70484</ele>
        <time>2026-08-08T12:54:59.370000Z</time>
      </trkpt>
      <trkpt lat="39.8733898" lon="116.6700343">
        <ele>20.69786</ele>
        <time>2026-08-08T12:55:04.346000Z</time>
      </trkpt>
      <trkpt lat="39.8734861" lon="116.6699587">
        <ele>20.75553</ele>
        <time>2026-08-08T12:55:09.323000Z</time>
      </trkpt>
      <trkpt lat="39.8735574" lon="116.6698808">
        <ele>20.86541</ele>
        <time>2026-08-08T12:55:13.304000Z</time>
      </trkpt>
      <trkpt lat="39.8736304" lon="116.6698039">
        <ele>21.01753</ele>
        <time>2026-08-08T12:55:17.286000Z</time>
      </trkpt>
      <trkpt lat="39.8737141" lon="116.6697505">
        <ele>21.19242</ele>
        <time>2026-08-08T12:55:21.267000Z</time>
      </trkpt>
      <trkpt lat="39.8738045" lon="116.6697367">
        <ele>21.3603</ele>
        <time>2026-08-08T12:55:25.248000Z</time>
      </trkpt>
      <trkpt lat="39.8738983" lon="116.669754">
        <ele>21.49255</ele>
        <time>2026-08-08T12:55:29.230000Z</time>
      </trkpt>
      <trkpt lat="39.8739912" lon="116.6697792">
        <ele>21.59347</ele>
        <time>2026-08-08T12:55:33.211000Z</time>
      </trkpt>
      <trkpt lat="39.8740822" lon="116.6697918">
        <ele>21.67842</ele>
        <time>2026-08-08T12:55:37Z</time>
      </trkpt>
      <trkpt lat="39.8741792" lon="116.6697885">
        <ele>21.73937</ele>
        <time>2026-08-08T12:55:41Z</time>
      </trkpt>
      <trkpt lat="39.8742675" lon="116.6697583">
        <ele>21.7841</ele>
        <time>2026-08-08T12:55:45Z</time>
      </trkpt>
      <trkpt lat="39.8743411" lon="116.6696902">
        <ele>21.81182</ele>
        <time>2026-08-08T12:55:49Z</time>
      </trkpt>
      <trkpt lat="39.8744074" lon="116.6696049">
        <ele>21.7865</ele>
        <time>2026-08-08T12:55:53Z</time>
      </trkpt>
      <trkpt lat="39.874478" lon="116.669523">
        <ele>21.7301</ele>
        <time>2026-08-08T12:55:57Z</time>
      </trkpt>
      <trkpt lat="39.8745658" lon="116.6694668">
        <ele>21.7041</ele>
        <time>2026-08-08T12:56:01Z</time>
      </trkpt>
      <trkpt lat="39.8746656" lon="116.6694526">
        <ele>21.71179</ele>
        <time>2026-08-08T12:56:05Z</time>
      </trkpt>
      <trkpt lat="39.874762" lon="116.6694725">
        <ele>21.78634</ele>
        <time>2026-08-08T12:56:09Z</time>
      </trkpt>
      <trkpt lat="39.8748565" lon="116.6695146">
        <ele>22.01115</ele>
        <time>2026-08-08T12:56:13.025000Z</time>
      </trkpt>
      <trkpt lat="39.874945" lon="116.6695656">
        <ele>22.28728</ele>
        <time>2026-08-08T12:56:17.006000Z</time>
      </trkpt>
      <trkpt lat="39.8750375" lon="116.6696131">
        <ele>22.60227</ele>
        <time>2026-08-08T12:56:20.987000Z</time>
      </trkpt>
      <trkpt lat="39.8751286" lon="116.6696223">
        <ele>22.91732</ele>
        <time>2026-08-08T12:56:24.969000Z</time>
      </trkpt>
      <trkpt lat="39.8752174" lon="116.6695768">
        <ele>23.16026</ele>
        <time>2026-08-08T12:56:28.950000Z</time>
      </trkpt>
      <trkpt lat="39.8753026" lon="116.6695206">
        <ele>23.31398</ele>
        <time>2026-08-08T12:56:32.931000Z</time>
      </trkpt>
      <trkpt lat="39.8754109" lon="116.6694822">
        <ele>23.38135</ele>
        <time>2026-08-08T12:56:37.908000Z</time>
      </trkpt>
      <trkpt lat="39.8755201" lon="116.6694508">
        <ele>23.38837</ele>
        <time>2026-08-08T12:56:42.885000Z</time>
      </trkpt>
      <trkpt lat="39.8755975" lon="116.6693898">
        <ele>23.37769</ele>
        <time>2026-08-08T12:56:46.866000Z</time>
      </trkpt>
      <trkpt lat="39.8756531" lon="116.6692706">
        <ele>23.31364</ele>
        <time>2026-08-08T12:56:51.843000Z</time>
      </trkpt>
      <trkpt lat="39.8756716" lon="116.6691349">
        <ele>23.19466</ele>
        <time>2026-08-08T12:56:56.819000Z</time>
      </trkpt>
      <trkpt lat="39.875655" lon="116.6689954">
        <ele>23.10858</ele>
        <time>2026-08-08T12:57:01.796000Z</time>
      </trkpt>
      <trkpt lat="39.8756247" lon="116.6688852">
        <ele>23.07935</ele>
        <time>2026-08-08T12:57:05.777000Z</time>
      </trkpt>
      <trkpt lat="39.8755723" lon="116.668785">
        <ele>23.04691</ele>
        <time>2026-08-08T12:57:09.759000Z</time>
      </trkpt>
      <trkpt lat="39.8755063" lon="116.6687034">
        <ele>22.98969</ele>
        <time>2026-08-08T12:57:13.740000Z</time>
      </trkpt>
      <trkpt lat="39.8754358" lon="116.6686194">
        <ele>22.91944</ele>
        <time>2026-08-08T12:57:17.721000Z</time>
      </trkpt>
      <trkpt lat="39.8753795" lon="116.6685195">
        <ele>22.86225</ele>
        <time>2026-08-08T12:57:21.703000Z</time>
      </trkpt>
      <trkpt lat="39.8753418" lon="116.6684042">
        <ele>22.86741</ele>
        <time>2026-08-08T12:57:25.684000Z</time>
      </trkpt>
      <trkpt lat="39.8753179" lon="116.668283">
        <ele>22.94701</ele>
        <time>2026-08-08T12:57:29.665000Z</time>
      </trkpt>
      <trkpt lat="39.8753051" lon="116.6681635">
        <ele>23.09571</ele>
        <time>2026-08-08T12:57:33.647000Z</time>
      </trkpt>
      <trkpt lat="39.8753474" lon="116.6680516">
        <ele>23.36961</ele>
        <time>2026-08-08T12:57:38.623000Z</time>
      </trkpt>
      <trkpt lat="39.8754581" lon="116.668071">
        <ele>23.67166</ele>
        <time>2026-08-08T12:57:43.600000Z</time>
      </trkpt>
      <trkpt lat="39.8755455" lon="116.6681243">
        <ele>23.85642</ele>
        <time>2026-08-08T12:57:47.581000Z</time>
      </trkpt>
    </trkseg>
  </trk>
</gpx>