<?xml version="1.0" encoding="UTF-8"?>
<gpx xmlns="http://www.topografix.com/GPX/1/1" xmlns:gpxtpx="http://www.garmin.com/xmlschemas/TrackPointExtension/v1" xmlns:xsi="http://www.w3.org/2001/XMLSchema-instance" xsi:schemaLocation="http://www.topografix.com/GPX/1/1 http://www.topografix.com/GPX/1/1/gpx.xsd" version="1.1" creator="gpx.py -- https://github.com/tkrajina/gpxpy">
  <trk>
    <name>gpx from codoon</name>
    <type>Run</type>
    <trkseg>
      <trkpt lat="39.8749796" lon="116.6708735">
        <ele>25.10298</ele>
        <time>2026-08-16T10:32:55.749000Z</time>
      </trkpt>
      <trkpt lat="39.8749608" lon="116.6707376">
        <ele>24.33421</ele>
        <time>2026-08-16T10:33:02.228000Z</time>
      </trkpt>
      <trkpt lat="39.8748697" lon="116.6706641">
        <ele>23.43202</ele>
        <time>2026-08-16T10:33:08.139000Z</time>
      </trkpt>
      <trkpt lat="39.8747654" lon="116.6706451">
        <ele>23.20646</ele>
        <time>2026-08-16T10:33:13.116000Z</time>
      </trkpt>
      <trkpt lat="39.874661" lon="116.6706333">
        <ele>23.26732</ele>
        <time>2026-08-16T10:33:18.093000Z</time>
      </trkpt>
      <trkpt lat="39.8745652" lon="116.6706208">
        <ele>23.69414</ele>
        <time>2026-08-16T10:33:23.069000Z</time>
      </trkpt>
      <trkpt lat="39.874468" lon="116.6706074">
        <ele>24.62423</ele>
        <time>2026-08-16T10:33:28.046000Z</time>
      </trkpt>
      <trkpt lat="39.8743555" lon="116.6705931">
        <ele>25.3132</ele>
        <time>2026-08-16T10:33:33Z</time>
      </trkpt>
      <trkpt lat="39.8742642" lon="116.670585">
        <ele>25.17597</ele>
        <time>2026-08-16T10:33:37Z</time>
      </trkpt>
      <trkpt lat="39.8741522" lon="116.6705781">
        <ele>24.46726</ele>
        <time>2026-08-16T10:33:41.982000Z</time>
      </trkpt>
      <trkpt lat="39.8740433" lon="116.6705762">
        <ele>23.86421</ele>
        <time>2026-08-16T10:33:46.958000Z</time>
      </trkpt>
      <trkpt lat="39.8739415" lon="116.6705806">
        <ele>23.5691</ele>
        <time>2026-08-16T10:33:51.935000Z</time>
      </trkpt>
      <trkpt lat="39.8738436" lon="116.6705945">
        <ele>23.5061</ele>
        <time>2026-08-16T10:33:56.912000Z</time>
      </trkpt>
      <trkpt lat="39.8737423" lon="116.6706092">
        <ele>23.52888</ele>
        <time>2026-08-16T10:34:01.889000Z</time>
      </trkpt>
      <trkpt lat="39.8736419" lon="116.6706178">
        <ele>23.49035</ele>
        <time>2026-08-16T10:34:06.866000Z</time>
      </trkpt>
      <trkpt lat="39.8735424" lon="116.6706221">
        <ele>23.39162</ele>
        <time>2026-08-16T10:34:11.843000Z</time>
      </trkpt>
      <trkpt lat="39.8734449" lon="116.670625">
        <ele>23.31023</ele>
        <time>2026-08-16T10:34:16.820000Z</time>
      </trkpt>
      <trkpt lat="39.8733465" lon="116.670635">
        <ele>23.23885</ele>
        <time>2026-08-16T10:34:21.797000Z</time>
      </trkpt>
      <trkpt lat="39.8732471" lon="116.6706455">
        <ele>23.19486</ele>
        <time>2026-08-16T10:34:26.773000Z</time>
      </trkpt>
      <trkpt lat="39.873146" lon="116.6706512">
        <ele>23.19184</ele>
        <time>2026-08-16T10:34:31.750000Z</time>
      </trkpt>
      <trkpt lat="39.8730469" lon="116.6706542">
        <ele>23.17026</ele>
        <time>2026-08-16T10:34:36.727000Z</time>
      </trkpt>
      <trkpt lat="39.8729575" lon="116.6706824">
        <ele>23.09827</ele>
        <time>2026-08-16T10:34:41.704000Z</time>
      </trkpt>
      <trkpt lat="39.872907" lon="116.6708032">
        <ele>23.00235</ele>
        <time>2026-08-16T10:34:47.676000Z</time>
      </trkpt>
      <trkpt lat="39.8728542" lon="116.6709131">
        <ele>23.01558</ele>
        <time>2026-08-16T10:34:53.648000Z</time>
      </trkpt>
      <trkpt lat="39.8727463" lon="116.6709283">
        <ele>23.06482</ele>
        <time>2026-08-16T10:34:58.625000Z</time>
      </trkpt>
      <trkpt lat="39.8726545" lon="116.6709169">
        <ele>23.07467</ele>
        <time>2026-08-16T10:35:02.607000Z</time>
      </trkpt>
      <trkpt lat="39.8725639" lon="116.6709081">
        <ele>23.0663</ele>
        <time>2026-08-16T10:35:06.588000Z</time>
      </trkpt>
      <trkpt lat="39.8724568" lon="116.6709356">
        <ele>23.01838</ele>
        <time>2026-08-16T10:35:11.565000Z</time>
      </trkpt>
      <trkpt lat="39.8723801" lon="116.6710218">
        <ele>23.0077</ele>
        <time>2026-08-16T10:35:16.542000Z</time>
      </trkpt>
      <trkpt lat="39.8723415" lon="116.6711368">
        <ele>23.0673</ele>
        <time>2026-08-16T10:35:21.519000Z</time>
      </trkpt>
      <trkpt lat="39.8723283" lon="116.6712605">
        <ele>23.09707</ele>
        <time>2026-08-16T10:35:26.495000Z</time>
      </trkpt>
      <trkpt lat="39.8723268" lon="116.6713861">
        <ele>23.03025</ele>
        <time>2026-08-16T10:35:31.472000Z</time>
      </trkpt>
      <trkpt lat="39.8723355" lon="116.6715086">
        <ele>22.92707</ele>
        <time>2026-08-16T10:35:36.449000Z</time>
      </trkpt>
      <trkpt lat="39.8723531" lon="116.6716284">
        <ele>22.89504</ele>
        <time>2026-08-16T10:35:41.426000Z</time>
      </trkpt>
      <trkpt lat="39.8723756" lon="116.6717574">
        <ele>22.98682</ele>
        <time>2026-08-16T10:35:46.403000Z</time>
      </trkpt>
      <trkpt lat="39.8723863" lon="116.6718955">
        <ele>23.16764</ele>
        <time>2026-08-16T10:35:51.379000Z</time>
      </trkpt>
      <trkpt lat="39.8723743" lon="116.67203">
        <ele>23.36935</ele>
        <time>2026-08-16T10:35:56.356000Z</time>
      </trkpt>
      <trkpt lat="39.8723283" lon="116.6721522">
        <ele>23.46675</ele>
        <time>2026-08-16T10:36:01.333000Z</time>
      </trkpt>
      <trkpt lat="39.8722715" lon="116.6722683">
        <ele>23.37369</ele>
        <time>2026-08-16T10:36:06.310000Z</time>
      </trkpt>
      <trkpt lat="39.8722173" lon="116.6723806">
        <ele>23.1622</ele>
        <time>2026-08-16T10:36:11.286000Z</time>
      </trkpt>
      <trkpt lat="39.8721689" lon="116.6725013">
        <ele>22.96503</ele>
        <time>2026-08-16T10:36:16.263000Z</time>
      </trkpt>
      <trkpt lat="39.8721286" lon="116.6726235">
        <ele>22.87689</ele>
        <time>2026-08-16T10:36:21.240000Z</time>
      </trkpt>
      <trkpt lat="39.8720994" lon="116.6727437">
        <ele>22.88636</ele>
        <time>2026-08-16T10:36:26.217000Z</time>
      </trkpt>
      <trkpt lat="39.8720888" lon="116.6728649">
        <ele>22.9905</ele>
        <time>2026-08-16T10:36:31.193000Z</time>
      </trkpt>
      <trkpt lat="39.8720899" lon="116.6729904">
        <ele>23.20532</ele>
        <time>2026-08-16T10:36:36.170000Z</time>
      </trkpt>
      <trkpt lat="39.8721079" lon="116.6731128">
        <ele>23.43297</ele>
        <time>2026-08-16T10:36:41.147000Z</time>
      </trkpt>
      <trkpt lat="39.8721382" lon="116.6732294">
        <ele>23.6002</ele>
        <time>2026-08-16T10:36:46.124000Z</time>
      </trkpt>
      <trkpt lat="39.8721814" lon="116.6733327">
        <ele>23.78543</ele>
        <time>2026-08-16T10:36:51.100000Z</time>
      </trkpt>
      <trkpt lat="39.8722633" lon="116.6734139">
        <ele>24.30702</ele>
        <time>2026-08-16T10:36:57.072000Z</time>
      </trkpt>
      <trkpt lat="39.8723546" lon="116.6734446">
        <ele>25.0846</ele>
        <time>2026-08-16T10:37:03Z</time>
      </trkpt>
      <trkpt lat="39.872455" lon="116.6734376">
        <ele>25.24375</ele>
        <time>2026-08-16T10:37:10Z</time>
      </trkpt>
      <trkpt lat="39.8725457" lon="116.6734007">
        <ele>24.9363</ele>
        <time>2026-08-16T10:37:14.988000Z</time>
      </trkpt>
      <trkpt lat="39.8726284" lon="116.6733439">
        <ele>24.5962</ele>
        <time>2026-08-16T10:37:19.965000Z</time>
      </trkpt>
      <trkpt lat="39.8727005" lon="116.6732732">
        <ele>24.31049</ele>
        <time>2026-08-16T10:37:24.942000Z</time>
      </trkpt>
      <trkpt lat="39.8727628" lon="116.6731784">
        <ele>23.99862</ele>
        <time>2026-08-16T10:37:30.914000Z</time>
      </trkpt>
      <trkpt lat="39.8728194" lon="116.6730635">
        <ele>23.67348</ele>
        <time>2026-08-16T10:37:36.886000Z</time>
      </trkpt>
      <trkpt lat="39.8728748" lon="116.6729703">
        <ele>23.46538</ele>
        <time>2026-08-16T10:37:41.863000Z</time>
      </trkpt>
      <trkpt lat="39.8729486" lon="116.6728885">
        <ele>23.4387</ele>
        <time>2026-08-16T10:37:46.839000Z</time>
      </trkpt>
      <trkpt lat="39.8730347" lon="116.6728287">
        <ele>23.58307</ele>
        <time>2026-08-16T10:37:51.816000Z</time>
      </trkpt>
      <trkpt lat="39.8731233" lon="116.67278">
        <ele>23.7892</ele>
        <time>2026-08-16T10:37:56.793000Z</time>
      </trkpt>
      <trkpt lat="39.8732045" lon="116.6727207">
        <ele>23.97245</ele>
        <time>2026-08-16T10:38:01.769000Z</time>
      </trkpt>
      <trkpt lat="39.8732786" lon="116.672641">
        <ele>24.0773</ele>
        <time>2026-08-16T10:38:06.746000Z</time>
      </trkpt>
      <trkpt lat="39.8733335" lon="116.6725423">
        <ele>24.09965</ele>
        <time>2026-08-16T10:38:11.723000Z</time>
      </trkpt>
      <trkpt lat="39.8733759" lon="116.6724328">
        <ele>24.12997</ele>
        <time>2026-08-16T10:38:16.699000Z</time>
      </trkpt>
      <trkpt lat="39.8734255" lon="116.6723323">
        <ele>24.17098</ele>
        <time>2026-08-16T10:38:21.676000Z</time>
      </trkpt>
      <trkpt lat="39.873487" lon="116.6722437">
        <ele>24.21451</ele>
        <time>2026-08-16T10:38:26.653000Z</time>
      </trkpt>
      <trkpt lat="39.8735604" lon="116.6721723">
        <ele>24.30653</ele>
        <time>2026-08-16T10:38:31.629000Z</time>
      </trkpt>
      <trkpt lat="39.87365" lon="116.6721347">
        <ele>24.53545</ele>
        <time>2026-08-16T10:38:36.606000Z</time>
      </trkpt>
      <trkpt lat="39.8737567" lon="116.6721225">
        <ele>24.88781</ele>
        <time>2026-08-16T10:38:42.578000Z</time>
      </trkpt>
      <trkpt lat="39.8738547" lon="116.6720896">
        <ele>25.2041</ele>
        <time>2026-08-16T10:38:48.550000Z</time>
      </trkpt>
      <trkpt lat="39.8739328" lon="116.6719952">
        <ele>25.32796</ele>
        <time>2026-08-16T10:38:54.522000Z</time>
      </trkpt>
      <trkpt lat="39.8739929" lon="116.6719037">
        <ele>25.17303</ele>
        <time>2026-08-16T10:38:59.498000Z</time>
      </trkpt>
      <trkpt lat="39.8740346" lon="116.6717762">
        <ele>24.7893</ele>
        <time>2026-08-16T10:39:05.470000Z</time>
      </trkpt>
      <trkpt lat="39.8740704" lon="116.671661">
        <ele>24.45002</ele>
        <time>2026-08-16T10:39:10.447000Z</time>
      </trkpt>
      <trkpt lat="39.8741076" lon="116.6715416">
        <ele>24.14273</ele>
        <time>2026-08-16T10:39:16.419000Z</time>
      </trkpt>
      <trkpt lat="39.8742032" lon="116.6715249">
        <ele>24.00349</ele>
        <time>2026-08-16T10:39:22.391000Z</time>
      </trkpt>
      <trkpt lat="39.8742867" lon="116.6715768">
        <ele>23.94809</ele>
        <time>2026-08-16T10:39:27.367000Z</time>
      </trkpt>
      <trkpt lat="39.874369" lon="116.6716478">
        <ele>23.89598</ele>
        <time>2026-08-16T10:39:32.344000Z</time>
      </trkpt>
      <trkpt lat="39.8744592" lon="116.6716865">
        <ele>23.90446</ele>
        <time>2026-08-16T10:39:37.320000Z</time>
      </trkpt>
      <trkpt lat="39.8745531" lon="116.6717006">
        <ele>23.97515</ele>
        <time>2026-08-16T10:39:42.297000Z</time>
      </trkpt>
      <trkpt lat="39.8746331" lon="116.6716445">
        <ele>24.04482</ele>
        <time>2026-08-16T10:39:47.274000Z</time>
      </trkpt>
      <trkpt lat="39.8747018" lon="116.6715525">
        <ele>24.17487</ele>
        <time>2026-08-16T10:39:52.250000Z</time>
      </trkpt>
      <trkpt lat="39.8747688" lon="116.6714563">
        <ele>24.5358</ele>
        <time>2026-08-16T10:39:57.227000Z</time>
      </trkpt>
      <trkpt lat="39.8748294" lon="116.6713581">
        <ele>25.2432</ele>
        <time>2026-08-16T10:40:02.203000Z</time>
      </trkpt>
      <trkpt lat="39.8748606" lon="116.671227">
        <ele>25.90952</ele>
        <time>2026-08-16T10:40:08Z</time>
      </trkpt>
      <trkpt lat="39.8748647" lon="116.6710918">
        <ele>25.94195</ele>
        <time>2026-08-16T10:40:14Z</time>
      </trkpt>
      <trkpt lat="39.8748702" lon="116.670953">
        <ele>25.88848</ele>
        <time>2026-08-16T10:40:20Z</time>
      </trkpt>
      <trkpt lat="39.8748916" lon="116.6708369">
        <ele>25.8798</ele>
        <time>2026-08-16T10:40:25Z</time>
      </trkpt>
      <trkpt lat="39.8749204" lon="116.6707224">
        <ele>25.84013</ele>
        <time>2026-08-16T10:40:30Z</time>
      </trkpt>
      <trkpt lat="39.8749197" lon="116.6705868">
        <ele>25.67493</ele>
        <time>2026-08-16T10:40:36Z</time>
      </trkpt>
      <trkpt lat="39.8748382" lon="116.6705058">
        <ele>25.26057</ele>
        <time>2026-08-16T10:40:43Z</time>
      </trkpt>
      <trkpt lat="39.8747386" lon="116.6705165">
        <ele>24.51235</ele>
        <time>2026-08-16T10:40:48.983000Z</time>
      </trkpt>
      <trkpt lat="39.8746397" lon="116.6705309">
        <ele>24.07495</ele>
        <time>2026-08-16T10:40:54.955000Z</time>
      </trkpt>
      <trkpt lat="39.8745377" lon="116.6705393">
        <ele>24.36438</ele>
        <time>2026-08-16T10:41:01.923000Z</time>
      </trkpt>
      <trkpt lat="39.8744406" lon="116.6705463">
        <ele>24.25824</ele>
        <time>2026-08-16T10:41:09.885000Z</time>
      </trkpt>
      <trkpt lat="39.8743474" lon="116.6705271">
        <ele>23.36262</ele>
        <time>2026-08-16T10:41:20.834000Z</time>
      </trkpt>
      <trkpt lat="39.8743132" lon="116.6705409">
        <ele>23.20081</ele>
        <time>2026-08-16T10:41:25.810000Z</time>
      </trkpt>
      <trkpt lat="39.8742182" lon="116.6705522">
        <ele>23.12497</ele>
        <time>2026-08-16T10:41:33.773000Z</time>
      </trkpt>
      <trkpt lat="39.8741163" lon="116.6705594">
        <ele>23.28731</ele>
        <time>2026-08-16T10:41:38.750000Z</time>
      </trkpt>
      <trkpt lat="39.8740075" lon="116.6705719">
        <ele>23.59572</ele>
        <time>2026-08-16T10:41:43.726000Z</time>
      </trkpt>
      <trkpt lat="39.8739034" lon="116.6705882">
        <ele>23.94008</ele>
        <time>2026-08-16T10:41:48.703000Z</time>
      </trkpt>
      <trkpt lat="39.8738038" lon="116.670612">
        <ele>24.13999</ele>
        <time>2026-08-16T10:41:53.679000Z</time>
      </trkpt>
      <trkpt lat="39.8737025" lon="116.6706297">
        <ele>24.12262</ele>
        <time>2026-08-16T10:41:58.656000Z</time>
      </trkpt>
      <trkpt lat="39.8736014" lon="116.6706333">
        <ele>23.98284</ele>
        <time>2026-08-16T10:42:03.633000Z</time>
      </trkpt>
      <trkpt lat="39.8735009" lon="116.6706383">
        <ele>23.81086</ele>
        <time>2026-08-16T10:42:08.609000Z</time>
      </trkpt>
      <trkpt lat="39.8733983" lon="116.6706444">
        <ele>23.63178</ele>
        <time>2026-08-16T10:42:13.586000Z</time>
      </trkpt>
      <trkpt lat="39.8732917" lon="116.6706538">
        <ele>23.47454</ele>
        <time>2026-08-16T10:42:18.562000Z</time>
      </trkpt>
      <trkpt lat="39.8731897" lon="116.6706609">
        <ele>23.34699</ele>
        <time>2026-08-16T10:42:23.539000Z</time>
      </trkpt>
      <trkpt lat="39.8730937" lon="116.6706597">
        <ele>23.25065</ele>
        <time>2026-08-16T10:42:28.515000Z</time>
      </trkpt>
      <trkpt lat="39.8729944" lon="116.6706625">
        <ele>23.16929</ele>
        <time>2026-08-16T10:42:33.492000Z</time>
      </trkpt>
      <trkpt lat="39.8729013" lon="116.6707175">
        <ele>23.07152</ele>
        <time>2026-08-16T10:42:39.464000Z</time>
      </trkpt>
      <trkpt lat="39.872868" lon="116.6708475">
        <ele>23.01666</ele>
        <time>2026-08-16T10:42:45.436000Z</time>
      </trkpt>
      <trkpt lat="39.872779" lon="116.6709122">
        <ele>23.12285</ele>
        <time>2026-08-16T10:42:52.403000Z</time>
      </trkpt>
      <trkpt lat="39.8726865" lon="116.6708989">
        <ele>23.17414</ele>
        <time>2026-08-16T10:42:57.380000Z</time>
      </trkpt>
      <trkpt lat="39.872593" lon="116.670894">
        <ele>23.15509</ele>
        <time>2026-08-16T10:43:02.356000Z</time>
      </trkpt>
      <trkpt lat="39.8724983" lon="116.6709077">
        <ele>23.13077</ele>
        <time>2026-08-16T10:43:07.333000Z</time>
      </trkpt>
      <trkpt lat="39.8724192" lon="116.6709646">
        <ele>23.15241</ele>
        <time>2026-08-16T10:43:12.309000Z</time>
      </trkpt>
      <trkpt lat="39.8723615" lon="116.6710814">
        <ele>23.28478</ele>
        <time>2026-08-16T10:43:18.281000Z</time>
      </trkpt>
      <trkpt lat="39.8723344" lon="116.6712065">
        <ele>23.51788</ele>
        <time>2026-08-16T10:43:24.253000Z</time>
      </trkpt>
      <trkpt lat="39.8723276" lon="116.6713403">
        <ele>23.73372</ele>
        <time>2026-08-16T10:43:30.225000Z</time>
      </trkpt>
      <trkpt lat="39.8723349" lon="116.6714799">
        <ele>24.06792</ele>
        <time>2026-08-16T10:43:36.197000Z</time>
      </trkpt>
      <trkpt lat="39.8723482" lon="116.6715969">
        <ele>24.09406</ele>
        <time>2026-08-16T10:43:41.173000Z</time>
      </trkpt>
      <trkpt lat="39.8723583" lon="116.6717167">
        <ele>23.80094</ele>
        <time>2026-08-16T10:43:46.150000Z</time>
      </trkpt>
      <trkpt lat="39.8723605" lon="116.6718367">
        <ele>23.59919</ele>
        <time>2026-08-16T10:43:51.127000Z</time>
      </trkpt>
      <trkpt lat="39.8723414" lon="116.6719542">
        <ele>23.53852</ele>
        <time>2026-08-16T10:43:56.103000Z</time>
      </trkpt>
      <trkpt lat="39.8723016" lon="116.6720665">
        <ele>23.61688</ele>
        <time>2026-08-16T10:44:01.080000Z</time>
      </trkpt>
      <trkpt lat="39.8722522" lon="116.6721753">
        <ele>23.81604</ele>
        <time>2026-08-16T10:44:06.056000Z</time>
      </trkpt>
      <trkpt lat="39.8722017" lon="116.6722825">
        <ele>24.0964</ele>
        <time>2026-08-16T10:44:11.033000Z</time>
      </trkpt>
      <trkpt lat="39.8721542" lon="116.6723948">
        <ele>24.36281</ele>
        <time>2026-08-16T10:44:16.009000Z</time>
      </trkpt>
      <trkpt lat="39.872117" lon="116.672512">
        <ele>24.35629</ele>
        <time>2026-08-16T10:44:20.986000Z</time>
      </trkpt>
      <trkpt lat="39.8720909" lon="116.6726325">
        <ele>24.18618</ele>
        <time>2026-08-16T10:44:25.963000Z</time>
      </trkpt>
      <trkpt lat="39.8720765" lon="116.6727575">
        <ele>24.04988</ele>
        <time>2026-08-16T10:44:30.939000Z</time>
      </trkpt>
      <trkpt lat="39.8720778" lon="116.672882">
        <ele>23.99902</ele>
        <time>2026-08-16T10:44:35.916000Z</time>
      </trkpt>
      <trkpt lat="39.8720977" lon="116.6730043">
        <ele>24.05932</ele>
        <time>2026-08-16T10:44:40.892000Z</time>
      </trkpt>
      <trkpt lat="39.8721239" lon="116.6731259">
        <ele>24.14361</ele>
        <time>2026-08-16T10:44:45.869000Z</time>
      </trkpt>
      <trkpt lat="39.8721523" lon="116.6732389">
        <ele>24.15766</ele>
        <time>2026-08-16T10:44:50.845000Z</time>
      </trkpt>
      <trkpt lat="39.8722134" lon="116.6733436">
        <ele>24.13847</ele>
        <time>2026-08-16T10:44:56.817000Z</time>
      </trkpt>
      <trkpt lat="39.872296" lon="116.6734091">
        <ele>24.09848</ele>
        <time>2026-08-16T10:45:02.789000Z</time>
      </trkpt>
      <trkpt lat="39.8723894" lon="116.6734429">
        <ele>23.99465</ele>
        <time>2026-08-16T10:45:08.761000Z</time>
      </trkpt>
      <trkpt lat="39.8724892" lon="116.6734361">
        <ele>23.87142</ele>
        <time>2026-08-16T10:45:14.733000Z</time>
      </trkpt>
      <trkpt lat="39.8725825" lon="116.6733913">
        <ele>23.82518</ele>
        <time>2026-08-16T10:45:20.705000Z</time>
      </trkpt>
      <trkpt lat="39.8726629" lon="116.6733119">
        <ele>23.80475</ele>
        <time>2026-08-16T10:45:26.677000Z</time>
      </trkpt>
      <trkpt lat="39.8727329" lon="116.6732111">
        <ele>23.70151</ele>
        <time>2026-08-16T10:45:32.648000Z</time>
      </trkpt>
      <trkpt lat="39.8727877" lon="116.6730945">
        <ele>23.54723</ele>
        <time>2026-08-16T10:45:38.620000Z</time>
      </trkpt>
      <trkpt lat="39.8728472" lon="116.6729862">
        <ele>23.43966</ele>
        <time>2026-08-16T10:45:44.592000Z</time>
      </trkpt>
      <trkpt lat="39.872924" lon="116.6728874">
        <ele>23.43062</ele>
        <time>2026-08-16T10:45:50.564000Z</time>
      </trkpt>
      <trkpt lat="39.873002" lon="116.6728259">
        <ele>23.48415</ele>
        <time>2026-08-16T10:45:55.541000Z</time>
      </trkpt>
      <trkpt lat="39.8730884" lon="116.6727788">
        <ele>23.54346</ele>
        <time>2026-08-16T10:46:00.517000Z</time>
      </trkpt>
      <trkpt lat="39.8731758" lon="116.6727218">
        <ele>23.63108</ele>
        <time>2026-08-16T10:46:05.494000Z</time>
      </trkpt>
      <trkpt lat="39.8732489" lon="116.6726308">
        <ele>23.69019</ele>
        <time>2026-08-16T10:46:10.470000Z</time>
      </trkpt>
      <trkpt lat="39.8733066" lon="116.6725208">
        <ele>23.67168</ele>
        <time>2026-08-16T10:46:15.447000Z</time>
      </trkpt>
      <trkpt lat="39.8733544" lon="116.67241">
        <ele>23.6474</ele>
        <time>2026-08-16T10:46:20.423000Z</time>
      </trkpt>
      <trkpt lat="39.8734184" lon="116.6723107">
        <ele>23.69204</ele>
        <time>2026-08-16T10:46:25.400000Z</time>
      </trkpt>
      <trkpt lat="39.8734943" lon="116.672224">
        <ele>23.88715</ele>
        <time>2026-08-16T10:46:30.376000Z</time>
      </trkpt>
      <trkpt lat="39.8735862" lon="116.6721665">
        <ele>24.20633</ele>
        <time>2026-08-16T10:46:35.353000Z</time>
      </trkpt>
      <trkpt lat="39.8736843" lon="116.6721461">
        <ele>24.54015</ele>
        <time>2026-08-16T10:46:40.329000Z</time>
      </trkpt>
      <trkpt lat="39.8737842" lon="116.6721356">
        <ele>24.80551</ele>
        <time>2026-08-16T10:46:45.306000Z</time>
      </trkpt>
      <trkpt lat="39.8738735" lon="116.672089">
        <ele>24.99825</ele>
        <time>2026-08-16T10:46:50.282000Z</time>
      </trkpt>
      <trkpt lat="39.8739475" lon="116.6720046">
        <ele>25.11603</ele>
        <time>2026-08-16T10:46:55.259000Z</time>
      </trkpt>
      <trkpt lat="39.8740043" lon="116.6719072">
        <ele>25.0932</ele>
        <time>2026-08-16T10:47:00.235000Z</time>
      </trkpt>
      <trkpt lat="39.8740344" lon="116.6717886">
        <ele>24.92467</ele>
        <time>2026-08-16T10:47:05.212000Z</time>
      </trkpt>
      <trkpt lat="39.8740642" lon="116.6716703">
        <ele>24.73067</ele>
        <time>2026-08-16T10:47:10.189000Z</time>
      </trkpt>
      <trkpt lat="39.8740829" lon="116.67155">
        <ele>24.8049</ele>
        <time>2026-08-16T10:47:15.165000Z</time>
      </trkpt>
      <trkpt lat="39.874165" lon="116.6714895">
        <ele>25.31244</ele>
        <time>2026-08-16T10:47:21Z</time>
      </trkpt>
      <trkpt lat="39.8742655" lon="116.6715282">
        <ele>25.47683</ele>
        <time>2026-08-16T10:47:26Z</time>
      </trkpt>
      <trkpt lat="39.8743544" lon="116.6716056">
        <ele>25.28836</ele>
        <time>2026-08-16T10:47:31.090000Z</time>
      </trkpt>
      <trkpt lat="39.8744458" lon="116.6716576">
        <ele>25.01906</ele>
        <time>2026-08-16T10:47:36.066000Z</time>
      </trkpt>
      <trkpt lat="39.8745417" lon="116.6716719">
        <ele>24.9287</ele>
        <time>2026-08-16T10:47:41.043000Z</time>
      </trkpt>
      <trkpt lat="39.8746397" lon="116.6716119">
        <ele>24.99362</ele>
        <time>2026-08-16T10:47:47.015000Z</time>
      </trkpt>
      <trkpt lat="39.8747083" lon="116.6715268">
        <ele>24.86764</ele>
        <time>2026-08-16T10:47:51.991000Z</time>
      </trkpt>
      <trkpt lat="39.8747742" lon="116.6714434">
        <ele>24.44153</ele>
        <time>2026-08-16T10:47:56.968000Z</time>
      </trkpt>
      <trkpt lat="39.8748419" lon="116.671338">
        <ele>24.03145</ele>
        <time>2026-08-16T10:48:02.940000Z</time>
      </trkpt>
      <trkpt lat="39.8748607" lon="116.671203">
        <ele>23.89888</ele>
        <time>2026-08-16T10:48:08.912000Z</time>
      </trkpt>
      <trkpt lat="39.8748633" lon="116.6710861">
        <ele>23.89883</ele>
        <time>2026-08-16T10:48:13.888000Z</time>
      </trkpt>
      <trkpt lat="39.8748681" lon="116.6709666">
        <ele>23.82362</ele>
        <time>2026-08-16T10:48:18.865000Z</time>
      </trkpt>
      <trkpt lat="39.8748881" lon="116.6708471">
        <ele>23.60278</ele>
        <time>2026-08-16T10:48:23.841000Z</time>
      </trkpt>
      <trkpt lat="39.8749151" lon="116.670733">
        <ele>23.31906</ele>
        <time>2026-08-16T10:48:28.818000Z</time>
      </trkpt>
      <trkpt lat="39.8749073" lon="116.6705974">
        <ele>23.08302</ele>
        <time>2026-08-16T10:48:34.790000Z</time>
      </trkpt>
      <trkpt lat="39.8748168" lon="116.6705514">
        <ele>23.02015</ele>
        <time>2026-08-16T10:48:40.761000Z</time>
      </trkpt>
      <trkpt lat="39.8747103" lon="116.6705575">
        <ele>23.06508</ele>
        <time>2026-08-16T10:48:46.733000Z</time>
      </trkpt>
      <trkpt lat="39.8746189" lon="116.6705602">
        <ele>23.12446</ele>
        <time>2026-08-16T10:48:51.710000Z</time>
      </trkpt>
      <trkpt lat="39.8745271" lon="116.6705557">
        <ele>23.17154</ele>
        <time>2026-08-16T10:48:56.687000Z</time>
      </trkpt>
      <trkpt lat="39.8744353" lon="116.670556">
        <ele>23.24693</ele>
        <time>2026-08-16T10:49:01.663000Z</time>
      </trkpt>
      <trkpt lat="39.8743414" lon="116.6705581">
        <ele>23.35703</ele>
        <time>2026-08-16T10:49:06.640000Z</time>
      </trkpt>
      <trkpt lat="39.8742457" lon="116.6705619">
        <ele>23.4399</ele>
        <time>2026-08-16T10:49:11.616000Z</time>
      </trkpt>
      <trkpt lat="39.8741488" lon="116.6705678">
        <ele>23.51193</ele>
        <time>2026-08-16T10:49:16.593000Z</time>
      </trkpt>
      <trkpt lat="39.8740541" lon="116.6705709">
        <ele>23.60821</ele>
        <time>2026-08-16T10:49:21.569000Z</time>
      </trkpt>
      <trkpt lat="39.8739602" lon="116.670576">
        <ele>23.74097</ele>
        <time>2026-08-16T10:49:26.546000Z</time>
      </trkpt>
      <trkpt lat="39.873867" lon="116.6705822">
        <ele>23.85675</ele>
        <time>2026-08-16T10:49:31.522000Z</time>
      </trkpt>
      <trkpt lat="39.8737716" lon="116.6705904">
        <ele>23.87378</ele>
        <time>2026-08-16T10:49:36.499000Z</time>
      </trkpt>
      <trkpt lat="39.8736745" lon="116.6705976">
        <ele>23.73086</ele>
        <time>2026-08-16T10:49:41.476000Z</time>
      </trkpt>
      <trkpt lat="39.8735756" lon="116.6706023">
        <ele>23.50645</ele>
        <time>2026-08-16T10:49:46.452000Z</time>
      </trkpt>
      <trkpt lat="39.8734758" lon="116.670612">
        <ele>23.36703</ele>
        <time>2026-08-16T10:49:51.429000Z</time>
      </trkpt>
      <trkpt lat="39.8733788" lon="116.6706338">
        <ele>23.35817</ele>
        <time>2026-08-16T10:49:56.405000Z</time>
      </trkpt>
      <trkpt lat="39.873279" lon="116.6706436">
        <ele>23.38409</ele>
        <time>2026-08-16T10:50:01.382000Z</time>
      </trkpt>
      <trkpt lat="39.873182" lon="116.6706475">
        <ele>23.34652</ele>
        <time>2026-08-16T10:50:06.358000Z</time>
      </trkpt>
      <trkpt lat="39.8730857" lon="116.6706496">
        <ele>23.28092</ele>
        <time>2026-08-16T10:50:11.334000Z</time>
      </trkpt>
      <trkpt lat="39.8729889" lon="116.6706589">
        <ele>23.28455</ele>
        <time>2026-08-16T10:50:16.311000Z</time>
      </trkpt>
      <trkpt lat="39.8729055" lon="116.6707205">
        <ele>23.3187</ele>
        <time>2026-08-16T10:50:22.283000Z</time>
      </trkpt>
      <trkpt lat="39.872898" lon="116.6708378">
        <ele>23.36345</ele>
        <time>2026-08-16T10:50:28.255000Z</time>
      </trkpt>
      <trkpt lat="39.8728273" lon="116.670917">
        <ele>23.80051</ele>
        <time>2026-08-16T10:50:35.222000Z</time>
      </trkpt>
      <trkpt lat="39.8727293" lon="116.6709117">
        <ele>24.31208</ele>
        <time>2026-08-16T10:50:40.199000Z</time>
      </trkpt>
      <trkpt lat="39.872633" lon="116.6708979">
        <ele>24.61796</ele>
        <time>2026-08-16T10:50:44.999000Z</time>
      </trkpt>
      <trkpt lat="39.8725327" lon="116.6709">
        <ele>24.64428</ele>
        <time>2026-08-16T10:50:49.999000Z</time>
      </trkpt>
      <trkpt lat="39.8724415" lon="116.6709468">
        <ele>24.52522</ele>
        <time>2026-08-16T10:50:54.999000Z</time>
      </trkpt>
      <trkpt lat="39.8723695" lon="116.6710423">
        <ele>24.29542</ele>
        <time>2026-08-16T10:51:00.105000Z</time>
      </trkpt>
      <trkpt lat="39.8723211" lon="116.6711598">
        <ele>24.14358</ele>
        <time>2026-08-16T10:51:05.082000Z</time>
      </trkpt>
      <trkpt lat="39.8722916" lon="116.6712829">
        <ele>24.05504</ele>
        <time>2026-08-16T10:51:10.058000Z</time>
      </trkpt>
      <trkpt lat="39.8722595" lon="116.6713945">
        <ele>23.9221</ele>
        <time>2026-08-16T10:51:15.035000Z</time>
      </trkpt>
      <trkpt lat="39.8722341" lon="116.6715086">
        <ele>23.68574</ele>
        <time>2026-08-16T10:51:21.007000Z</time>
      </trkpt>
      <trkpt lat="39.8722239" lon="116.6716288">
        <ele>23.40064</ele>
        <time>2026-08-16T10:51:29.965000Z</time>
      </trkpt>
      <trkpt lat="39.8722408" lon="116.6717592">
        <ele>23.23594</ele>
        <time>2026-08-16T10:51:37.928000Z</time>
      </trkpt>
      <trkpt lat="39.8722465" lon="116.6718911">
        <ele>23.01959</ele>
        <time>2026-08-16T10:51:43.900000Z</time>
      </trkpt>
      <trkpt lat="39.8722215" lon="116.6720219">
        <ele>22.84581</ele>
        <time>2026-08-16T10:51:49.871000Z</time>
      </trkpt>
      <trkpt lat="39.8721731" lon="116.6721421">
        <ele>22.84443</ele>
        <time>2026-08-16T10:51:55.844000Z</time>
      </trkpt>
      <trkpt lat="39.8721201" lon="116.6722611">
        <ele>22.92723</ele>
        <time>2026-08-16T10:52:01.816000Z</time>
      </trkpt>
      <trkpt lat="39.8720785" lon="116.6723783">
        <ele>23.04118</ele>
        <time>2026-08-16T10:52:07.788000Z</time>
      </trkpt>
      <trkpt lat="39.8720509" lon="116.6724982">
        <ele>23.11174</ele>
        <time>2026-08-16T10:52:13.760000Z</time>
      </trkpt>
      <trkpt lat="39.8720436" lon="116.6726347">
        <ele>23.11803</ele>
        <time>2026-08-16T10:52:19.732000Z</time>
      </trkpt>
      <trkpt lat="39.8720556" lon="116.672769">
        <ele>23.16143</ele>
        <time>2026-08-16T10:52:25.704000Z</time>
      </trkpt>
      <trkpt lat="39.8720644" lon="116.6728929">
        <ele>23.38972</ele>
        <time>2026-08-16T10:52:30.681000Z</time>
      </trkpt>
      <trkpt lat="39.8720839" lon="116.6730118">
        <ele>23.80683</ele>
        <time>2026-08-16T10:52:35.657000Z</time>
      </trkpt>
      <trkpt lat="39.8721099" lon="116.6731283">
        <ele>24.20522</ele>
        <time>2026-08-16T10:52:40.634000Z</time>
      </trkpt>
      <trkpt lat="39.872138" lon="116.6732418">
        <ele>24.36438</ele>
        <time>2026-08-16T10:52:45.611000Z</time>
      </trkpt>
      <trkpt lat="39.8721635" lon="116.6733704">
        <ele>24.32794</ele>
        <time>2026-08-16T10:52:51.582000Z</time>
      </trkpt>
      <trkpt lat="39.8722338" lon="116.6734596">
        <ele>24.26085</ele>
        <time>2026-08-16T10:52:57.554000Z</time>
      </trkpt>
      <trkpt lat="39.872331" lon="116.6735047">
        <ele>24.27429</ele>
        <time>2026-08-16T10:53:03.526000Z</time>
      </trkpt>
      <trkpt lat="39.8724385" lon="116.6735014">
        <ele>24.34148</ele>
        <time>2026-08-16T10:53:09.498000Z</time>
      </trkpt>
      <trkpt lat="39.8725399" lon="116.6734571">
        <ele>24.46652</ele>
        <time>2026-08-16T10:53:15.470000Z</time>
      </trkpt>
      <trkpt lat="39.8726211" lon="116.6733989">
        <ele>24.60529</ele>
        <time>2026-08-16T10:53:20.447000Z</time>
      </trkpt>
      <trkpt lat="39.8727024" lon="116.6733334">
        <ele>24.65581</ele>
        <time>2026-08-16T10:53:25.423000Z</time>
      </trkpt>
      <trkpt lat="39.8727536" lon="116.6732325">
        <ele>24.56444</ele>
        <time>2026-08-16T10:53:30.400000Z</time>
      </trkpt>
      <trkpt lat="39.8728157" lon="116.6731364">
        <ele>24.30891</ele>
        <time>2026-08-16T10:53:36.372000Z</time>
      </trkpt>
      <trkpt lat="39.8728812" lon="116.6730416">
        <ele>24.06073</ele>
        <time>2026-08-16T10:53:41.349000Z</time>
      </trkpt>
      <trkpt lat="39.8729423" lon="116.6729542">
        <ele>23.92775</ele>
        <time>2026-08-16T10:53:45.330000Z</time>
      </trkpt>
      <trkpt lat="39.8730235" lon="116.6728642">
        <ele>23.91085</ele>
        <time>2026-08-16T10:53:50.306000Z</time>
      </trkpt>
      <trkpt lat="39.8731135" lon="116.672794">
        <ele>23.92476</ele>
        <time>2026-08-16T10:53:55.283000Z</time>
      </trkpt>
      <trkpt lat="39.8732005" lon="116.6727225">
        <ele>23.85647</ele>
        <time>2026-08-16T10:54:00.260000Z</time>
      </trkpt>
      <trkpt lat="39.8732785" lon="116.6726335">
        <ele>23.74277</ele>
        <time>2026-08-16T10:54:05.236000Z</time>
      </trkpt>
      <trkpt lat="39.8733385" lon="116.6725218">
        <ele>23.68665</ele>
        <time>2026-08-16T10:54:10.213000Z</time>
      </trkpt>
      <trkpt lat="39.8733929" lon="116.6724035">
        <ele>23.78553</ele>
        <time>2026-08-16T10:54:15.188000Z</time>
      </trkpt>
      <trkpt lat="39.873458" lon="116.6723072">
        <ele>23.9929</ele>
        <time>2026-08-16T10:54:20.163000Z</time>
      </trkpt>
      <trkpt lat="39.8735304" lon="116.6722223">
        <ele>24.16815</ele>
        <time>2026-08-16T10:54:25.138000Z</time>
      </trkpt>
      <trkpt lat="39.8736148" lon="116.6721663">
        <ele>24.32526</ele>
        <time>2026-08-16T10:54:30.114000Z</time>
      </trkpt>
      <trkpt lat="39.8737089" lon="116.6721521">
        <ele>24.48637</ele>
        <time>2026-08-16T10:54:35.090000Z</time>
      </trkpt>
      <trkpt lat="39.8738044" lon="116.6721542">
        <ele>24.60293</ele>
        <time>2026-08-16T10:54:40.066000Z</time>
      </trkpt>
      <trkpt lat="39.8738919" lon="116.6721214">
        <ele>24.6577</ele>
        <time>2026-08-16T10:54:45.042000Z</time>
      </trkpt>
      <trkpt lat="39.8739706" lon="116.6720521">
        <ele>24.70451</ele>
        <time>2026-08-16T10:54:50.020000Z</time>
      </trkpt>
      <trkpt lat="39.8740379" lon="116.6719719">
        <ele>24.69454</ele>
        <time>2026-08-16T10:54:54.998000Z</time>
      </trkpt>
      <trkpt lat="39.8740791" lon="116.6718618">
        <ele>24.50749</ele>
        <time>2026-08-16T10:54:59.975000Z</time>
      </trkpt>
      <trkpt lat="39.8741164" lon="116.6717412">
        <ele>24.12601</ele>
        <time>2026-08-16T10:55:04.953000Z</time>
      </trkpt>
      <trkpt lat="39.8741465" lon="116.6716201">
        <ele>23.70687</ele>
        <time>2026-08-16T10:55:09.930000Z</time>
      </trkpt>
      <trkpt lat="39.8742216" lon="116.6715469">
        <ele>23.38205</ele>
        <time>2026-08-16T10:55:15.902000Z</time>
      </trkpt>
      <trkpt lat="39.8743097" lon="116.6715971">
        <ele>23.3421</ele>
        <time>2026-08-16T10:55:20.879000Z</time>
      </trkpt>
      <trkpt lat="39.8743876" lon="116.671681">
        <ele>23.37073</ele>
        <time>2026-08-16T10:55:25.856000Z</time>
      </trkpt>
      <trkpt lat="39.8744487" lon="116.6717751">
        <ele>23.43014</ele>
        <time>2026-08-16T10:55:30.832000Z</time>
      </trkpt>
      <trkpt lat="39.8744745" lon="116.671805">
        <ele>23.55571</ele>
        <time>2026-08-16T10:55:35.809000Z</time>
      </trkpt>
      <trkpt lat="39.8745567" lon="116.6718771">
        <ele>23.8775</ele>
        <time>2026-08-16T10:55:43.772000Z</time>
      </trkpt>
      <trkpt lat="39.8746522" lon="116.6718975">
        <ele>24.11741</ele>
        <time>2026-08-16T10:55:49.743000Z</time>
      </trkpt>
      <trkpt lat="39.8747484" lon="116.6718983">
        <ele>24.2436</ele>
        <time>2026-08-16T10:55:54.720000Z</time>
      </trkpt>
      <trkpt lat="39.8748462" lon="116.6719059">
        <ele>24.23434</ele>
        <time>2026-08-16T10:55:59.697000Z</time>
      </trkpt>
      <trkpt lat="39.8749473" lon="116.6719066">
        <ele>24.1574</ele>
        <time>2026-08-16T10:56:04.673000Z</time>
      </trkpt>
      <trkpt lat="39.875045" lon="116.6718914">
        <ele>24.11186</ele>
        <time>2026-08-16T10:56:09.650000Z</time>
      </trkpt>
      <trkpt lat="39.8751369" lon="116.671837">
        <ele>24.11269</ele>
        <time>2026-08-16T10:56:14.626000Z</time>
      </trkpt>
      <trkpt lat="39.8752201" lon="116.6717565">
        <ele>24.08105</ele>
        <time>2026-08-16T10:56:19.603000Z</time>
      </trkpt>
      <trkpt lat="39.8752987" lon="116.6716578">
        <ele>24.06123</ele>
        <time>2026-08-16T10:56:24.579000Z</time>
      </trkpt>
      <trkpt lat="39.8753783" lon="116.6715581">
        <ele>24.05053</ele>
        <time>2026-08-16T10:56:29.556000Z</time>
      </trkpt>
      <trkpt lat="39.8754594" lon="116.6714617">
        <ele>24.08655</ele>
        <time>2026-08-16T10:56:34.532000Z</time>
      </trkpt>
      <trkpt lat="39.8755339" lon="116.6713702">
        <ele>24.12867</ele>
        <time>2026-08-16T10:56:39.509000Z</time>
      </trkpt>
      <trkpt lat="39.8756031" lon="116.6712807">
        <ele>24.12714</ele>
        <time>2026-08-16T10:56:44.486000Z</time>
      </trkpt>
      <trkpt lat="39.8756734" lon="116.6711879">
        <ele>24.12147</ele>
        <time>2026-08-16T10:56:49.462000Z</time>
      </trkpt>
      <trkpt lat="39.8757452" lon="116.6710963">
        <ele>24.11706</ele>
        <time>2026-08-16T10:56:54.439000Z</time>
      </trkpt>
      <trkpt lat="39.8758178" lon="116.6709984">
        <ele>24.05592</ele>
        <time>2026-08-16T10:56:59.415000Z</time>
      </trkpt>
      <trkpt lat="39.875892" lon="116.6708988">
        <ele>23.98489</ele>
        <time>2026-08-16T10:57:04.392000Z</time>
      </trkpt>
      <trkpt lat="39.8759694" lon="116.6708039">
        <ele>23.97106</ele>
        <time>2026-08-16T10:57:09.368000Z</time>
      </trkpt>
      <trkpt lat="39.8760518" lon="116.6707149">
        <ele>23.9553</ele>
        <time>2026-08-16T10:57:14.345000Z</time>
      </trkpt>
      <trkpt lat="39.8761369" lon="116.6706299">
        <ele>23.97241</ele>
        <time>2026-08-16T10:57:19.321000Z</time>
      </trkpt>
      <trkpt lat="39.8762193" lon="116.6705332">
        <ele>24.0299</ele>
        <time>2026-08-16T10:57:24.298000Z</time>
      </trkpt>
      <trkpt lat="39.876298" lon="116.6704356">
        <ele>24.0593</ele>
        <time>2026-08-16T10:57:29.274000Z</time>
      </trkpt>
      <trkpt lat="39.876375" lon="116.6703394">
        <ele>24.07762</ele>
        <time>2026-08-16T10:57:34.251000Z</time>
      </trkpt>
      <trkpt lat="39.8764518" lon="116.6702519">
        <ele>24.1226</ele>
        <time>2026-08-16T10:57:39.227000Z</time>
      </trkpt>
      <trkpt lat="39.8765268" lon="116.6701611">
        <ele>24.19327</ele>
        <time>2026-08-16T10:57:44.204000Z</time>
      </trkpt>
      <trkpt lat="39.8766063" lon="116.6700698">
        <ele>24.27341</ele>
        <time>2026-08-16T10:57:49.181000Z</time>
      </trkpt>
      <trkpt lat="39.8766851" lon="116.6699855">
        <ele>24.35853</ele>
        <time>2026-08-16T10:57:54.157000Z</time>
      </trkpt>
      <trkpt lat="39.8767653" lon="116.6699019">
        <ele>24.38076</ele>
        <time>2026-08-16T10:57:59.134000Z</time>
      </trkpt>
      <trkpt lat="39.8768442" lon="116.6698189">
        <ele>24.27582</ele>
        <time>2026-08-16T10:58:04.110000Z</time>
      </trkpt>
      <trkpt lat="39.8769082" lon="116.6697329">
        <ele>24.00066</ele>
        <time>2026-08-16T10:58:09.087000Z</time>
      </trkpt>
      <trkpt lat="39.8769644" lon="116.6696378">
        <ele>23.6322</ele>
        <time>2026-08-16T10:58:16Z</time>
      </trkpt>
      <trkpt lat="39.8770111" lon="116.6695547">
        <ele>23.27882</ele>
        <time>2026-08-16T10:58:27Z</time>
      </trkpt>
      <trkpt lat="39.8770113" lon="116.6695312">
        <ele>23.08269</ele>
        <time>2026-08-16T10:58:45Z</time>
      </trkpt>
      <trkpt lat="39.8770213" lon="116.6695045">
        <ele>22.98037</ele>
        <time>2026-08-16T10:59:39Z</time>
      </trkpt>
      <trkpt lat="39.8771089" lon="116.6694374">
        <ele>23.69933</ele>
        <time>2026-08-16T10:59:46.627000Z</time>
      </trkpt>
      <trkpt lat="39.8771883" lon="116.6693326">
        <ele>24.08132</ele>
        <time>2026-08-16T10:59:51.604000Z</time>
      </trkpt>
      <trkpt lat="39.8772467" lon="116.6692421">
        <ele>24.32788</ele>
        <time>2026-08-16T10:59:55.585000Z</time>
      </trkpt>
      <trkpt lat="39.8773235" lon="116.6691427">
        <ele>24.56101</ele>
        <time>2026-08-16T11:00:00.562000Z</time>
      </trkpt>
      <trkpt lat="39.8774061" lon="116.6690562">
        <ele>24.59311</ele>
        <time>2026-08-16T11:00:05.538000Z</time>
      </trkpt>
      <trkpt lat="39.8774909" lon="116.6689706">
        <ele>24.4294</ele>
        <time>2026-08-16T11:00:10.515000Z</time>
      </trkpt>
      <trkpt lat="39.8775757" lon="116.6688989">
        <ele>24.28786</ele>
        <time>2026-08-16T11:00:15.491000Z</time>
      </trkpt>
      <trkpt lat="39.8776499" lon="116.6688116">
        <ele>24.35238</ele>
        <time>2026-08-16T11:00:20.468000Z</time>
      </trkpt>
      <trkpt lat="39.8777215" lon="116.6687148">
        <ele>24.55907</ele>
        <time>2026-08-16T11:00:25.444000Z</time>
      </trkpt>
      <trkpt lat="39.8777949" lon="116.668617">
        <ele>24.81766</ele>
        <time>2026-08-16T11:00:30.421000Z</time>
      </trkpt>
      <trkpt lat="39.8778691" lon="116.668516">
        <ele>24.99927</ele>
        <time>2026-08-16T11:00:35.398000Z</time>
      </trkpt>
      <trkpt lat="39.8779461" lon="116.6684193">
        <ele>25.15928</ele>
        <time>2026-08-16T11:00:40.374000Z</time>
      </trkpt>
      <trkpt lat="39.8780224" lon="116.6683184">
        <ele>25.24263</ele>
        <time>2026-08-16T11:00:45.351000Z</time>
      </trkpt>
      <trkpt lat="39.8780985" lon="116.668213">
        <ele>25.20692</ele>
        <time>2026-08-16T11:00:50.327000Z</time>
      </trkpt>
      <trkpt lat="39.8781782" lon="116.6681125">
        <ele>25.21004</ele>
        <time>2026-08-16T11:00:55.304000Z</time>
      </trkpt>
      <trkpt lat="39.8782589" lon="116.6680204">
        <ele>25.14925</ele>
        <time>2026-08-16T11:01:00.281000Z</time>
      </trkpt>
      <trkpt lat="39.8783398" lon="116.6679281">
        <ele>25.02921</ele>
        <time>2026-08-16T11:01:05.257000Z</time>
      </trkpt>
      <trkpt lat="39.8784212" lon="116.6678377">
        <ele>24.788</ele>
        <time>2026-08-16T11:01:10.234000Z</time>
      </trkpt>
      <trkpt lat="39.8784965" lon="116.6677481">
        <ele>24.32843</ele>
        <time>2026-08-16T11:01:15.210000Z</time>
      </trkpt>
      <trkpt lat="39.8785706" lon="116.6676678">
        <ele>23.81754</ele>
        <time>2026-08-16T11:01:20Z</time>
      </trkpt>
      <trkpt lat="39.8786487" lon="116.6675773">
        <ele>23.66057</ele>
        <time>2026-08-16T11:01:25Z</time>
      </trkpt>
      <trkpt lat="39.878728" lon="116.6674831">
        <ele>23.71425</ele>
        <time>2026-08-16T11:01:30Z</time>
      </trkpt>
      <trkpt lat="39.8788074" lon="116.6673866">
        <ele>23.74064</ele>
        <time>2026-08-16T11:01:35.117000Z</time>
      </trkpt>
      <trkpt lat="39.8788829" lon="116.6673083">
        <ele>23.64896</ele>
        <time>2026-08-16T11:01:40.093000Z</time>
      </trkpt>
      <trkpt lat="39.8789548" lon="116.6672161">
        <ele>23.51633</ele>
        <time>2026-08-16T11:01:45Z</time>
      </trkpt>
      <trkpt lat="39.8790321" lon="116.6671248">
        <ele>23.69317</ele>
        <time>2026-08-16T11:01:50Z</time>
      </trkpt>
      <trkpt lat="39.8791082" lon="116.6670244">
        <ele>24.13504</ele>
        <time>2026-08-16T11:01:55.023000Z</time>
      </trkpt>
      <trkpt lat="39.8791819" lon="116.6669278">
        <ele>24.40315</ele>
        <time>2026-08-16T11:01:59.999000Z</time>
      </trkpt>
      <trkpt lat="39.8792566" lon="116.6668315">
        <ele>24.6708</ele>
        <time>2026-08-16T11:02:04.976000Z</time>
      </trkpt>
      <trkpt lat="39.8793287" lon="116.6667335">
        <ele>24.83302</ele>
        <time>2026-08-16T11:02:09.952000Z</time>
      </trkpt>
      <trkpt lat="39.8793992" lon="116.666633">
        <ele>24.92126</ele>
        <time>2026-08-16T11:02:14.929000Z</time>
      </trkpt>
      <trkpt lat="39.8794785" lon="116.6665427">
        <ele>25.01235</ele>
        <time>2026-08-16T11:02:19.906000Z</time>
      </trkpt>
      <trkpt lat="39.8795636" lon="116.6664575">
        <ele>25.09502</ele>
        <time>2026-08-16T11:02:24.882000Z</time>
      </trkpt>
      <trkpt lat="39.8796404" lon="116.6663713">
        <ele>25.14095</ele>
        <time>2026-08-16T11:02:29.859000Z</time>
      </trkpt>
      <trkpt lat="39.8797022" lon="116.6662779">
        <ele>25.15101</ele>
        <time>2026-08-16T11:02:34.835000Z</time>
      </trkpt>
      <trkpt lat="39.879768" lon="116.6661757">
        <ele>25.23132</ele>
        <time>2026-08-16T11:02:39.812000Z</time>
      </trkpt>
      <trkpt lat="39.8798432" lon="116.6660888">
        <ele>25.43153</ele>
        <time>2026-08-16T11:02:44.788000Z</time>
      </trkpt>
      <trkpt lat="39.8799109" lon="116.6659927">
        <ele>25.61459</ele>
        <time>2026-08-16T11:02:49.765000Z</time>
      </trkpt>
      <trkpt lat="39.8799748" lon="116.665892">
        <ele>25.7833</ele>
        <time>2026-08-16T11:02:54.742000Z</time>
      </trkpt>
      <trkpt lat="39.8800487" lon="116.6657965">
        <ele>25.90137</ele>
        <time>2026-08-16T11:03:00.713000Z</time>
      </trkpt>
      <trkpt lat="39.8801268" lon="116.6657306">
        <ele>25.92224</ele>
        <time>2026-08-16T11:03:06.685000Z</time>
      </trkpt>
      <trkpt lat="39.8801881" lon="116.665639">
        <ele>26.00295</ele>
        <time>2026-08-16T11:03:11.662000Z</time>
      </trkpt>
      <trkpt lat="39.8802523" lon="116.665553">
        <ele>26.11616</ele>
        <time>2026-08-16T11:03:15.643000Z</time>
      </trkpt>
      <trkpt lat="39.8803257" lon="116.6654637">
        <ele>26.27144</ele>
        <time>2026-08-16T11:03:19.624000Z</time>
      </trkpt>
      <trkpt lat="39.8803961" lon="116.6653889">
        <ele>26.33662</ele>
        <time>2026-08-16T11:03:23.606000Z</time>
      </trkpt>
      <trkpt lat="39.8804641" lon="116.6653098">
        <ele>26.29937</ele>
        <time>2026-08-16T11:03:27.587000Z</time>
      </trkpt>
      <trkpt lat="39.8805273" lon="116.6652224">
        <ele>26.24789</ele>
        <time>2026-08-16T11:03:31.568000Z</time>
      </trkpt>
      <trkpt lat="39.8805895" lon="116.6651307">
        <ele>26.29249</ele>
        <time>2026-08-16T11:03:35.549000Z</time>
      </trkpt>
      <trkpt lat="39.8806528" lon="116.6650454">
        <ele>26.32055</ele>
        <time>2026-08-16T11:03:39.530000Z</time>
      </trkpt>
      <trkpt lat="39.8807194" lon="116.6649619">
        <ele>26.3012</ele>
        <time>2026-08-16T11:03:43.512000Z</time>
      </trkpt>
      <trkpt lat="39.8807862" lon="116.6648788">
        <ele>26.33279</ele>
        <time>2026-08-16T11:03:47.493000Z</time>
      </trkpt>
      <trkpt lat="39.8808528" lon="116.6647985">
        <ele>26.43958</ele>
        <time>2026-08-16T11:03:51.474000Z</time>
      </trkpt>
      <trkpt lat="39.8809317" lon="116.6646967">
        <ele>26.67182</ele>
        <time>2026-08-16T11:03:56.451000Z</time>
      </trkpt>
      <trkpt lat="39.8810087" lon="116.6645934">
        <ele>26.81966</ele>
        <time>2026-08-16T11:04:01.427000Z</time>
      </trkpt>
      <trkpt lat="39.8810863" lon="116.6644897">
        <ele>26.9504</ele>
        <time>2026-08-16T11:04:06.404000Z</time>
      </trkpt>
      <trkpt lat="39.8811571" lon="116.664412">
        <ele>27.09744</ele>
        <time>2026-08-16T11:04:10.385000Z</time>
      </trkpt>
      <trkpt lat="39.8812432" lon="116.6643195">
        <ele>27.24253</ele>
        <time>2026-08-16T11:04:15.362000Z</time>
      </trkpt>
      <trkpt lat="39.8813233" lon="116.664223">
        <ele>27.20218</ele>
        <time>2026-08-16T11:04:20.338000Z</time>
      </trkpt>
      <trkpt lat="39.8813947" lon="116.6641253">
        <ele>27.14649</ele>
        <time>2026-08-16T11:04:25.315000Z</time>
      </trkpt>
      <trkpt lat="39.8814589" lon="116.6640208">
        <ele>27.08334</ele>
        <time>2026-08-16T11:04:30.291000Z</time>
      </trkpt>
      <trkpt lat="39.8815212" lon="116.6639211">
        <ele>26.90479</ele>
        <time>2026-08-16T11:04:35.268000Z</time>
      </trkpt>
      <trkpt lat="39.8815925" lon="116.6638266">
        <ele>26.57756</ele>
        <time>2026-08-16T11:04:40.244000Z</time>
      </trkpt>
      <trkpt lat="39.8816666" lon="116.6637344">
        <ele>26.00798</ele>
        <time>2026-08-16T11:04:45.221000Z</time>
      </trkpt>
      <trkpt lat="39.8817285" lon="116.6636323">
        <ele>24.61279</ele>
        <time>2026-08-16T11:04:50.197000Z</time>
      </trkpt>
      <trkpt lat="39.8817432" lon="116.6635134">
        <ele>23.27179</ele>
        <time>2026-08-16T11:04:55Z</time>
      </trkpt>
      <trkpt lat="39.8817741" lon="116.6633894">
        <ele>22.94132</ele>
        <time>2026-08-16T11:05:00Z</time>
      </trkpt>
      <trkpt lat="39.881801" lon="116.6632556">
        <ele>23.02576</ele>
        <time>2026-08-16T11:05:05Z</time>
      </trkpt>
      <trkpt lat="39.8818187" lon="116.6631225">
        <ele>23.0831</ele>
        <time>2026-08-16T11:05:10.103000Z</time>
      </trkpt>
      <trkpt lat="39.8818803" lon="116.6630108">
        <ele>22.92745</ele>
        <time>2026-08-16T11:05:15Z</time>
      </trkpt>
      <trkpt lat="39.8819337" lon="116.6629164">
        <ele>22.9077</ele>
        <time>2026-08-16T11:05:19Z</time>
      </trkpt>
      <trkpt lat="39.8819956" lon="116.6627979">
        <ele>22.99836</ele>
        <time>2026-08-16T11:05:24Z</time>
      </trkpt>
      <trkpt lat="39.8820596" lon="116.6626826">
        <ele>23.31277</ele>
        <time>2026-08-16T11:05:29Z</time>
      </trkpt>
      <trkpt lat="39.8821283" lon="116.6625834">
        <ele>24.08183</ele>
        <time>2026-08-16T11:05:33.991000Z</time>
      </trkpt>
      <trkpt lat="39.8822056" lon="116.6624898">
        <ele>24.7253</ele>
        <time>2026-08-16T11:05:38.967000Z</time>
      </trkpt>
      <trkpt lat="39.8822806" lon="116.6623975">
        <ele>25.08306</ele>
        <time>2026-08-16T11:05:43.944000Z</time>
      </trkpt>
      <trkpt lat="39.8823573" lon="116.6623048">
        <ele>25.23436</ele>
        <time>2026-08-16T11:05:48.920000Z</time>
      </trkpt>
      <trkpt lat="39.8824345" lon="116.6622146">
        <ele>25.33167</ele>
        <time>2026-08-16T11:05:53.897000Z</time>
      </trkpt>
      <trkpt lat="39.882513" lon="116.6621249">
        <ele>25.43708</ele>
        <time>2026-08-16T11:05:58.873000Z</time>
      </trkpt>
      <trkpt lat="39.8825921" lon="116.6620388">
        <ele>25.62764</ele>
        <time>2026-08-16T11:06:03.850000Z</time>
      </trkpt>
      <trkpt lat="39.8826679" lon="116.6619533">
        <ele>25.91971</ele>
        <time>2026-08-16T11:06:08.827000Z</time>
      </trkpt>
      <trkpt lat="39.8826859" lon="116.6618304">
        <ele>26.30012</ele>
        <time>2026-08-16T11:06:14.808000Z</time>
      </trkpt>
      <trkpt lat="39.8826554" lon="116.6617162">
        <ele>26.55369</ele>
        <time>2026-08-16T11:06:20.808000Z</time>
      </trkpt>
    </trkseg>
  </trk>
</gpx>