<?xml version="1.0" encoding="UTF-8"?>
<gpx xmlns="http://www.topografix.com/GPX/1/1" xmlns:gpxtpx="http://www.garmin.com/xmlschemas/TrackPointExtension/v1" xmlns:xsi="http://www.w3.org/2001/XMLSchema-instance" xsi:schemaLocation="http://www.topografix.com/GPX/1/1 http://www.topografix.com/GPX/1/1/gpx.xsd" version="1.1" creator="gpx.py -- https://github.com/tkrajina/gpxpy">
  <trk>
    <name>gpx from codoon</name>
    <type>Run</type>
    <trkseg>
      <trkpt lat="39.8731265" lon="116.6655178">
        <ele>22.86176</ele>
        <time>2026-08-20T22:39:35.159000Z</time>
      </trkpt>
      <trkpt lat="39.8732053" lon="116.6655959">
        <ele>22.81694</ele>
        <time>2026-08-20T22:39:41.093000Z</time>
      </trkpt>
      <trkpt lat="39.873262" lon="116.6656951">
        <ele>22.73263</ele>
        <time>2026-08-20T22:39:45.075000Z</time>
      </trkpt>
      <trkpt lat="39.8733412" lon="116.6657864">
        <ele>22.59928</ele>
        <time>2026-08-20T22:39:49.057000Z</time>
      </trkpt>
      <trkpt lat="39.8734351" lon="116.6658442">
        <ele>22.50634</ele>
        <time>2026-08-20T22:39:53.040000Z</time>
      </trkpt>
      <trkpt lat="39.8735308" lon="116.6658798">
        <ele>22.45497</ele>
        <time>2026-08-20T22:39:57.022000Z</time>
      </trkpt>
      <trkpt lat="39.8736251" lon="116.6658651">
        <ele>22.43897</ele>
        <time>2026-08-20T22:40:01.004000Z</time>
      </trkpt>
      <trkpt lat="39.8737113" lon="116.6658106">
        <ele>22.48306</ele>
        <time>2026-08-20T22:40:04.986000Z</time>
      </trkpt>
      <trkpt lat="39.8737959" lon="116.6657361">
        <ele>22.62215</ele>
        <time>2026-08-20T22:40:08.968000Z</time>
      </trkpt>
      <trkpt lat="39.8738872" lon="116.6656556">
        <ele>22.84591</ele>
        <time>2026-08-20T22:40:12.949000Z</time>
      </trkpt>
      <trkpt lat="39.8739813" lon="116.6655862">
        <ele>23.12556</ele>
        <time>2026-08-20T22:40:16.931000Z</time>
      </trkpt>
      <trkpt lat="39.8740752" lon="116.6655481">
        <ele>23.426</ele>
        <time>2026-08-20T22:40:20.912000Z</time>
      </trkpt>
      <trkpt lat="39.87418" lon="116.6655228">
        <ele>23.69165</ele>
        <time>2026-08-20T22:40:24.894000Z</time>
      </trkpt>
      <trkpt lat="39.8742865" lon="116.6654832">
        <ele>23.83063</ele>
        <time>2026-08-20T22:40:28.875000Z</time>
      </trkpt>
      <trkpt lat="39.8743893" lon="116.6654436">
        <ele>23.82999</ele>
        <time>2026-08-20T22:40:32.857000Z</time>
      </trkpt>
      <trkpt lat="39.8744793" lon="116.6654824">
        <ele>23.75491</ele>
        <time>2026-08-20T22:40:36.838000Z</time>
      </trkpt>
      <trkpt lat="39.8745346" lon="116.665604">
        <ele>23.63986</ele>
        <time>2026-08-20T22:40:40.820000Z</time>
      </trkpt>
      <trkpt lat="39.8745852" lon="116.6657333">
        <ele>23.47031</ele>
        <time>2026-08-20T22:40:44.801000Z</time>
      </trkpt>
      <trkpt lat="39.8746386" lon="116.6658645">
        <ele>23.28451</ele>
        <time>2026-08-20T22:40:48.782000Z</time>
      </trkpt>
      <trkpt lat="39.8746909" lon="116.6659896">
        <ele>23.10817</ele>
        <time>2026-08-20T22:40:52.764000Z</time>
      </trkpt>
      <trkpt lat="39.8747444" lon="116.6661138">
        <ele>22.93266</ele>
        <time>2026-08-20T22:40:56.745000Z</time>
      </trkpt>
      <trkpt lat="39.8748004" lon="116.6662305">
        <ele>22.77206</ele>
        <time>2026-08-20T22:41:00.726000Z</time>
      </trkpt>
      <trkpt lat="39.874861" lon="116.6663429">
        <ele>22.62934</ele>
        <time>2026-08-20T22:41:04.708000Z</time>
      </trkpt>
      <trkpt lat="39.8749236" lon="116.6664557">
        <ele>22.50269</ele>
        <time>2026-08-20T22:41:08.689000Z</time>
      </trkpt>
      <trkpt lat="39.8749895" lon="116.6665654">
        <ele>22.41057</ele>
        <time>2026-08-20T22:41:12.670000Z</time>
      </trkpt>
      <trkpt lat="39.87506" lon="116.6666731">
        <ele>22.36921</ele>
        <time>2026-08-20T22:41:16.652000Z</time>
      </trkpt>
      <trkpt lat="39.8751293" lon="116.6667794">
        <ele>22.37585</ele>
        <time>2026-08-20T22:41:20.633000Z</time>
      </trkpt>
      <trkpt lat="39.8751981" lon="116.6668846">
        <ele>22.41297</ele>
        <time>2026-08-20T22:41:24.614000Z</time>
      </trkpt>
      <trkpt lat="39.8752669" lon="116.6669923">
        <ele>22.48076</ele>
        <time>2026-08-20T22:41:28.596000Z</time>
      </trkpt>
      <trkpt lat="39.8753345" lon="116.6671038">
        <ele>22.60878</ele>
        <time>2026-08-20T22:41:32.577000Z</time>
      </trkpt>
      <trkpt lat="39.8754059" lon="116.6672089">
        <ele>22.79397</ele>
        <time>2026-08-20T22:41:36.558000Z</time>
      </trkpt>
      <trkpt lat="39.8754804" lon="116.66731">
        <ele>22.99952</ele>
        <time>2026-08-20T22:41:40.540000Z</time>
      </trkpt>
      <trkpt lat="39.8755525" lon="116.6674156">
        <ele>23.20503</ele>
        <time>2026-08-20T22:41:44.521000Z</time>
      </trkpt>
      <trkpt lat="39.8756189" lon="116.6675281">
        <ele>23.3997</ele>
        <time>2026-08-20T22:41:48.502000Z</time>
      </trkpt>
      <trkpt lat="39.8756831" lon="116.6676391">
        <ele>23.56723</ele>
        <time>2026-08-20T22:41:52.483000Z</time>
      </trkpt>
      <trkpt lat="39.8757469" lon="116.6677413">
        <ele>23.69837</ele>
        <time>2026-08-20T22:41:56.465000Z</time>
      </trkpt>
      <trkpt lat="39.8757425" lon="116.6678646">
        <ele>23.88903</ele>
        <time>2026-08-20T22:42:02.437000Z</time>
      </trkpt>
      <trkpt lat="39.8756768" lon="116.6679655">
        <ele>24.003</ele>
        <time>2026-08-20T22:42:07.413000Z</time>
      </trkpt>
      <trkpt lat="39.8756399" lon="116.6680725">
        <ele>23.98579</ele>
        <time>2026-08-20T22:42:11.394000Z</time>
      </trkpt>
      <trkpt lat="39.8755311" lon="116.6681004">
        <ele>23.82004</ele>
        <time>2026-08-20T22:42:16.371000Z</time>
      </trkpt>
      <trkpt lat="39.8754264" lon="116.6680585">
        <ele>23.63139</ele>
        <time>2026-08-20T22:42:20.352000Z</time>
      </trkpt>
      <trkpt lat="39.8753189" lon="116.6680106">
        <ele>23.48527</ele>
        <time>2026-08-20T22:42:24.334000Z</time>
      </trkpt>
      <trkpt lat="39.8752268" lon="116.6679368">
        <ele>23.37726</ele>
        <time>2026-08-20T22:42:28.315000Z</time>
      </trkpt>
      <trkpt lat="39.8751641" lon="116.6678252">
        <ele>23.24469</ele>
        <time>2026-08-20T22:42:32.296000Z</time>
      </trkpt>
      <trkpt lat="39.8750924" lon="116.6677175">
        <ele>23.09609</ele>
        <time>2026-08-20T22:42:36.277000Z</time>
      </trkpt>
      <trkpt lat="39.8749976" lon="116.6676345">
        <ele>22.97487</ele>
        <time>2026-08-20T22:42:40.259000Z</time>
      </trkpt>
      <trkpt lat="39.8748927" lon="116.6675799">
        <ele>22.87084</ele>
        <time>2026-08-20T22:42:44.240000Z</time>
      </trkpt>
      <trkpt lat="39.8747866" lon="116.6675431">
        <ele>22.76754</ele>
        <time>2026-08-20T22:42:48.221000Z</time>
      </trkpt>
      <trkpt lat="39.8746804" lon="116.6675172">
        <ele>22.6729</ele>
        <time>2026-08-20T22:42:52.202000Z</time>
      </trkpt>
      <trkpt lat="39.8745719" lon="116.6675043">
        <ele>22.62519</ele>
        <time>2026-08-20T22:42:56.184000Z</time>
      </trkpt>
      <trkpt lat="39.8744635" lon="116.667513">
        <ele>22.62576</ele>
        <time>2026-08-20T22:43:00.165000Z</time>
      </trkpt>
      <trkpt lat="39.8743581" lon="116.6675489">
        <ele>22.61383</ele>
        <time>2026-08-20T22:43:04.146000Z</time>
      </trkpt>
      <trkpt lat="39.8742596" lon="116.6676015">
        <ele>22.55162</ele>
        <time>2026-08-20T22:43:08.127000Z</time>
      </trkpt>
      <trkpt lat="39.8741642" lon="116.6676658">
        <ele>22.46528</ele>
        <time>2026-08-20T22:43:12.109000Z</time>
      </trkpt>
      <trkpt lat="39.8740677" lon="116.6677294">
        <ele>22.39439</ele>
        <time>2026-08-20T22:43:16.090000Z</time>
      </trkpt>
      <trkpt lat="39.8739745" lon="116.6677802">
        <ele>22.35743</ele>
        <time>2026-08-20T22:43:20Z</time>
      </trkpt>
      <trkpt lat="39.8738719" lon="116.6678016">
        <ele>22.32708</ele>
        <time>2026-08-20T22:43:24Z</time>
      </trkpt>
      <trkpt lat="39.8737664" lon="116.6677965">
        <ele>22.29703</ele>
        <time>2026-08-20T22:43:28Z</time>
      </trkpt>
      <trkpt lat="39.8736597" lon="116.6677714">
        <ele>22.30417</ele>
        <time>2026-08-20T22:43:32Z</time>
      </trkpt>
      <trkpt lat="39.8735538" lon="116.6677436">
        <ele>22.39527</ele>
        <time>2026-08-20T22:43:35.996000Z</time>
      </trkpt>
      <trkpt lat="39.8734472" lon="116.6677249">
        <ele>22.51634</ele>
        <time>2026-08-20T22:43:39.977000Z</time>
      </trkpt>
      <trkpt lat="39.8733448" lon="116.6677455">
        <ele>22.5408</ele>
        <time>2026-08-20T22:43:43.959000Z</time>
      </trkpt>
      <trkpt lat="39.8732481" lon="116.6677993">
        <ele>22.46467</ele>
        <time>2026-08-20T22:43:47.940000Z</time>
      </trkpt>
      <trkpt lat="39.8731518" lon="116.6678514">
        <ele>22.3345</ele>
        <time>2026-08-20T22:43:51.921000Z</time>
      </trkpt>
      <trkpt lat="39.8730474" lon="116.6678702">
        <ele>22.14695</ele>
        <time>2026-08-20T22:43:55.902000Z</time>
      </trkpt>
      <trkpt lat="39.8729399" lon="116.6678583">
        <ele>21.9576</ele>
        <time>2026-08-20T22:43:59.884000Z</time>
      </trkpt>
      <trkpt lat="39.8728365" lon="116.6678265">
        <ele>21.8348</ele>
        <time>2026-08-20T22:44:03.865000Z</time>
      </trkpt>
      <trkpt lat="39.8727338" lon="116.6678112">
        <ele>21.79569</ele>
        <time>2026-08-20T22:44:07.846000Z</time>
      </trkpt>
      <trkpt lat="39.8726306" lon="116.6678008">
        <ele>21.85144</ele>
        <time>2026-08-20T22:44:11.827000Z</time>
      </trkpt>
      <trkpt lat="39.8725249" lon="116.6677906">
        <ele>21.94348</ele>
        <time>2026-08-20T22:44:15.809000Z</time>
      </trkpt>
      <trkpt lat="39.8724189" lon="116.6677932">
        <ele>21.96706</ele>
        <time>2026-08-20T22:44:19.790000Z</time>
      </trkpt>
      <trkpt lat="39.8723123" lon="116.6678021">
        <ele>21.87245</ele>
        <time>2026-08-20T22:44:23.771000Z</time>
      </trkpt>
      <trkpt lat="39.8722038" lon="116.6678067">
        <ele>21.69454</ele>
        <time>2026-08-20T22:44:27.752000Z</time>
      </trkpt>
      <trkpt lat="39.8721001" lon="116.667799">
        <ele>21.49429</ele>
        <time>2026-08-20T22:44:31.733000Z</time>
      </trkpt>
      <trkpt lat="39.8719983" lon="116.6677608">
        <ele>21.30191</ele>
        <time>2026-08-20T22:44:35.715000Z</time>
      </trkpt>
      <trkpt lat="39.8718977" lon="116.6677051">
        <ele>21.11104</ele>
        <time>2026-08-20T22:44:39.696000Z</time>
      </trkpt>
      <trkpt lat="39.8718006" lon="116.6676419">
        <ele>20.99057</ele>
        <time>2026-08-20T22:44:43.677000Z</time>
      </trkpt>
      <trkpt lat="39.871698" lon="116.6675874">
        <ele>20.94438</ele>
        <time>2026-08-20T22:44:47.658000Z</time>
      </trkpt>
      <trkpt lat="39.8715926" lon="116.6675427">
        <ele>20.9369</ele>
        <time>2026-08-20T22:44:51.640000Z</time>
      </trkpt>
      <trkpt lat="39.8714822" lon="116.6675115">
        <ele>20.91621</ele>
        <time>2026-08-20T22:44:55.621000Z</time>
      </trkpt>
      <trkpt lat="39.8713714" lon="116.6674995">
        <ele>20.82574</ele>
        <time>2026-08-20T22:44:59.602000Z</time>
      </trkpt>
      <trkpt lat="39.8712636" lon="116.6675037">
        <ele>20.69912</ele>
        <time>2026-08-20T22:45:03.583000Z</time>
      </trkpt>
      <trkpt lat="39.8711623" lon="116.6675247">
        <ele>20.57852</ele>
        <time>2026-08-20T22:45:07.564000Z</time>
      </trkpt>
      <trkpt lat="39.8710703" lon="116.6675715">
        <ele>20.50643</ele>
        <time>2026-08-20T22:45:11.546000Z</time>
      </trkpt>
      <trkpt lat="39.8710106" lon="116.6676701">
        <ele>20.58592</ele>
        <time>2026-08-20T22:45:15.527000Z</time>
      </trkpt>
      <trkpt lat="39.8709585" lon="116.6677939">
        <ele>20.84906</ele>
        <time>2026-08-20T22:45:19.508000Z</time>
      </trkpt>
      <trkpt lat="39.8708735" lon="116.6678653">
        <ele>21.16997</ele>
        <time>2026-08-20T22:45:23.489000Z</time>
      </trkpt>
      <trkpt lat="39.87077" lon="116.667874">
        <ele>21.42739</ele>
        <time>2026-08-20T22:45:27.470000Z</time>
      </trkpt>
      <trkpt lat="39.8706609" lon="116.667864">
        <ele>21.56788</ele>
        <time>2026-08-20T22:45:31.452000Z</time>
      </trkpt>
      <trkpt lat="39.8705534" lon="116.6678548">
        <ele>21.6113</ele>
        <time>2026-08-20T22:45:35.433000Z</time>
      </trkpt>
      <trkpt lat="39.8704494" lon="116.6678486">
        <ele>21.61094</ele>
        <time>2026-08-20T22:45:39.414000Z</time>
      </trkpt>
      <trkpt lat="39.8703457" lon="116.6678198">
        <ele>21.60265</ele>
        <time>2026-08-20T22:45:43.395000Z</time>
      </trkpt>
      <trkpt lat="39.8702439" lon="116.6677768">
        <ele>21.55787</ele>
        <time>2026-08-20T22:45:47.376000Z</time>
      </trkpt>
      <trkpt lat="39.8701365" lon="116.6677775">
        <ele>21.45454</ele>
        <time>2026-08-20T22:45:51.358000Z</time>
      </trkpt>
      <trkpt lat="39.8700267" lon="116.6677874">
        <ele>21.30754</ele>
        <time>2026-08-20T22:45:55.339000Z</time>
      </trkpt>
      <trkpt lat="39.8699174" lon="116.6677807">
        <ele>21.15299</ele>
        <time>2026-08-20T22:45:59.320000Z</time>
      </trkpt>
      <trkpt lat="39.8698082" lon="116.6677715">
        <ele>21.0287</ele>
        <time>2026-08-20T22:46:03.301000Z</time>
      </trkpt>
      <trkpt lat="39.8697004" lon="116.6677791">
        <ele>20.94256</ele>
        <time>2026-08-20T22:46:07.282000Z</time>
      </trkpt>
      <trkpt lat="39.8695999" lon="116.6678147">
        <ele>20.89001</ele>
        <time>2026-08-20T22:46:11.264000Z</time>
      </trkpt>
      <trkpt lat="39.8695237" lon="116.6678963">
        <ele>20.89057</ele>
        <time>2026-08-20T22:46:15.245000Z</time>
      </trkpt>
      <trkpt lat="39.8694873" lon="116.668024">
        <ele>20.94234</ele>
        <time>2026-08-20T22:46:19.226000Z</time>
      </trkpt>
      <trkpt lat="39.8694922" lon="116.6681606">
        <ele>21.01001</ele>
        <time>2026-08-20T22:46:23.207000Z</time>
      </trkpt>
      <trkpt lat="39.869535" lon="116.6682806">
        <ele>21.05289</ele>
        <time>2026-08-20T22:46:27.188000Z</time>
      </trkpt>
      <trkpt lat="39.8696142" lon="116.6683587">
        <ele>21.08174</ele>
        <time>2026-08-20T22:46:31.170000Z</time>
      </trkpt>
      <trkpt lat="39.8697172" lon="116.6683671">
        <ele>21.11039</ele>
        <time>2026-08-20T22:46:35.151000Z</time>
      </trkpt>
      <trkpt lat="39.8698159" lon="116.6683331">
        <ele>21.15176</ele>
        <time>2026-08-20T22:46:39Z</time>
      </trkpt>
      <trkpt lat="39.8699165" lon="116.6683067">
        <ele>21.17662</ele>
        <time>2026-08-20T22:46:43Z</time>
      </trkpt>
      <trkpt lat="39.870019" lon="116.6683113">
        <ele>21.16753</ele>
        <time>2026-08-20T22:46:47Z</time>
      </trkpt>
      <trkpt lat="39.8701213" lon="116.6683128">
        <ele>21.09502</ele>
        <time>2026-08-20T22:46:51Z</time>
      </trkpt>
      <trkpt lat="39.8702177" lon="116.6682781">
        <ele>20.96046</ele>
        <time>2026-08-20T22:46:55Z</time>
      </trkpt>
      <trkpt lat="39.8703067" lon="116.668218">
        <ele>20.82192</ele>
        <time>2026-08-20T22:46:59Z</time>
      </trkpt>
      <trkpt lat="39.8703933" lon="116.6681524">
        <ele>20.69433</ele>
        <time>2026-08-20T22:47:03Z</time>
      </trkpt>
      <trkpt lat="39.8704848" lon="116.6681048">
        <ele>20.57194</ele>
        <time>2026-08-20T22:47:07Z</time>
      </trkpt>
      <trkpt lat="39.8705843" lon="116.668091">
        <ele>20.49185</ele>
        <time>2026-08-20T22:47:10.981000Z</time>
      </trkpt>
      <trkpt lat="39.8706839" lon="116.6681065">
        <ele>20.50834</ele>
        <time>2026-08-20T22:47:14.962000Z</time>
      </trkpt>
      <trkpt lat="39.8707874" lon="116.6681353">
        <ele>20.60698</ele>
        <time>2026-08-20T22:47:18.944000Z</time>
      </trkpt>
      <trkpt lat="39.870896" lon="116.6681437">
        <ele>20.73144</ele>
        <time>2026-08-20T22:47:22.925000Z</time>
      </trkpt>
      <trkpt lat="39.8710021" lon="116.6681286">
        <ele>20.84217</ele>
        <time>2026-08-20T22:47:26.906000Z</time>
      </trkpt>
      <trkpt lat="39.8710994" lon="116.6680918">
        <ele>20.93104</ele>
        <time>2026-08-20T22:47:30.887000Z</time>
      </trkpt>
      <trkpt lat="39.8711872" lon="116.6680367">
        <ele>20.97159</ele>
        <time>2026-08-20T22:47:34.868000Z</time>
      </trkpt>
      <trkpt lat="39.871272" lon="116.6679791">
        <ele>20.93995</ele>
        <time>2026-08-20T22:47:38.849000Z</time>
      </trkpt>
      <trkpt lat="39.8713646" lon="116.6679425">
        <ele>20.84589</ele>
        <time>2026-08-20T22:47:42.831000Z</time>
      </trkpt>
      <trkpt lat="39.8714637" lon="116.6679403">
        <ele>20.73809</ele>
        <time>2026-08-20T22:47:46.812000Z</time>
      </trkpt>
      <trkpt lat="39.8715634" lon="116.6679693">
        <ele>20.65927</ele>
        <time>2026-08-20T22:47:50.793000Z</time>
      </trkpt>
      <trkpt lat="39.8716592" lon="116.6680152">
        <ele>20.61104</ele>
        <time>2026-08-20T22:47:54.774000Z</time>
      </trkpt>
      <trkpt lat="39.8717485" lon="116.6680783">
        <ele>20.61878</ele>
        <time>2026-08-20T22:47:58.755000Z</time>
      </trkpt>
      <trkpt lat="39.8718387" lon="116.6681432">
        <ele>20.69252</ele>
        <time>2026-08-20T22:48:02.736000Z</time>
      </trkpt>
      <trkpt lat="39.8719321" lon="116.6681923">
        <ele>20.81115</ele>
        <time>2026-08-20T22:48:06.717000Z</time>
      </trkpt>
      <trkpt lat="39.8720261" lon="116.6682152">
        <ele>20.93582</ele>
        <time>2026-08-20T22:48:10.699000Z</time>
      </trkpt>
      <trkpt lat="39.8721236" lon="116.6682181">
        <ele>21.04248</ele>
        <time>2026-08-20T22:48:14.680000Z</time>
      </trkpt>
      <trkpt lat="39.8722211" lon="116.6682228">
        <ele>21.11838</ele>
        <time>2026-08-20T22:48:18.661000Z</time>
      </trkpt>
      <trkpt lat="39.8723179" lon="116.6682505">
        <ele>21.15695</ele>
        <time>2026-08-20T22:48:22.642000Z</time>
      </trkpt>
      <trkpt lat="39.8724048" lon="116.6683059">
        <ele>21.16737</ele>
        <time>2026-08-20T22:48:26.623000Z</time>
      </trkpt>
      <trkpt lat="39.872476" lon="116.6683869">
        <ele>21.1696</ele>
        <time>2026-08-20T22:48:30.604000Z</time>
      </trkpt>
      <trkpt lat="39.8725329" lon="116.668493">
        <ele>21.17537</ele>
        <time>2026-08-20T22:48:34.585000Z</time>
      </trkpt>
      <trkpt lat="39.8725792" lon="116.6686103">
        <ele>21.18456</ele>
        <time>2026-08-20T22:48:38.567000Z</time>
      </trkpt>
      <trkpt lat="39.8726059" lon="116.6687362">
        <ele>21.20059</ele>
        <time>2026-08-20T22:48:42.548000Z</time>
      </trkpt>
      <trkpt lat="39.8726105" lon="116.6688666">
        <ele>21.2247</ele>
        <time>2026-08-20T22:48:46.529000Z</time>
      </trkpt>
      <trkpt lat="39.8725931" lon="116.6689946">
        <ele>21.26341</ele>
        <time>2026-08-20T22:48:50.510000Z</time>
      </trkpt>
      <trkpt lat="39.8725628" lon="116.6691204">
        <ele>21.3281</ele>
        <time>2026-08-20T22:48:54.491000Z</time>
      </trkpt>
      <trkpt lat="39.8725291" lon="116.6692505">
        <ele>21.39342</ele>
        <time>2026-08-20T22:48:58.472000Z</time>
      </trkpt>
      <trkpt lat="39.872504" lon="116.669383">
        <ele>21.44232</ele>
        <time>2026-08-20T22:49:02.453000Z</time>
      </trkpt>
      <trkpt lat="39.8724969" lon="116.6695164">
        <ele>21.48353</ele>
        <time>2026-08-20T22:49:06.435000Z</time>
      </trkpt>
      <trkpt lat="39.8725041" lon="116.6696501">
        <ele>21.49736</ele>
        <time>2026-08-20T22:49:10.416000Z</time>
      </trkpt>
      <trkpt lat="39.8725238" lon="116.669777">
        <ele>21.47228</ele>
        <time>2026-08-20T22:49:14.397000Z</time>
      </trkpt>
      <trkpt lat="39.8725608" lon="116.6698938">
        <ele>21.4263</ele>
        <time>2026-08-20T22:49:18.378000Z</time>
      </trkpt>
      <trkpt lat="39.8726235" lon="116.66999">
        <ele>21.37203</ele>
        <time>2026-08-20T22:49:22.359000Z</time>
      </trkpt>
      <trkpt lat="39.8726992" lon="116.6700609">
        <ele>21.32448</ele>
        <time>2026-08-20T22:49:26.340000Z</time>
      </trkpt>
      <trkpt lat="39.8727867" lon="116.6701059">
        <ele>21.29369</ele>
        <time>2026-08-20T22:49:30.321000Z</time>
      </trkpt>
      <trkpt lat="39.8728812" lon="116.6701339">
        <ele>21.27902</ele>
        <time>2026-08-20T22:49:34.302000Z</time>
      </trkpt>
      <trkpt lat="39.872977" lon="116.6701472">
        <ele>21.27785</ele>
        <time>2026-08-20T22:49:38.284000Z</time>
      </trkpt>
      <trkpt lat="39.8730765" lon="116.6701447">
        <ele>21.27195</ele>
        <time>2026-08-20T22:49:42.265000Z</time>
      </trkpt>
      <trkpt lat="39.8731792" lon="116.6701303">
        <ele>21.24</ele>
        <time>2026-08-20T22:49:46.246000Z</time>
      </trkpt>
      <trkpt lat="39.8732791" lon="116.6701014">
        <ele>21.17919</ele>
        <time>2026-08-20T22:49:50.227000Z</time>
      </trkpt>
      <trkpt lat="39.8733729" lon="116.6700536">
        <ele>21.10856</ele>
        <time>2026-08-20T22:49:54.208000Z</time>
      </trkpt>
      <trkpt lat="39.8734577" lon="116.6699918">
        <ele>21.06575</ele>
        <time>2026-08-20T22:49:58.189000Z</time>
      </trkpt>
      <trkpt lat="39.8735365" lon="116.6699245">
        <ele>21.10382</ele>
        <time>2026-08-20T22:50:02.170000Z</time>
      </trkpt>
      <trkpt lat="39.8736285" lon="116.6698471">
        <ele>21.21815</ele>
        <time>2026-08-20T22:50:07Z</time>
      </trkpt>
      <trkpt lat="39.8737164" lon="116.6698001">
        <ele>21.26998</ele>
        <time>2026-08-20T22:50:11Z</time>
      </trkpt>
      <trkpt lat="39.8738156" lon="116.6697804">
        <ele>21.29809</ele>
        <time>2026-08-20T22:50:15Z</time>
      </trkpt>
      <trkpt lat="39.8739201" lon="116.6697888">
        <ele>21.31403</ele>
        <time>2026-08-20T22:50:19Z</time>
      </trkpt>
      <trkpt lat="39.8740277" lon="116.6698097">
        <ele>21.32765</ele>
        <time>2026-08-20T22:50:23Z</time>
      </trkpt>
      <trkpt lat="39.8741316" lon="116.6698225">
        <ele>21.35472</ele>
        <time>2026-08-20T22:50:27Z</time>
      </trkpt>
      <trkpt lat="39.8742363" lon="116.6698101">
        <ele>21.38407</ele>
        <time>2026-08-20T22:50:31Z</time>
      </trkpt>
      <trkpt lat="39.8743269" lon="116.669748">
        <ele>21.42111</ele>
        <time>2026-08-20T22:50:35Z</time>
      </trkpt>
      <trkpt lat="39.8743997" lon="116.6696567">
        <ele>21.54669</ele>
        <time>2026-08-20T22:50:38.996000Z</time>
      </trkpt>
      <trkpt lat="39.8744689" lon="116.6695623">
        <ele>21.77773</ele>
        <time>2026-08-20T22:50:42.977000Z</time>
      </trkpt>
      <trkpt lat="39.8745536" lon="116.6694904">
        <ele>22.0196</ele>
        <time>2026-08-20T22:50:46.958000Z</time>
      </trkpt>
      <trkpt lat="39.8746538" lon="116.6694687">
        <ele>22.21646</ele>
        <time>2026-08-20T22:50:50.939000Z</time>
      </trkpt>
      <trkpt lat="39.8747559" lon="116.6694935">
        <ele>22.39105</ele>
        <time>2026-08-20T22:50:54.920000Z</time>
      </trkpt>
      <trkpt lat="39.8748551" lon="116.6695402">
        <ele>22.57088</ele>
        <time>2026-08-20T22:50:58.902000Z</time>
      </trkpt>
      <trkpt lat="39.8749464" lon="116.6696073">
        <ele>22.74306</ele>
        <time>2026-08-20T22:51:02.883000Z</time>
      </trkpt>
      <trkpt lat="39.8750322" lon="116.6696785">
        <ele>22.8907</ele>
        <time>2026-08-20T22:51:06.864000Z</time>
      </trkpt>
      <trkpt lat="39.8751265" lon="116.6697011">
        <ele>22.99861</ele>
        <time>2026-08-20T22:51:10.845000Z</time>
      </trkpt>
      <trkpt lat="39.8752173" lon="116.6696456">
        <ele>23.09412</ele>
        <time>2026-08-20T22:51:14.826000Z</time>
      </trkpt>
      <trkpt lat="39.8752999" lon="116.6695738">
        <ele>23.18477</ele>
        <time>2026-08-20T22:51:18.807000Z</time>
      </trkpt>
      <trkpt lat="39.8753922" lon="116.6695326">
        <ele>23.23658</ele>
        <time>2026-08-20T22:51:22.788000Z</time>
      </trkpt>
      <trkpt lat="39.8754894" lon="116.6694971">
        <ele>23.27632</ele>
        <time>2026-08-20T22:51:26.770000Z</time>
      </trkpt>
      <trkpt lat="39.8755759" lon="116.6694303">
        <ele>23.3319</ele>
        <time>2026-08-20T22:51:30.751000Z</time>
      </trkpt>
      <trkpt lat="39.8756383" lon="116.6693302">
        <ele>23.40801</ele>
        <time>2026-08-20T22:51:34.732000Z</time>
      </trkpt>
      <trkpt lat="39.8756612" lon="116.6692081">
        <ele>23.48044</ele>
        <time>2026-08-20T22:51:38.713000Z</time>
      </trkpt>
      <trkpt lat="39.875649" lon="116.669085">
        <ele>23.51524</ele>
        <time>2026-08-20T22:51:42.694000Z</time>
      </trkpt>
      <trkpt lat="39.875617" lon="116.6689673">
        <ele>23.49501</ele>
        <time>2026-08-20T22:51:46.675000Z</time>
      </trkpt>
      <trkpt lat="39.8755638" lon="116.6688669">
        <ele>23.46619</ele>
        <time>2026-08-20T22:51:50.656000Z</time>
      </trkpt>
      <trkpt lat="39.8754905" lon="116.6687834">
        <ele>23.44407</ele>
        <time>2026-08-20T22:51:54.638000Z</time>
      </trkpt>
      <trkpt lat="39.8754143" lon="116.6687005">
        <ele>23.38152</ele>
        <time>2026-08-20T22:51:58.619000Z</time>
      </trkpt>
      <trkpt lat="39.8753516" lon="116.6685988">
        <ele>23.28392</ele>
        <time>2026-08-20T22:52:02.600000Z</time>
      </trkpt>
      <trkpt lat="39.8753079" lon="116.6684813">
        <ele>23.14412</ele>
        <time>2026-08-20T22:52:06.581000Z</time>
      </trkpt>
      <trkpt lat="39.8752818" lon="116.6683531">
        <ele>23.00735</ele>
        <time>2026-08-20T22:52:10.562000Z</time>
      </trkpt>
      <trkpt lat="39.8752586" lon="116.668222">
        <ele>22.9304</ele>
        <time>2026-08-20T22:52:14.543000Z</time>
      </trkpt>
      <trkpt lat="39.8752314" lon="116.6680905">
        <ele>22.91981</ele>
        <time>2026-08-20T22:52:18.524000Z</time>
      </trkpt>
      <trkpt lat="39.8751937" lon="116.667964">
        <ele>22.92113</ele>
        <time>2026-08-20T22:52:22.506000Z</time>
      </trkpt>
      <trkpt lat="39.8751407" lon="116.6678457">
        <ele>22.87488</ele>
        <time>2026-08-20T22:52:26.487000Z</time>
      </trkpt>
      <trkpt lat="39.8750759" lon="116.6677392">
        <ele>22.7852</ele>
        <time>2026-08-20T22:52:30.468000Z</time>
      </trkpt>
      <trkpt lat="39.8749944" lon="116.667651">
        <ele>22.70035</ele>
        <time>2026-08-20T22:52:34.449000Z</time>
      </trkpt>
      <trkpt lat="39.8749021" lon="116.667589">
        <ele>22.66085</ele>
        <time>2026-08-20T22:52:38.430000Z</time>
      </trkpt>
      <trkpt lat="39.8748045" lon="116.6675507">
        <ele>22.67316</ele>
        <time>2026-08-20T22:52:42.411000Z</time>
      </trkpt>
      <trkpt lat="39.8747065" lon="116.6675205">
        <ele>22.70318</ele>
        <time>2026-08-20T22:52:46.392000Z</time>
      </trkpt>
      <trkpt lat="39.8746038" lon="116.6674987">
        <ele>22.70405</ele>
        <time>2026-08-20T22:52:50.373000Z</time>
      </trkpt>
      <trkpt lat="39.8744996" lon="116.6674976">
        <ele>22.62292</ele>
        <time>2026-08-20T22:52:54.355000Z</time>
      </trkpt>
      <trkpt lat="39.8744024" lon="116.66752">
        <ele>22.45807</ele>
        <time>2026-08-20T22:52:58.336000Z</time>
      </trkpt>
      <trkpt lat="39.8743123" lon="116.667568">
        <ele>22.24641</ele>
        <time>2026-08-20T22:53:02.317000Z</time>
      </trkpt>
      <trkpt lat="39.8742243" lon="116.6676279">
        <ele>22.04478</ele>
        <time>2026-08-20T22:53:06.298000Z</time>
      </trkpt>
      <trkpt lat="39.8741408" lon="116.6676942">
        <ele>21.89911</ele>
        <time>2026-08-20T22:53:10.279000Z</time>
      </trkpt>
      <trkpt lat="39.8740523" lon="116.6677552">
        <ele>21.78859</ele>
        <time>2026-08-20T22:53:14.260000Z</time>
      </trkpt>
      <trkpt lat="39.8739575" lon="116.6677927">
        <ele>21.70765</ele>
        <time>2026-08-20T22:53:18.242000Z</time>
      </trkpt>
      <trkpt lat="39.8738598" lon="116.6678084">
        <ele>21.6851</ele>
        <time>2026-08-20T22:53:22.223000Z</time>
      </trkpt>
      <trkpt lat="39.8737589" lon="116.667813">
        <ele>21.69776</ele>
        <time>2026-08-20T22:53:26.204000Z</time>
      </trkpt>
      <trkpt lat="39.8736561" lon="116.6677973">
        <ele>21.7117</ele>
        <time>2026-08-20T22:53:30.185000Z</time>
      </trkpt>
      <trkpt lat="39.8735517" lon="116.6677753">
        <ele>21.73961</ele>
        <time>2026-08-20T22:53:34.166000Z</time>
      </trkpt>
      <trkpt lat="39.8734496" lon="116.6677533">
        <ele>21.75645</ele>
        <time>2026-08-20T22:53:38Z</time>
      </trkpt>
      <trkpt lat="39.8733473" lon="116.6677502">
        <ele>21.702</ele>
        <time>2026-08-20T22:53:42Z</time>
      </trkpt>
      <trkpt lat="39.8732527" lon="116.6677922">
        <ele>21.61377</ele>
        <time>2026-08-20T22:53:46Z</time>
      </trkpt>
      <trkpt lat="39.8731605" lon="116.6678451">
        <ele>21.57544</ele>
        <time>2026-08-20T22:53:50Z</time>
      </trkpt>
      <trkpt lat="39.8730608" lon="116.66787">
        <ele>21.6031</ele>
        <time>2026-08-20T22:53:54.072000Z</time>
      </trkpt>
      <trkpt lat="39.8729602" lon="116.667857">
        <ele>21.6434</ele>
        <time>2026-08-20T22:53:58Z</time>
      </trkpt>
      <trkpt lat="39.8728608" lon="116.667815">
        <ele>21.68192</ele>
        <time>2026-08-20T22:54:02Z</time>
      </trkpt>
      <trkpt lat="39.8727629" lon="116.6677675">
        <ele>21.73592</ele>
        <time>2026-08-20T22:54:06.015000Z</time>
      </trkpt>
      <trkpt lat="39.8726664" lon="116.6677317">
        <ele>21.83903</ele>
        <time>2026-08-20T22:54:09.996000Z</time>
      </trkpt>
      <trkpt lat="39.8725703" lon="116.6677173">
        <ele>21.99636</ele>
        <time>2026-08-20T22:54:13.978000Z</time>
      </trkpt>
      <trkpt lat="39.8724779" lon="116.6677216">
        <ele>22.13883</ele>
        <time>2026-08-20T22:54:17.959000Z</time>
      </trkpt>
      <trkpt lat="39.8723811" lon="116.6677386">
        <ele>22.19007</ele>
        <time>2026-08-20T22:54:21.940000Z</time>
      </trkpt>
      <trkpt lat="39.8722765" lon="116.6677382">
        <ele>22.12142</ele>
        <time>2026-08-20T22:54:25.921000Z</time>
      </trkpt>
      <trkpt lat="39.8721694" lon="116.6677303">
        <ele>21.93169</ele>
        <time>2026-08-20T22:54:29.902000Z</time>
      </trkpt>
      <trkpt lat="39.8720671" lon="116.6677097">
        <ele>21.64749</ele>
        <time>2026-08-20T22:54:33.883000Z</time>
      </trkpt>
      <trkpt lat="39.8719688" lon="116.6676826">
        <ele>21.32759</ele>
        <time>2026-08-20T22:54:37.865000Z</time>
      </trkpt>
      <trkpt lat="39.8718697" lon="116.667654">
        <ele>21.06633</ele>
        <time>2026-08-20T22:54:41.846000Z</time>
      </trkpt>
      <trkpt lat="39.8717729" lon="116.6676031">
        <ele>20.91759</ele>
        <time>2026-08-20T22:54:45.827000Z</time>
      </trkpt>
      <trkpt lat="39.8716748" lon="116.6675509">
        <ele>20.869</ele>
        <time>2026-08-20T22:54:49.808000Z</time>
      </trkpt>
      <trkpt lat="39.8715711" lon="116.6675218">
        <ele>20.89098</ele>
        <time>2026-08-20T22:54:53.789000Z</time>
      </trkpt>
      <trkpt lat="39.8714651" lon="116.6675105">
        <ele>20.92054</ele>
        <time>2026-08-20T22:54:57.770000Z</time>
      </trkpt>
      <trkpt lat="39.8713595" lon="116.6675136">
        <ele>20.9576</ele>
        <time>2026-08-20T22:55:01.752000Z</time>
      </trkpt>
      <trkpt lat="39.8712566" lon="116.6675275">
        <ele>20.97366</ele>
        <time>2026-08-20T22:55:05.733000Z</time>
      </trkpt>
      <trkpt lat="39.8711547" lon="116.6675408">
        <ele>20.92574</ele>
        <time>2026-08-20T22:55:09.714000Z</time>
      </trkpt>
      <trkpt lat="39.8710599" lon="116.6675699">
        <ele>20.878</ele>
        <time>2026-08-20T22:55:13.695000Z</time>
      </trkpt>
      <trkpt lat="39.8709929" lon="116.6676846">
        <ele>20.93877</ele>
        <time>2026-08-20T22:55:18.672000Z</time>
      </trkpt>
      <trkpt lat="39.870952" lon="116.6678062">
        <ele>21.0913</ele>
        <time>2026-08-20T22:55:22.653000Z</time>
      </trkpt>
      <trkpt lat="39.8708648" lon="116.6678722">
        <ele>21.27014</ele>
        <time>2026-08-20T22:55:26.634000Z</time>
      </trkpt>
      <trkpt lat="39.870758" lon="116.6678873">
        <ele>21.36503</ele>
        <time>2026-08-20T22:55:30.615000Z</time>
      </trkpt>
      <trkpt lat="39.8706534" lon="116.6678934">
        <ele>21.36767</ele>
        <time>2026-08-20T22:55:34.596000Z</time>
      </trkpt>
      <trkpt lat="39.8705481" lon="116.6678952">
        <ele>21.33486</ele>
        <time>2026-08-20T22:55:38.577000Z</time>
      </trkpt>
      <trkpt lat="39.870449" lon="116.6678812">
        <ele>21.31941</ele>
        <time>2026-08-20T22:55:42.559000Z</time>
      </trkpt>
      <trkpt lat="39.8703534" lon="116.6678388">
        <ele>21.32802</ele>
        <time>2026-08-20T22:55:46.540000Z</time>
      </trkpt>
      <trkpt lat="39.8702602" lon="116.6677885">
        <ele>21.32782</ele>
        <time>2026-08-20T22:55:50.521000Z</time>
      </trkpt>
      <trkpt lat="39.8701649" lon="116.6677781">
        <ele>21.30408</ele>
        <time>2026-08-20T22:55:54.502000Z</time>
      </trkpt>
      <trkpt lat="39.8700661" lon="116.667783">
        <ele>21.25748</ele>
        <time>2026-08-20T22:55:58.483000Z</time>
      </trkpt>
      <trkpt lat="39.8699645" lon="116.6677862">
        <ele>21.17944</ele>
        <time>2026-08-20T22:56:02.464000Z</time>
      </trkpt>
      <trkpt lat="39.8698619" lon="116.6677767">
        <ele>21.0871</ele>
        <time>2026-08-20T22:56:06.446000Z</time>
      </trkpt>
      <trkpt lat="39.8697591" lon="116.6677538">
        <ele>21.0085</ele>
        <time>2026-08-20T22:56:10.427000Z</time>
      </trkpt>
      <trkpt lat="39.8696552" lon="116.6677479">
        <ele>20.97528</ele>
        <time>2026-08-20T22:56:14.408000Z</time>
      </trkpt>
      <trkpt lat="39.86956" lon="116.6677848">
        <ele>20.9888</ele>
        <time>2026-08-20T22:56:18.389000Z</time>
      </trkpt>
      <trkpt lat="39.8694915" lon="116.6678702">
        <ele>21.02076</ele>
        <time>2026-08-20T22:56:22.370000Z</time>
      </trkpt>
      <trkpt lat="39.8694561" lon="116.6679907">
        <ele>21.05036</ele>
        <time>2026-08-20T22:56:26.351000Z</time>
      </trkpt>
      <trkpt lat="39.8694547" lon="116.6681223">
        <ele>21.1011</ele>
        <time>2026-08-20T22:56:30.333000Z</time>
      </trkpt>
      <trkpt lat="39.8694901" lon="116.6682453">
        <ele>21.17891</ele>
        <time>2026-08-20T22:56:34.314000Z</time>
      </trkpt>
      <trkpt lat="39.8695625" lon="116.6683333">
        <ele>21.2116</ele>
        <time>2026-08-20T22:56:38.295000Z</time>
      </trkpt>
      <trkpt lat="39.8696555" lon="116.668373">
        <ele>21.16616</ele>
        <time>2026-08-20T22:56:42.276000Z</time>
      </trkpt>
      <trkpt lat="39.8697504" lon="116.6683444">
        <ele>21.10891</ele>
        <time>2026-08-20T22:56:46.257000Z</time>
      </trkpt>
      <trkpt lat="39.8698453" lon="116.6683029">
        <ele>21.06974</ele>
        <time>2026-08-20T22:56:50.239000Z</time>
      </trkpt>
      <trkpt lat="39.869944" lon="116.6682891">
        <ele>21.02979</ele>
        <time>2026-08-20T22:56:54.220000Z</time>
      </trkpt>
      <trkpt lat="39.8700461" lon="116.6682966">
        <ele>20.9449</ele>
        <time>2026-08-20T22:56:58.201000Z</time>
      </trkpt>
      <trkpt lat="39.8701428" lon="116.6682923">
        <ele>20.81828</ele>
        <time>2026-08-20T22:57:02Z</time>
      </trkpt>
      <trkpt lat="39.8702373" lon="116.6682573">
        <ele>20.70142</ele>
        <time>2026-08-20T22:57:06Z</time>
      </trkpt>
      <trkpt lat="39.8703235" lon="116.6681973">
        <ele>20.59892</ele>
        <time>2026-08-20T22:57:10Z</time>
      </trkpt>
      <trkpt lat="39.8704104" lon="116.6681337">
        <ele>20.49798</ele>
        <time>2026-08-20T22:57:14Z</time>
      </trkpt>
      <trkpt lat="39.8705033" lon="116.6680911">
        <ele>20.3976</ele>
        <time>2026-08-20T22:57:18Z</time>
      </trkpt>
      <trkpt lat="39.8705997" lon="116.6680828">
        <ele>20.30481</ele>
        <time>2026-08-20T22:57:22Z</time>
      </trkpt>
      <trkpt lat="39.8706965" lon="116.6681035">
        <ele>20.21461</ele>
        <time>2026-08-20T22:57:26Z</time>
      </trkpt>
      <trkpt lat="39.870799" lon="116.6681327">
        <ele>20.14339</ele>
        <time>2026-08-20T22:57:30Z</time>
      </trkpt>
      <trkpt lat="39.8709041" lon="116.6681344">
        <ele>20.10986</ele>
        <time>2026-08-20T22:57:34Z</time>
      </trkpt>
      <trkpt lat="39.871008" lon="116.6681115">
        <ele>20.17703</ele>
        <time>2026-08-20T22:57:38.013000Z</time>
      </trkpt>
      <trkpt lat="39.8711051" lon="116.6680712">
        <ele>20.35563</ele>
        <time>2026-08-20T22:57:41.994000Z</time>
      </trkpt>
      <trkpt lat="39.8711906" lon="116.6680149">
        <ele>20.55585</ele>
        <time>2026-08-20T22:57:45.975000Z</time>
      </trkpt>
      <trkpt lat="39.871277" lon="116.6679596">
        <ele>20.65182</ele>
        <time>2026-08-20T22:57:49.957000Z</time>
      </trkpt>
      <trkpt lat="39.8713736" lon="116.667931">
        <ele>20.62775</ele>
        <time>2026-08-20T22:57:53.938000Z</time>
      </trkpt>
      <trkpt lat="39.8714769" lon="116.6679296">
        <ele>20.54156</ele>
        <time>2026-08-20T22:57:57.919000Z</time>
      </trkpt>
      <trkpt lat="39.8715792" lon="116.6679598">
        <ele>20.49057</ele>
        <time>2026-08-20T22:58:01.900000Z</time>
      </trkpt>
      <trkpt lat="39.8716719" lon="116.6680139">
        <ele>20.52948</ele>
        <time>2026-08-20T22:58:05.881000Z</time>
      </trkpt>
      <trkpt lat="39.8717583" lon="116.6680859">
        <ele>20.60924</ele>
        <time>2026-08-20T22:58:09.863000Z</time>
      </trkpt>
      <trkpt lat="39.8718515" lon="116.6681526">
        <ele>20.69687</ele>
        <time>2026-08-20T22:58:13.844000Z</time>
      </trkpt>
      <trkpt lat="39.8719476" lon="116.6681989">
        <ele>20.79839</ele>
        <time>2026-08-20T22:58:17.825000Z</time>
      </trkpt>
      <trkpt lat="39.8720465" lon="116.6682214">
        <ele>20.925</ele>
        <time>2026-08-20T22:58:21.806000Z</time>
      </trkpt>
      <trkpt lat="39.8721465" lon="116.66823">
        <ele>21.07127</ele>
        <time>2026-08-20T22:58:25.788000Z</time>
      </trkpt>
      <trkpt lat="39.8722454" lon="116.668239">
        <ele>21.22277</ele>
        <time>2026-08-20T22:58:29.769000Z</time>
      </trkpt>
      <trkpt lat="39.8723407" lon="116.6682719">
        <ele>21.36167</ele>
        <time>2026-08-20T22:58:33.750000Z</time>
      </trkpt>
      <trkpt lat="39.8724289" lon="116.6683345">
        <ele>21.48068</ele>
        <time>2026-08-20T22:58:37.731000Z</time>
      </trkpt>
      <trkpt lat="39.8725" lon="116.6684265">
        <ele>21.57237</ele>
        <time>2026-08-20T22:58:41.712000Z</time>
      </trkpt>
      <trkpt lat="39.8725555" lon="116.6685374">
        <ele>21.63645</ele>
        <time>2026-08-20T22:58:45.694000Z</time>
      </trkpt>
      <trkpt lat="39.8726025" lon="116.6686572">
        <ele>21.6924</ele>
        <time>2026-08-20T22:58:49.675000Z</time>
      </trkpt>
      <trkpt lat="39.8726269" lon="116.668787">
        <ele>21.74012</ele>
        <time>2026-08-20T22:58:53.656000Z</time>
      </trkpt>
      <trkpt lat="39.8726253" lon="116.6689176">
        <ele>21.76065</ele>
        <time>2026-08-20T22:58:57.637000Z</time>
      </trkpt>
      <trkpt lat="39.8725999" lon="116.6690459">
        <ele>21.76724</ele>
        <time>2026-08-20T22:59:01.618000Z</time>
      </trkpt>
      <trkpt lat="39.8725631" lon="116.6691766">
        <ele>21.76122</ele>
        <time>2026-08-20T22:59:05.600000Z</time>
      </trkpt>
      <trkpt lat="39.8725305" lon="116.6693094">
        <ele>21.71248</ele>
        <time>2026-08-20T22:59:09.581000Z</time>
      </trkpt>
      <trkpt lat="39.8725072" lon="116.6694422">
        <ele>21.62277</ele>
        <time>2026-08-20T22:59:13.562000Z</time>
      </trkpt>
      <trkpt lat="39.8724979" lon="116.6695722">
        <ele>21.5323</ele>
        <time>2026-08-20T22:59:17.543000Z</time>
      </trkpt>
      <trkpt lat="39.8725095" lon="116.669699">
        <ele>21.44313</ele>
        <time>2026-08-20T22:59:21.524000Z</time>
      </trkpt>
      <trkpt lat="39.8725481" lon="116.6698143">
        <ele>21.33049</ele>
        <time>2026-08-20T22:59:25.506000Z</time>
      </trkpt>
      <trkpt lat="39.872615" lon="116.669909">
        <ele>21.19308</ele>
        <time>2026-08-20T22:59:29.487000Z</time>
      </trkpt>
      <trkpt lat="39.8726975" lon="116.6699808">
        <ele>21.03623</ele>
        <time>2026-08-20T22:59:33.468000Z</time>
      </trkpt>
      <trkpt lat="39.8727896" lon="116.670028">
        <ele>20.89682</ele>
        <time>2026-08-20T22:59:37.449000Z</time>
      </trkpt>
      <trkpt lat="39.8728854" lon="116.6700598">
        <ele>20.81091</ele>
        <time>2026-08-20T22:59:41.431000Z</time>
      </trkpt>
      <trkpt lat="39.8729849" lon="116.6700779">
        <ele>20.78212</ele>
        <time>2026-08-20T22:59:45.412000Z</time>
      </trkpt>
      <trkpt lat="39.873087" lon="116.670073">
        <ele>20.81403</ele>
        <time>2026-08-20T22:59:49.393000Z</time>
      </trkpt>
      <trkpt lat="39.873187" lon="116.6700528">
        <ele>20.88268</ele>
        <time>2026-08-20T22:59:53.374000Z</time>
      </trkpt>
      <trkpt lat="39.8732828" lon="116.6700261">
        <ele>20.95041</ele>
        <time>2026-08-20T22:59:57.355000Z</time>
      </trkpt>
      <trkpt lat="39.873377" lon="116.6699862">
        <ele>21.00112</ele>
        <time>2026-08-20T23:00:01.337000Z</time>
      </trkpt>
      <trkpt lat="39.8734634" lon="116.6699315">
        <ele>21.02779</ele>
        <time>2026-08-20T23:00:05.318000Z</time>
      </trkpt>
      <trkpt lat="39.8735454" lon="116.6698728">
        <ele>21.025</ele>
        <time>2026-08-20T23:00:09.299000Z</time>
      </trkpt>
      <trkpt lat="39.8736263" lon="116.6698131">
        <ele>21.01701</ele>
        <time>2026-08-20T23:00:13.280000Z</time>
      </trkpt>
      <trkpt lat="39.8737126" lon="116.6697615">
        <ele>21.02713</ele>
        <time>2026-08-20T23:00:17.261000Z</time>
      </trkpt>
      <trkpt lat="39.8738102" lon="116.6697443">
        <ele>21.0715</ele>
        <time>2026-08-20T23:00:21.243000Z</time>
      </trkpt>
      <trkpt lat="39.8739054" lon="116.6697607">
        <ele>21.14515</ele>
        <time>2026-08-20T23:00:25.224000Z</time>
      </trkpt>
      <trkpt lat="39.8739996" lon="116.6697883">
        <ele>21.20059</ele>
        <time>2026-08-20T23:00:29.205000Z</time>
      </trkpt>
      <trkpt lat="39.8740955" lon="116.6698053">
        <ele>21.20625</ele>
        <time>2026-08-20T23:00:33Z</time>
      </trkpt>
      <trkpt lat="39.8741971" lon="116.669803">
        <ele>21.18627</ele>
        <time>2026-08-20T23:00:37Z</time>
      </trkpt>
      <trkpt lat="39.8742921" lon="116.6697502">
        <ele>21.1799</ele>
        <time>2026-08-20T23:00:41.149000Z</time>
      </trkpt>
      <trkpt lat="39.8743682" lon="116.6696641">
        <ele>21.27998</ele>
        <time>2026-08-20T23:00:45.130000Z</time>
      </trkpt>
      <trkpt lat="39.8744403" lon="116.6695688">
        <ele>21.51538</ele>
        <time>2026-08-20T23:00:49.111000Z</time>
      </trkpt>
      <trkpt lat="39.8745219" lon="116.6694918">
        <ele>21.8437</ele>
        <time>2026-08-20T23:00:53.092000Z</time>
      </trkpt>
      <trkpt lat="39.8746194" lon="116.6694631">
        <ele>22.1678</ele>
        <time>2026-08-20T23:00:57.074000Z</time>
      </trkpt>
      <trkpt lat="39.8747215" lon="116.6694831">
        <ele>22.40246</ele>
        <time>2026-08-20T23:01:01.055000Z</time>
      </trkpt>
      <trkpt lat="39.8748214" lon="116.6695337">
        <ele>22.55206</ele>
        <time>2026-08-20T23:01:05.036000Z</time>
      </trkpt>
      <trkpt lat="39.8749162" lon="116.6695947">
        <ele>22.66962</ele>
        <time>2026-08-20T23:01:09.017000Z</time>
      </trkpt>
      <trkpt lat="39.8750094" lon="116.6696554">
        <ele>22.77312</ele>
        <time>2026-08-20T23:01:12.999000Z</time>
      </trkpt>
      <trkpt lat="39.8751071" lon="116.669682">
        <ele>22.88272</ele>
        <time>2026-08-20T23:01:16.980000Z</time>
      </trkpt>
      <trkpt lat="39.8751996" lon="116.6696422">
        <ele>23.00681</ele>
        <time>2026-08-20T23:01:20.961000Z</time>
      </trkpt>
      <trkpt lat="39.8752797" lon="116.6695703">
        <ele>23.11399</ele>
        <time>2026-08-20T23:01:24.942000Z</time>
      </trkpt>
      <trkpt lat="39.8753711" lon="116.6695207">
        <ele>23.17992</ele>
        <time>2026-08-20T23:01:28.923000Z</time>
      </trkpt>
      <trkpt lat="39.8754704" lon="116.6694913">
        <ele>23.20216</ele>
        <time>2026-08-20T23:01:32.905000Z</time>
      </trkpt>
      <trkpt lat="39.8755576" lon="116.6694282">
        <ele>23.16306</ele>
        <time>2026-08-20T23:01:36.886000Z</time>
      </trkpt>
      <trkpt lat="39.8756196" lon="116.669331">
        <ele>23.10515</ele>
        <time>2026-08-20T23:01:40.867000Z</time>
      </trkpt>
      <trkpt lat="39.8756449" lon="116.669211">
        <ele>23.07603</ele>
        <time>2026-08-20T23:01:44.848000Z</time>
      </trkpt>
      <trkpt lat="39.8756378" lon="116.6690804">
        <ele>23.06944</ele>
        <time>2026-08-20T23:01:48.830000Z</time>
      </trkpt>
      <trkpt lat="39.8756072" lon="116.6689489">
        <ele>23.04217</ele>
        <time>2026-08-20T23:01:52.811000Z</time>
      </trkpt>
      <trkpt lat="39.8755581" lon="116.6688283">
        <ele>23.00538</ele>
        <time>2026-08-20T23:01:56.792000Z</time>
      </trkpt>
      <trkpt lat="39.8754924" lon="116.6687228">
        <ele>22.95358</ele>
        <time>2026-08-20T23:02:00.773000Z</time>
      </trkpt>
      <trkpt lat="39.8754172" lon="116.6686313">
        <ele>22.89717</ele>
        <time>2026-08-20T23:02:04.755000Z</time>
      </trkpt>
      <trkpt lat="39.8753478" lon="116.6685377">
        <ele>22.85489</ele>
        <time>2026-08-20T23:02:08.736000Z</time>
      </trkpt>
      <trkpt lat="39.8753113" lon="116.6684156">
        <ele>22.86159</ele>
        <time>2026-08-20T23:02:12.717000Z</time>
      </trkpt>
      <trkpt lat="39.8752848" lon="116.6682862">
        <ele>22.91848</ele>
        <time>2026-08-20T23:02:16.698000Z</time>
      </trkpt>
      <trkpt lat="39.8752563" lon="116.668155">
        <ele>23.0117</ele>
        <time>2026-08-20T23:02:20.680000Z</time>
      </trkpt>
      <trkpt lat="39.8752152" lon="116.6680252">
        <ele>23.11537</ele>
        <time>2026-08-20T23:02:24.661000Z</time>
      </trkpt>
      <trkpt lat="39.8751617" lon="116.6678983">
        <ele>23.17631</ele>
        <time>2026-08-20T23:02:28.642000Z</time>
      </trkpt>
      <trkpt lat="39.8750977" lon="116.66778">
        <ele>23.16182</ele>
        <time>2026-08-20T23:02:32.623000Z</time>
      </trkpt>
      <trkpt lat="39.8750184" lon="116.6676864">
        <ele>23.07198</ele>
        <time>2026-08-20T23:02:36.605000Z</time>
      </trkpt>
      <trkpt lat="39.8749234" lon="116.6676181">
        <ele>22.94237</ele>
        <time>2026-08-20T23:02:40.586000Z</time>
      </trkpt>
      <trkpt lat="39.8748184" lon="116.6675692">
        <ele>22.8099</ele>
        <time>2026-08-20T23:02:44.567000Z</time>
      </trkpt>
      <trkpt lat="39.8747111" lon="116.6675313">
        <ele>22.684</ele>
        <time>2026-08-20T23:02:48.548000Z</time>
      </trkpt>
      <trkpt lat="39.8746051" lon="116.667507">
        <ele>22.5638</ele>
        <time>2026-08-20T23:02:52.530000Z</time>
      </trkpt>
      <trkpt lat="39.8744946" lon="116.6675015">
        <ele>22.43475</ele>
        <time>2026-08-20T23:02:56.511000Z</time>
      </trkpt>
      <trkpt lat="39.8743882" lon="116.6675234">
        <ele>22.28228</ele>
        <time>2026-08-20T23:03:00.492000Z</time>
      </trkpt>
      <trkpt lat="39.874288" lon="116.6675719">
        <ele>22.12606</ele>
        <time>2026-08-20T23:03:04.473000Z</time>
      </trkpt>
      <trkpt lat="39.8741924" lon="116.6676364">
        <ele>21.97936</ele>
        <time>2026-08-20T23:03:08.455000Z</time>
      </trkpt>
      <trkpt lat="39.8740965" lon="116.667702">
        <ele>21.84291</ele>
        <time>2026-08-20T23:03:12.436000Z</time>
      </trkpt>
      <trkpt lat="39.8739945" lon="116.6677605">
        <ele>21.73798</ele>
        <time>2026-08-20T23:03:16.417000Z</time>
      </trkpt>
      <trkpt lat="39.8738854" lon="116.6677953">
        <ele>21.66902</ele>
        <time>2026-08-20T23:03:20.398000Z</time>
      </trkpt>
      <trkpt lat="39.8737734" lon="116.6678004">
        <ele>21.61762</ele>
        <time>2026-08-20T23:03:24.380000Z</time>
      </trkpt>
      <trkpt lat="39.8736604" lon="116.6677842">
        <ele>21.57409</ele>
        <time>2026-08-20T23:03:28.361000Z</time>
      </trkpt>
      <trkpt lat="39.8735466" lon="116.6677586">
        <ele>21.56654</ele>
        <time>2026-08-20T23:03:32.342000Z</time>
      </trkpt>
      <trkpt lat="39.8734306" lon="116.6677389">
        <ele>21.61552</ele>
        <time>2026-08-20T23:03:36.323000Z</time>
      </trkpt>
      <trkpt lat="39.8733194" lon="116.6677609">
        <ele>21.69765</ele>
        <time>2026-08-20T23:03:40.305000Z</time>
      </trkpt>
      <trkpt lat="39.8732149" lon="116.6678127">
        <ele>21.76742</ele>
        <time>2026-08-20T23:03:44.286000Z</time>
      </trkpt>
      <trkpt lat="39.8731048" lon="116.6678538">
        <ele>21.79108</ele>
        <time>2026-08-20T23:03:48.267000Z</time>
      </trkpt>
      <trkpt lat="39.8729893" lon="116.6678615">
        <ele>21.77951</ele>
        <time>2026-08-20T23:03:52.248000Z</time>
      </trkpt>
      <trkpt lat="39.8728758" lon="116.6678422">
        <ele>21.75537</ele>
        <time>2026-08-20T23:03:56.230000Z</time>
      </trkpt>
      <trkpt lat="39.872766" lon="116.6678226">
        <ele>21.69891</ele>
        <time>2026-08-20T23:04:00.211000Z</time>
      </trkpt>
      <trkpt lat="39.872664" lon="116.6678478">
        <ele>21.62253</ele>
        <time>2026-08-20T23:04:04.192000Z</time>
      </trkpt>
      <trkpt lat="39.8725749" lon="116.6679233">
        <ele>21.58301</ele>
        <time>2026-08-20T23:04:08.174000Z</time>
      </trkpt>
      <trkpt lat="39.8725248" lon="116.6680258">
        <ele>21.58523</ele>
        <time>2026-08-20T23:04:12Z</time>
      </trkpt>
      <trkpt lat="39.8725271" lon="116.6681612">
        <ele>21.61719</ele>
        <time>2026-08-20T23:04:16Z</time>
      </trkpt>
      <trkpt lat="39.8725301" lon="116.6682982">
        <ele>21.67443</ele>
        <time>2026-08-20T23:04:20Z</time>
      </trkpt>
      <trkpt lat="39.8725208" lon="116.6684329">
        <ele>21.73616</ele>
        <time>2026-08-20T23:04:24.099000Z</time>
      </trkpt>
      <trkpt lat="39.8725583" lon="116.66856">
        <ele>21.7398</ele>
        <time>2026-08-20T23:04:28Z</time>
      </trkpt>
      <trkpt lat="39.8726073" lon="116.668695">
        <ele>21.64672</ele>
        <time>2026-08-20T23:04:32Z</time>
      </trkpt>
      <trkpt lat="39.8726285" lon="116.6688367">
        <ele>21.52027</ele>
        <time>2026-08-20T23:04:36Z</time>
      </trkpt>
      <trkpt lat="39.8726185" lon="116.6689849">
        <ele>21.4433</ele>
        <time>2026-08-20T23:04:40Z</time>
      </trkpt>
      <trkpt lat="39.8725853" lon="116.6691335">
        <ele>21.41185</ele>
        <time>2026-08-20T23:04:44Z</time>
      </trkpt>
      <trkpt lat="39.8725479" lon="116.669272">
        <ele>21.41203</ele>
        <time>2026-08-20T23:04:47.986000Z</time>
      </trkpt>
      <trkpt lat="39.8725239" lon="116.6694133">
        <ele>21.41812</ele>
        <time>2026-08-20T23:04:51.967000Z</time>
      </trkpt>
      <trkpt lat="39.8725202" lon="116.6695624">
        <ele>21.41089</ele>
        <time>2026-08-20T23:04:55.949000Z</time>
      </trkpt>
      <trkpt lat="39.8725361" lon="116.6697101">
        <ele>21.34071</ele>
        <time>2026-08-20T23:04:59.930000Z</time>
      </trkpt>
      <trkpt lat="39.8725737" lon="116.6698503">
        <ele>21.20108</ele>
        <time>2026-08-20T23:05:03.911000Z</time>
      </trkpt>
      <trkpt lat="39.8726379" lon="116.6699691">
        <ele>21.05544</ele>
        <time>2026-08-20T23:05:07.892000Z</time>
      </trkpt>
      <trkpt lat="39.872722" lon="116.670057">
        <ele>20.94862</ele>
        <time>2026-08-20T23:05:11.874000Z</time>
      </trkpt>
      <trkpt lat="39.8728205" lon="116.6701074">
        <ele>20.87591</ele>
        <time>2026-08-20T23:05:15.855000Z</time>
      </trkpt>
      <trkpt lat="39.8729277" lon="116.6701347">
        <ele>20.82021</ele>
        <time>2026-08-20T23:05:19.836000Z</time>
      </trkpt>
      <trkpt lat="39.8730432" lon="116.6701379">
        <ele>20.77242</ele>
        <time>2026-08-20T23:05:23.817000Z</time>
      </trkpt>
      <trkpt lat="39.8731604" lon="116.6701205">
        <ele>20.73815</ele>
        <time>2026-08-20T23:05:27.799000Z</time>
      </trkpt>
      <trkpt lat="39.8732741" lon="116.6700841">
        <ele>20.71508</ele>
        <time>2026-08-20T23:05:31.780000Z</time>
      </trkpt>
      <trkpt lat="39.8733844" lon="116.6700278">
        <ele>20.6756</ele>
        <time>2026-08-20T23:05:35.761000Z</time>
      </trkpt>
      <trkpt lat="39.873463" lon="116.6699646">
        <ele>20.63078</ele>
        <time>2026-08-20T23:05:38.747000Z</time>
      </trkpt>
      <trkpt lat="39.8735372" lon="116.6698906">
        <ele>20.60026</ele>
        <time>2026-08-20T23:05:41.733000Z</time>
      </trkpt>
      <trkpt lat="39.8736348" lon="116.6698021">
        <ele>20.61435</ele>
        <time>2026-08-20T23:05:45.714000Z</time>
      </trkpt>
      <trkpt lat="39.8737481" lon="116.6697528">
        <ele>20.68807</ele>
        <time>2026-08-20T23:05:49.695000Z</time>
      </trkpt>
      <trkpt lat="39.8738395" lon="116.6697425">
        <ele>20.7968</ele>
        <time>2026-08-20T23:05:52.681000Z</time>
      </trkpt>
      <trkpt lat="39.8739305" lon="116.6697478">
        <ele>20.95703</ele>
        <time>2026-08-20T23:05:55.667000Z</time>
      </trkpt>
      <trkpt lat="39.874022" lon="116.6697671">
        <ele>21.14417</ele>
        <time>2026-08-20T23:05:58.653000Z</time>
      </trkpt>
      <trkpt lat="39.8741174" lon="116.6697774">
        <ele>21.32995</ele>
        <time>2026-08-20T23:06:01.639000Z</time>
      </trkpt>
      <trkpt lat="39.8742121" lon="116.6697661">
        <ele>21.51242</ele>
        <time>2026-08-20T23:06:04.625000Z</time>
      </trkpt>
      <trkpt lat="39.8742988" lon="116.6697234">
        <ele>21.69563</ele>
        <time>2026-08-20T23:06:07.611000Z</time>
      </trkpt>
      <trkpt lat="39.8743791" lon="116.6696569">
        <ele>21.88424</ele>
        <time>2026-08-20T23:06:10.597000Z</time>
      </trkpt>
      <trkpt lat="39.874455" lon="116.6695785">
        <ele>22.09022</ele>
        <time>2026-08-20T23:06:13.583000Z</time>
      </trkpt>
      <trkpt lat="39.8745364" lon="116.6695164">
        <ele>22.3051</ele>
        <time>2026-08-20T23:06:16.569000Z</time>
      </trkpt>
      <trkpt lat="39.8746282" lon="116.6694891">
        <ele>22.50629</ele>
        <time>2026-08-20T23:06:19.555000Z</time>
      </trkpt>
      <trkpt lat="39.874721" lon="116.6694961">
        <ele>22.69022</ele>
        <time>2026-08-20T23:06:22.541000Z</time>
      </trkpt>
      <trkpt lat="39.8748107" lon="116.6695328">
        <ele>22.84795</ele>
        <time>2026-08-20T23:06:25.527000Z</time>
      </trkpt>
      <trkpt lat="39.8748951" lon="116.6695897">
        <ele>22.95784</ele>
        <time>2026-08-20T23:06:28.513000Z</time>
      </trkpt>
      <trkpt lat="39.8749787" lon="116.6696499">
        <ele>23.0202</ele>
        <time>2026-08-20T23:06:31.498000Z</time>
      </trkpt>
      <trkpt lat="39.8750876" lon="116.6696968">
        <ele>23.05215</ele>
        <time>2026-08-20T23:06:35.480000Z</time>
      </trkpt>
      <trkpt lat="39.8751888" lon="116.6696599">
        <ele>23.04549</ele>
        <time>2026-08-20T23:06:39.461000Z</time>
      </trkpt>
      <trkpt lat="39.8752816" lon="116.6695776">
        <ele>23.06733</ele>
        <time>2026-08-20T23:06:43.442000Z</time>
      </trkpt>
      <trkpt lat="39.8753925" lon="116.6695289">
        <ele>23.11613</ele>
        <time>2026-08-20T23:06:47.423000Z</time>
      </trkpt>
      <trkpt lat="39.875481" lon="116.6695011">
        <ele>23.12731</ele>
        <time>2026-08-20T23:06:50.409000Z</time>
      </trkpt>
      <trkpt lat="39.8755839" lon="116.6694237">
        <ele>23.11276</ele>
        <time>2026-08-20T23:06:54.390000Z</time>
      </trkpt>
      <trkpt lat="39.8756509" lon="116.6693002">
        <ele>23.11759</ele>
        <time>2026-08-20T23:06:58.372000Z</time>
      </trkpt>
      <trkpt lat="39.8756707" lon="116.6691549">
        <ele>23.14913</ele>
        <time>2026-08-20T23:07:02.353000Z</time>
      </trkpt>
      <trkpt lat="39.8756431" lon="116.6690126">
        <ele>23.16168</ele>
        <time>2026-08-20T23:07:06.334000Z</time>
      </trkpt>
      <trkpt lat="39.8755845" lon="116.66889">
        <ele>23.12016</ele>
        <time>2026-08-20T23:07:10.315000Z</time>
      </trkpt>
      <trkpt lat="39.8755009" lon="116.6687823">
        <ele>23.06271</ele>
        <time>2026-08-20T23:07:14.297000Z</time>
      </trkpt>
      <trkpt lat="39.8754324" lon="116.6687059">
        <ele>22.98827</ele>
        <time>2026-08-20T23:07:17.282000Z</time>
      </trkpt>
      <trkpt lat="39.875373" lon="116.6686176">
        <ele>22.8882</ele>
        <time>2026-08-20T23:07:20.268000Z</time>
      </trkpt>
      <trkpt lat="39.8753316" lon="116.6685078">
        <ele>22.78732</ele>
        <time>2026-08-20T23:07:23.254000Z</time>
      </trkpt>
      <trkpt lat="39.8753088" lon="116.6683868">
        <ele>22.70963</ele>
        <time>2026-08-20T23:07:26.240000Z</time>
      </trkpt>
      <trkpt lat="39.8752929" lon="116.6682697">
        <ele>22.65829</ele>
        <time>2026-08-20T23:07:29.226000Z</time>
      </trkpt>
      <trkpt lat="39.8752986" lon="116.6681313">
        <ele>22.60348</ele>
        <time>2026-08-20T23:07:33.207000Z</time>
      </trkpt>
      <trkpt lat="39.8753799" lon="116.668072">
        <ele>22.57003</ele>
        <time>2026-08-20T23:07:37.189000Z</time>
      </trkpt>
      <trkpt lat="39.8754861" lon="116.6681037">
        <ele>22.6697</ele>
        <time>2026-08-20T23:07:41Z</time>
      </trkpt>
      <trkpt lat="39.8755923" lon="116.6681209">
        <ele>23.02815</ele>
        <time>2026-08-20T23:07:45Z</time>
      </trkpt>
      <trkpt lat="39.8756584" lon="116.6680091">
        <ele>23.5305</ele>
        <time>2026-08-20T23:07:50Z</time>
      </trkpt>
      <trkpt lat="39.8756148" lon="116.667893">
        <ele>23.72577</ele>
        <time>2026-08-20T23:07:54Z</time>
      </trkpt>
      <trkpt lat="39.8755388" lon="116.6677951">
        <ele>23.72445</ele>
        <time>2026-08-20T23:07:58Z</time>
      </trkpt>
    </trkseg>
  </trk>
</gpx>