<?xml version="1.0" encoding="UTF-8"?>
<gpx xmlns="http://www.topografix.com/GPX/1/1" xmlns:gpxtpx="http://www.garmin.com/xmlschemas/TrackPointExtension/v1" xmlns:xsi="http://www.w3.org/2001/XMLSchema-instance" xsi:schemaLocation="http://www.topografix.com/GPX/1/1 http://www.topografix.com/GPX/1/1/gpx.xsd" version="1.1" creator="gpx.py -- https://github.com/tkrajina/gpxpy">
  <trk>
    <name>gpx from codoon</name>
    <type>Run</type>
    <trkseg>
      <trkpt lat="39.8734802" lon="116.6658829">
        <ele>22.24931</ele>
        <time>2026-08-22T22:16:15.002000Z</time>
      </trkpt>
      <trkpt lat="39.8735782" lon="116.6658478">
        <ele>22.27111</ele>
        <time>2026-08-22T22:16:22.550000Z</time>
      </trkpt>
      <trkpt lat="39.8736598" lon="116.6657889">
        <ele>22.31679</ele>
        <time>2026-08-22T22:16:27.527000Z</time>
      </trkpt>
      <trkpt lat="39.873756" lon="116.6657211">
        <ele>22.45715</ele>
        <time>2026-08-22T22:16:32.503000Z</time>
      </trkpt>
      <trkpt lat="39.8738384" lon="116.6656631">
        <ele>22.63454</ele>
        <time>2026-08-22T22:16:36.485000Z</time>
      </trkpt>
      <trkpt lat="39.8739206" lon="116.6656051">
        <ele>22.87145</ele>
        <time>2026-08-22T22:16:40.466000Z</time>
      </trkpt>
      <trkpt lat="39.8740045" lon="116.6655555">
        <ele>23.17188</ele>
        <time>2026-08-22T22:16:44.447000Z</time>
      </trkpt>
      <trkpt lat="39.8740904" lon="116.6655122">
        <ele>23.50168</ele>
        <time>2026-08-22T22:16:48.429000Z</time>
      </trkpt>
      <trkpt lat="39.8741793" lon="116.6654677">
        <ele>23.7493</ele>
        <time>2026-08-22T22:16:52.410000Z</time>
      </trkpt>
      <trkpt lat="39.8742704" lon="116.6654315">
        <ele>23.87298</ele>
        <time>2026-08-22T22:16:56.392000Z</time>
      </trkpt>
      <trkpt lat="39.8743639" lon="116.665406">
        <ele>23.89437</ele>
        <time>2026-08-22T22:17:00.373000Z</time>
      </trkpt>
      <trkpt lat="39.8744672" lon="116.6654438">
        <ele>23.80498</ele>
        <time>2026-08-22T22:17:05.350000Z</time>
      </trkpt>
      <trkpt lat="39.8745169" lon="116.6655501">
        <ele>23.64025</ele>
        <time>2026-08-22T22:17:09.331000Z</time>
      </trkpt>
      <trkpt lat="39.8745561" lon="116.6656585">
        <ele>23.40577</ele>
        <time>2026-08-22T22:17:13.313000Z</time>
      </trkpt>
      <trkpt lat="39.8745944" lon="116.6657709">
        <ele>23.15726</ele>
        <time>2026-08-22T22:17:17.294000Z</time>
      </trkpt>
      <trkpt lat="39.874634" lon="116.6658855">
        <ele>22.93213</ele>
        <time>2026-08-22T22:17:21.276000Z</time>
      </trkpt>
      <trkpt lat="39.8746732" lon="116.6659921">
        <ele>22.76922</ele>
        <time>2026-08-22T22:17:25.257000Z</time>
      </trkpt>
      <trkpt lat="39.8747154" lon="116.666099">
        <ele>22.67802</ele>
        <time>2026-08-22T22:17:29.239000Z</time>
      </trkpt>
      <trkpt lat="39.8747651" lon="116.6661989">
        <ele>22.62904</ele>
        <time>2026-08-22T22:17:33.220000Z</time>
      </trkpt>
      <trkpt lat="39.8748255" lon="116.6663215">
        <ele>22.59622</ele>
        <time>2026-08-22T22:17:38.197000Z</time>
      </trkpt>
      <trkpt lat="39.8748777" lon="116.6664177">
        <ele>22.65582</ele>
        <time>2026-08-22T22:17:42.178000Z</time>
      </trkpt>
      <trkpt lat="39.8749425" lon="116.6665348">
        <ele>22.98031</ele>
        <time>2026-08-22T22:17:47.155000Z</time>
      </trkpt>
      <trkpt lat="39.8749984" lon="116.6666268">
        <ele>23.51766</ele>
        <time>2026-08-22T22:17:51.137000Z</time>
      </trkpt>
      <trkpt lat="39.8750589" lon="116.6667157">
        <ele>24.25294</ele>
        <time>2026-08-22T22:17:55.118000Z</time>
      </trkpt>
      <trkpt lat="39.8751335" lon="116.6668181">
        <ele>24.94417</ele>
        <time>2026-08-22T22:18:00Z</time>
      </trkpt>
      <trkpt lat="39.8752107" lon="116.6669222">
        <ele>25.08051</ele>
        <time>2026-08-22T22:18:05Z</time>
      </trkpt>
      <trkpt lat="39.8752725" lon="116.6670092">
        <ele>25.10908</ele>
        <time>2026-08-22T22:18:09Z</time>
      </trkpt>
      <trkpt lat="39.8753484" lon="116.6671178">
        <ele>25.16544</ele>
        <time>2026-08-22T22:18:14Z</time>
      </trkpt>
      <trkpt lat="39.8754121" lon="116.6672047">
        <ele>25.03223</ele>
        <time>2026-08-22T22:18:18Z</time>
      </trkpt>
      <trkpt lat="39.8754841" lon="116.6673078">
        <ele>24.43601</ele>
        <time>2026-08-22T22:18:22.988000Z</time>
      </trkpt>
      <trkpt lat="39.8755497" lon="116.6674147">
        <ele>23.8339</ele>
        <time>2026-08-22T22:18:27.965000Z</time>
      </trkpt>
      <trkpt lat="39.8756161" lon="116.6675254">
        <ele>23.43788</ele>
        <time>2026-08-22T22:18:32.942000Z</time>
      </trkpt>
      <trkpt lat="39.8756835" lon="116.6676397">
        <ele>23.20383</ele>
        <time>2026-08-22T22:18:37.918000Z</time>
      </trkpt>
      <trkpt lat="39.8757575" lon="116.6677429">
        <ele>23.11314</ele>
        <time>2026-08-22T22:18:42.895000Z</time>
      </trkpt>
      <trkpt lat="39.8757897" lon="116.6678594">
        <ele>23.10702</ele>
        <time>2026-08-22T22:18:48.867000Z</time>
      </trkpt>
      <trkpt lat="39.8757056" lon="116.6679321">
        <ele>23.10747</ele>
        <time>2026-08-22T22:18:53.844000Z</time>
      </trkpt>
      <trkpt lat="39.8756605" lon="116.6680572">
        <ele>23.11388</ele>
        <time>2026-08-22T22:18:58.821000Z</time>
      </trkpt>
      <trkpt lat="39.875576" lon="116.6681207">
        <ele>23.10414</ele>
        <time>2026-08-22T22:19:03.797000Z</time>
      </trkpt>
      <trkpt lat="39.8754846" lon="116.6680902">
        <ele>23.06932</ele>
        <time>2026-08-22T22:19:07.779000Z</time>
      </trkpt>
      <trkpt lat="39.8753964" lon="116.6680461">
        <ele>23.06539</ele>
        <time>2026-08-22T22:19:11.760000Z</time>
      </trkpt>
      <trkpt lat="39.8753098" lon="116.6680129">
        <ele>23.10537</ele>
        <time>2026-08-22T22:19:15.741000Z</time>
      </trkpt>
      <trkpt lat="39.8752146" lon="116.6679453">
        <ele>23.11711</ele>
        <time>2026-08-22T22:19:20.718000Z</time>
      </trkpt>
      <trkpt lat="39.8751538" lon="116.6678285">
        <ele>23.0257</ele>
        <time>2026-08-22T22:19:25.695000Z</time>
      </trkpt>
      <trkpt lat="39.8750995" lon="116.6677342">
        <ele>22.91884</ele>
        <time>2026-08-22T22:19:29.676000Z</time>
      </trkpt>
      <trkpt lat="39.8750341" lon="116.6676524">
        <ele>22.83593</ele>
        <time>2026-08-22T22:19:33.658000Z</time>
      </trkpt>
      <trkpt lat="39.8749362" lon="116.6675844">
        <ele>22.77457</ele>
        <time>2026-08-22T22:19:38.634000Z</time>
      </trkpt>
      <trkpt lat="39.8748338" lon="116.6675481">
        <ele>22.71484</ele>
        <time>2026-08-22T22:19:43.611000Z</time>
      </trkpt>
      <trkpt lat="39.874731" lon="116.6675174">
        <ele>22.63584</ele>
        <time>2026-08-22T22:19:48.588000Z</time>
      </trkpt>
      <trkpt lat="39.8746228" lon="116.6674913">
        <ele>22.57455</ele>
        <time>2026-08-22T22:19:53.564000Z</time>
      </trkpt>
      <trkpt lat="39.8745168" lon="116.6674974">
        <ele>22.52818</ele>
        <time>2026-08-22T22:19:58.541000Z</time>
      </trkpt>
      <trkpt lat="39.8744128" lon="116.6675256">
        <ele>22.44788</ele>
        <time>2026-08-22T22:20:03.518000Z</time>
      </trkpt>
      <trkpt lat="39.8743073" lon="116.6675649">
        <ele>22.31932</ele>
        <time>2026-08-22T22:20:08.495000Z</time>
      </trkpt>
      <trkpt lat="39.874209" lon="116.6676243">
        <ele>22.15484</ele>
        <time>2026-08-22T22:20:13.471000Z</time>
      </trkpt>
      <trkpt lat="39.8741155" lon="116.6676937">
        <ele>22.0109</ele>
        <time>2026-08-22T22:20:18.448000Z</time>
      </trkpt>
      <trkpt lat="39.8740201" lon="116.667761">
        <ele>21.88354</ele>
        <time>2026-08-22T22:20:23.425000Z</time>
      </trkpt>
      <trkpt lat="39.8739147" lon="116.6677993">
        <ele>21.79626</ele>
        <time>2026-08-22T22:20:28.401000Z</time>
      </trkpt>
      <trkpt lat="39.8738045" lon="116.6678079">
        <ele>21.77239</ele>
        <time>2026-08-22T22:20:33.378000Z</time>
      </trkpt>
      <trkpt lat="39.8736968" lon="116.6678001">
        <ele>21.82022</ele>
        <time>2026-08-22T22:20:38.355000Z</time>
      </trkpt>
      <trkpt lat="39.873591" lon="116.667769">
        <ele>21.89578</ele>
        <time>2026-08-22T22:20:43.331000Z</time>
      </trkpt>
      <trkpt lat="39.873483" lon="116.6677397">
        <ele>21.9996</ele>
        <time>2026-08-22T22:20:48.308000Z</time>
      </trkpt>
      <trkpt lat="39.8733727" lon="116.6677372">
        <ele>22.13407</ele>
        <time>2026-08-22T22:20:53.285000Z</time>
      </trkpt>
      <trkpt lat="39.8732691" lon="116.6677772">
        <ele>22.25978</ele>
        <time>2026-08-22T22:20:58.261000Z</time>
      </trkpt>
      <trkpt lat="39.8731719" lon="116.6678415">
        <ele>22.31211</ele>
        <time>2026-08-22T22:21:03.238000Z</time>
      </trkpt>
      <trkpt lat="39.8730682" lon="116.6678747">
        <ele>22.34613</ele>
        <time>2026-08-22T22:21:08.225000Z</time>
      </trkpt>
      <trkpt lat="39.8729571" lon="116.6678629">
        <ele>22.47545</ele>
        <time>2026-08-22T22:21:13.201000Z</time>
      </trkpt>
      <trkpt lat="39.872854" lon="116.6678166">
        <ele>22.62919</ele>
        <time>2026-08-22T22:21:18Z</time>
      </trkpt>
      <trkpt lat="39.8727681" lon="116.6677686">
        <ele>22.66484</ele>
        <time>2026-08-22T22:21:22.159000Z</time>
      </trkpt>
      <trkpt lat="39.8726694" lon="116.667726">
        <ele>22.68055</ele>
        <time>2026-08-22T22:21:27Z</time>
      </trkpt>
      <trkpt lat="39.8725622" lon="116.6677044">
        <ele>22.65726</ele>
        <time>2026-08-22T22:21:32Z</time>
      </trkpt>
      <trkpt lat="39.8724521" lon="116.6677023">
        <ele>22.60917</ele>
        <time>2026-08-22T22:21:37Z</time>
      </trkpt>
      <trkpt lat="39.8723459" lon="116.6677168">
        <ele>22.5378</ele>
        <time>2026-08-22T22:21:42Z</time>
      </trkpt>
      <trkpt lat="39.872237" lon="116.6677333">
        <ele>22.4136</ele>
        <time>2026-08-22T22:21:47Z</time>
      </trkpt>
      <trkpt lat="39.872127" lon="116.6677342">
        <ele>22.2265</ele>
        <time>2026-08-22T22:21:52Z</time>
      </trkpt>
      <trkpt lat="39.872017" lon="116.6677136">
        <ele>21.84714</ele>
        <time>2026-08-22T22:21:56.996000Z</time>
      </trkpt>
      <trkpt lat="39.8719123" lon="116.6676761">
        <ele>21.32412</ele>
        <time>2026-08-22T22:22:01.973000Z</time>
      </trkpt>
      <trkpt lat="39.871812" lon="116.6676184">
        <ele>20.93146</ele>
        <time>2026-08-22T22:22:06.949000Z</time>
      </trkpt>
      <trkpt lat="39.8717295" lon="116.6675703">
        <ele>20.73994</ele>
        <time>2026-08-22T22:22:10.930000Z</time>
      </trkpt>
      <trkpt lat="39.8716222" lon="116.6675295">
        <ele>20.61489</ele>
        <time>2026-08-22T22:22:15.907000Z</time>
      </trkpt>
      <trkpt lat="39.8715309" lon="116.6675164">
        <ele>20.55754</ele>
        <time>2026-08-22T22:22:19.888000Z</time>
      </trkpt>
      <trkpt lat="39.8714207" lon="116.6675016">
        <ele>20.47891</ele>
        <time>2026-08-22T22:22:24.865000Z</time>
      </trkpt>
      <trkpt lat="39.8713136" lon="116.6674929">
        <ele>20.38262</ele>
        <time>2026-08-22T22:22:29.842000Z</time>
      </trkpt>
      <trkpt lat="39.8712091" lon="116.6675065">
        <ele>20.31972</ele>
        <time>2026-08-22T22:22:34.818000Z</time>
      </trkpt>
      <trkpt lat="39.8711088" lon="116.667522">
        <ele>20.2777</ele>
        <time>2026-08-22T22:22:39.795000Z</time>
      </trkpt>
      <trkpt lat="39.8710211" lon="116.6675742">
        <ele>20.20978</ele>
        <time>2026-08-22T22:22:44.771000Z</time>
      </trkpt>
      <trkpt lat="39.8709732" lon="116.6676924">
        <ele>20.2329</ele>
        <time>2026-08-22T22:22:49.748000Z</time>
      </trkpt>
      <trkpt lat="39.8709169" lon="116.6678053">
        <ele>20.43868</ele>
        <time>2026-08-22T22:22:54.725000Z</time>
      </trkpt>
      <trkpt lat="39.8708181" lon="116.6678464">
        <ele>20.71702</ele>
        <time>2026-08-22T22:22:59.701000Z</time>
      </trkpt>
      <trkpt lat="39.8707072" lon="116.6678513">
        <ele>20.93712</ele>
        <time>2026-08-22T22:23:04.678000Z</time>
      </trkpt>
      <trkpt lat="39.870617" lon="116.6678518">
        <ele>21.08708</ele>
        <time>2026-08-22T22:23:08.659000Z</time>
      </trkpt>
      <trkpt lat="39.8705068" lon="116.667855">
        <ele>21.27071</ele>
        <time>2026-08-22T22:23:13.636000Z</time>
      </trkpt>
      <trkpt lat="39.8704005" lon="116.6678495">
        <ele>21.46627</ele>
        <time>2026-08-22T22:23:18.612000Z</time>
      </trkpt>
      <trkpt lat="39.8703063" lon="116.6677975">
        <ele>21.64222</ele>
        <time>2026-08-22T22:23:23.589000Z</time>
      </trkpt>
      <trkpt lat="39.870208" lon="116.6677575">
        <ele>21.7372</ele>
        <time>2026-08-22T22:23:28.566000Z</time>
      </trkpt>
      <trkpt lat="39.8701" lon="116.6677791">
        <ele>21.72268</ele>
        <time>2026-08-22T22:23:33.542000Z</time>
      </trkpt>
      <trkpt lat="39.8699891" lon="116.6677906">
        <ele>21.61426</ele>
        <time>2026-08-22T22:23:38.519000Z</time>
      </trkpt>
      <trkpt lat="39.8698979" lon="116.6677866">
        <ele>21.48909</ele>
        <time>2026-08-22T22:23:42.500000Z</time>
      </trkpt>
      <trkpt lat="39.8698081" lon="116.667765">
        <ele>21.33195</ele>
        <time>2026-08-22T22:23:46.481000Z</time>
      </trkpt>
      <trkpt lat="39.8697198" lon="116.6677412">
        <ele>21.14789</ele>
        <time>2026-08-22T22:23:50.463000Z</time>
      </trkpt>
      <trkpt lat="39.8696132" lon="116.6677486">
        <ele>20.97311</ele>
        <time>2026-08-22T22:23:55.439000Z</time>
      </trkpt>
      <trkpt lat="39.8695173" lon="116.6678036">
        <ele>20.95465</ele>
        <time>2026-08-22T22:24:00.416000Z</time>
      </trkpt>
      <trkpt lat="39.8694613" lon="116.6679173">
        <ele>21.05159</ele>
        <time>2026-08-22T22:24:05.392000Z</time>
      </trkpt>
      <trkpt lat="39.8694519" lon="116.6680533">
        <ele>21.16764</ele>
        <time>2026-08-22T22:24:10.369000Z</time>
      </trkpt>
      <trkpt lat="39.8694757" lon="116.6681856">
        <ele>21.24459</ele>
        <time>2026-08-22T22:24:15.346000Z</time>
      </trkpt>
      <trkpt lat="39.8695299" lon="116.6682985">
        <ele>21.21767</ele>
        <time>2026-08-22T22:24:20.322000Z</time>
      </trkpt>
      <trkpt lat="39.86961" lon="116.6683774">
        <ele>21.10244</ele>
        <time>2026-08-22T22:24:25.299000Z</time>
      </trkpt>
      <trkpt lat="39.8697132" lon="116.668387">
        <ele>21.0076</ele>
        <time>2026-08-22T22:24:30.275000Z</time>
      </trkpt>
      <trkpt lat="39.8698149" lon="116.6683499">
        <ele>20.98952</ele>
        <time>2026-08-22T22:24:35.252000Z</time>
      </trkpt>
      <trkpt lat="39.8699154" lon="116.668312">
        <ele>21.02827</ele>
        <time>2026-08-22T22:24:40.229000Z</time>
      </trkpt>
      <trkpt lat="39.8700232" lon="116.6683173">
        <ele>21.09514</ele>
        <time>2026-08-22T22:24:45.205000Z</time>
      </trkpt>
      <trkpt lat="39.8701295" lon="116.6683128">
        <ele>21.12055</ele>
        <time>2026-08-22T22:24:50Z</time>
      </trkpt>
      <trkpt lat="39.8702297" lon="116.668268">
        <ele>21.05877</ele>
        <time>2026-08-22T22:24:55Z</time>
      </trkpt>
      <trkpt lat="39.8703272" lon="116.6682078">
        <ele>20.96556</ele>
        <time>2026-08-22T22:25:00Z</time>
      </trkpt>
      <trkpt lat="39.8704236" lon="116.6681413">
        <ele>20.86812</ele>
        <time>2026-08-22T22:25:05Z</time>
      </trkpt>
      <trkpt lat="39.8705269" lon="116.6681118">
        <ele>20.75517</ele>
        <time>2026-08-22T22:25:10Z</time>
      </trkpt>
      <trkpt lat="39.8706378" lon="116.6681289">
        <ele>20.63177</ele>
        <time>2026-08-22T22:25:15Z</time>
      </trkpt>
      <trkpt lat="39.8707293" lon="116.668156">
        <ele>20.53972</ele>
        <time>2026-08-22T22:25:19.046000Z</time>
      </trkpt>
      <trkpt lat="39.8708357" lon="116.6681839">
        <ele>20.45805</ele>
        <time>2026-08-22T22:25:24Z</time>
      </trkpt>
      <trkpt lat="39.870944" lon="116.668176">
        <ele>20.48182</ele>
        <time>2026-08-22T22:25:28.999000Z</time>
      </trkpt>
      <trkpt lat="39.8710515" lon="116.6681369">
        <ele>20.66582</ele>
        <time>2026-08-22T22:25:33.976000Z</time>
      </trkpt>
      <trkpt lat="39.8711502" lon="116.6680802">
        <ele>20.86965</ele>
        <time>2026-08-22T22:25:38.952000Z</time>
      </trkpt>
      <trkpt lat="39.87125" lon="116.6680241">
        <ele>21.00958</ele>
        <time>2026-08-22T22:25:43.929000Z</time>
      </trkpt>
      <trkpt lat="39.8713558" lon="116.6679879">
        <ele>21.05228</ele>
        <time>2026-08-22T22:25:48.905000Z</time>
      </trkpt>
      <trkpt lat="39.8714655" lon="116.6679814">
        <ele>21.0343</ele>
        <time>2026-08-22T22:25:53.882000Z</time>
      </trkpt>
      <trkpt lat="39.8715706" lon="116.6680085">
        <ele>21.04181</ele>
        <time>2026-08-22T22:25:58.858000Z</time>
      </trkpt>
      <trkpt lat="39.8716719" lon="116.6680613">
        <ele>21.0483</ele>
        <time>2026-08-22T22:26:03.835000Z</time>
      </trkpt>
      <trkpt lat="39.8717664" lon="116.6681323">
        <ele>21.04014</ele>
        <time>2026-08-22T22:26:08.812000Z</time>
      </trkpt>
      <trkpt lat="39.8718669" lon="116.6681919">
        <ele>21.04068</ele>
        <time>2026-08-22T22:26:13.788000Z</time>
      </trkpt>
      <trkpt lat="39.8719739" lon="116.6682237">
        <ele>21.08976</ele>
        <time>2026-08-22T22:26:18.765000Z</time>
      </trkpt>
      <trkpt lat="39.8720839" lon="116.6682344">
        <ele>21.17123</ele>
        <time>2026-08-22T22:26:23.741000Z</time>
      </trkpt>
      <trkpt lat="39.8721955" lon="116.6682369">
        <ele>21.26995</ele>
        <time>2026-08-22T22:26:28.718000Z</time>
      </trkpt>
      <trkpt lat="39.8723043" lon="116.6682599">
        <ele>21.35098</ele>
        <time>2026-08-22T22:26:33.694000Z</time>
      </trkpt>
      <trkpt lat="39.872404" lon="116.6683163">
        <ele>21.37662</ele>
        <time>2026-08-22T22:26:38.671000Z</time>
      </trkpt>
      <trkpt lat="39.8724876" lon="116.6684033">
        <ele>21.34036</ele>
        <time>2026-08-22T22:26:43.648000Z</time>
      </trkpt>
      <trkpt lat="39.8725545" lon="116.6685161">
        <ele>21.27692</ele>
        <time>2026-08-22T22:26:48.624000Z</time>
      </trkpt>
      <trkpt lat="39.8726035" lon="116.6686452">
        <ele>21.26007</ele>
        <time>2026-08-22T22:26:53.601000Z</time>
      </trkpt>
      <trkpt lat="39.8726344" lon="116.6687816">
        <ele>21.28258</ele>
        <time>2026-08-22T22:26:58.577000Z</time>
      </trkpt>
      <trkpt lat="39.8726422" lon="116.6689212">
        <ele>21.32873</ele>
        <time>2026-08-22T22:27:03.554000Z</time>
      </trkpt>
      <trkpt lat="39.8726149" lon="116.6690579">
        <ele>21.43447</ele>
        <time>2026-08-22T22:27:08.531000Z</time>
      </trkpt>
      <trkpt lat="39.8725666" lon="116.6691889">
        <ele>21.59341</ele>
        <time>2026-08-22T22:27:13.507000Z</time>
      </trkpt>
      <trkpt lat="39.8725346" lon="116.6692984">
        <ele>21.70792</ele>
        <time>2026-08-22T22:27:17.488000Z</time>
      </trkpt>
      <trkpt lat="39.8725137" lon="116.6694409">
        <ele>21.79619</ele>
        <time>2026-08-22T22:27:22.465000Z</time>
      </trkpt>
      <trkpt lat="39.8725069" lon="116.6695859">
        <ele>21.83115</ele>
        <time>2026-08-22T22:27:27.442000Z</time>
      </trkpt>
      <trkpt lat="39.8725224" lon="116.6697297">
        <ele>21.80447</ele>
        <time>2026-08-22T22:27:32.418000Z</time>
      </trkpt>
      <trkpt lat="39.8725637" lon="116.6698631">
        <ele>21.72357</ele>
        <time>2026-08-22T22:27:37.395000Z</time>
      </trkpt>
      <trkpt lat="39.8726308" lon="116.6699763">
        <ele>21.64381</ele>
        <time>2026-08-22T22:27:42.371000Z</time>
      </trkpt>
      <trkpt lat="39.8727191" lon="116.670059">
        <ele>21.58291</ele>
        <time>2026-08-22T22:27:47.348000Z</time>
      </trkpt>
      <trkpt lat="39.8728208" lon="116.6701193">
        <ele>21.50517</ele>
        <time>2026-08-22T22:27:52.325000Z</time>
      </trkpt>
      <trkpt lat="39.8729273" lon="116.6701533">
        <ele>21.40853</ele>
        <time>2026-08-22T22:27:57.301000Z</time>
      </trkpt>
      <trkpt lat="39.8730393" lon="116.6701612">
        <ele>21.33675</ele>
        <time>2026-08-22T22:28:02.278000Z</time>
      </trkpt>
      <trkpt lat="39.8731492" lon="116.6701473">
        <ele>21.29274</ele>
        <time>2026-08-22T22:28:07.254000Z</time>
      </trkpt>
      <trkpt lat="39.8732555" lon="116.670128">
        <ele>21.22749</ele>
        <time>2026-08-22T22:28:12.231000Z</time>
      </trkpt>
      <trkpt lat="39.8733582" lon="116.670092">
        <ele>21.09052</ele>
        <time>2026-08-22T22:28:17.208000Z</time>
      </trkpt>
      <trkpt lat="39.8734559" lon="116.6700273">
        <ele>20.92026</ele>
        <time>2026-08-22T22:28:22.184000Z</time>
      </trkpt>
      <trkpt lat="39.8735479" lon="116.6699503">
        <ele>20.77394</ele>
        <time>2026-08-22T22:28:27.161000Z</time>
      </trkpt>
      <trkpt lat="39.8736386" lon="116.6698644">
        <ele>20.70538</ele>
        <time>2026-08-22T22:28:32.137000Z</time>
      </trkpt>
      <trkpt lat="39.873735" lon="116.6697952">
        <ele>20.746</ele>
        <time>2026-08-22T22:28:37.114000Z</time>
      </trkpt>
      <trkpt lat="39.8738441" lon="116.6697777">
        <ele>20.8915</ele>
        <time>2026-08-22T22:28:42.091000Z</time>
      </trkpt>
      <trkpt lat="39.8739353" lon="116.6697903">
        <ele>21.04238</ele>
        <time>2026-08-22T22:28:46.072000Z</time>
      </trkpt>
      <trkpt lat="39.874026" lon="116.6698079">
        <ele>21.18646</ele>
        <time>2026-08-22T22:28:50.053000Z</time>
      </trkpt>
      <trkpt lat="39.8741161" lon="116.669814">
        <ele>21.3264</ele>
        <time>2026-08-22T22:28:54.035000Z</time>
      </trkpt>
      <trkpt lat="39.874225" lon="116.6697892">
        <ele>21.4466</ele>
        <time>2026-08-22T22:28:59.011000Z</time>
      </trkpt>
      <trkpt lat="39.8743218" lon="116.6697165">
        <ele>21.50264</ele>
        <time>2026-08-22T22:29:03.988000Z</time>
      </trkpt>
      <trkpt lat="39.8743902" lon="116.6696384">
        <ele>21.55721</ele>
        <time>2026-08-22T22:29:07.969000Z</time>
      </trkpt>
      <trkpt lat="39.8744578" lon="116.669558">
        <ele>21.66135</ele>
        <time>2026-08-22T22:29:11.950000Z</time>
      </trkpt>
      <trkpt lat="39.8745395" lon="116.6694998">
        <ele>21.84702</ele>
        <time>2026-08-22T22:29:15.932000Z</time>
      </trkpt>
      <trkpt lat="39.8746295" lon="116.6694759">
        <ele>22.08505</ele>
        <time>2026-08-22T22:29:19.913000Z</time>
      </trkpt>
      <trkpt lat="39.8747219" lon="116.6694818">
        <ele>22.31022</ele>
        <time>2026-08-22T22:29:23.894000Z</time>
      </trkpt>
      <trkpt lat="39.8748137" lon="116.6695154">
        <ele>22.49488</ele>
        <time>2026-08-22T22:29:27.875000Z</time>
      </trkpt>
      <trkpt lat="39.8748976" lon="116.6695718">
        <ele>22.65135</ele>
        <time>2026-08-22T22:29:31.857000Z</time>
      </trkpt>
      <trkpt lat="39.874978" lon="116.6696338">
        <ele>22.8068</ele>
        <time>2026-08-22T22:29:35.838000Z</time>
      </trkpt>
      <trkpt lat="39.8750839" lon="116.6696778">
        <ele>23.01314</ele>
        <time>2026-08-22T22:29:40.815000Z</time>
      </trkpt>
      <trkpt lat="39.8751863" lon="116.669637">
        <ele>23.18678</ele>
        <time>2026-08-22T22:29:45.791000Z</time>
      </trkpt>
      <trkpt lat="39.8752608" lon="116.6695705">
        <ele>23.2732</ele>
        <time>2026-08-22T22:29:49.773000Z</time>
      </trkpt>
      <trkpt lat="39.8753626" lon="116.6695097">
        <ele>23.33344</ele>
        <time>2026-08-22T22:29:54.749000Z</time>
      </trkpt>
      <trkpt lat="39.8754681" lon="116.6694702">
        <ele>23.38559</ele>
        <time>2026-08-22T22:29:59.726000Z</time>
      </trkpt>
      <trkpt lat="39.8755635" lon="116.6693958">
        <ele>23.43782</ele>
        <time>2026-08-22T22:30:04.702000Z</time>
      </trkpt>
      <trkpt lat="39.8756283" lon="116.6692858">
        <ele>23.48623</ele>
        <time>2026-08-22T22:30:09.679000Z</time>
      </trkpt>
      <trkpt lat="39.8756503" lon="116.6691557">
        <ele>23.52536</ele>
        <time>2026-08-22T22:30:14.656000Z</time>
      </trkpt>
      <trkpt lat="39.8756327" lon="116.669018">
        <ele>23.54425</ele>
        <time>2026-08-22T22:30:19.632000Z</time>
      </trkpt>
      <trkpt lat="39.8755911" lon="116.6688935">
        <ele>23.53702</ele>
        <time>2026-08-22T22:30:24.609000Z</time>
      </trkpt>
      <trkpt lat="39.8755188" lon="116.6687895">
        <ele>23.4746</ele>
        <time>2026-08-22T22:30:29.586000Z</time>
      </trkpt>
      <trkpt lat="39.8754344" lon="116.6686971">
        <ele>23.35835</ele>
        <time>2026-08-22T22:30:34.562000Z</time>
      </trkpt>
      <trkpt lat="39.8753632" lon="116.6685859">
        <ele>23.22952</ele>
        <time>2026-08-22T22:30:39.539000Z</time>
      </trkpt>
      <trkpt lat="39.8753221" lon="116.6684808">
        <ele>23.12047</ele>
        <time>2026-08-22T22:30:43.520000Z</time>
      </trkpt>
      <trkpt lat="39.8752943" lon="116.668364">
        <ele>23.00675</ele>
        <time>2026-08-22T22:30:47.501000Z</time>
      </trkpt>
      <trkpt lat="39.8752721" lon="116.6682462">
        <ele>22.92182</ele>
        <time>2026-08-22T22:30:51.483000Z</time>
      </trkpt>
      <trkpt lat="39.875251" lon="116.6681286">
        <ele>22.88242</ele>
        <time>2026-08-22T22:30:55.464000Z</time>
      </trkpt>
      <trkpt lat="39.8752225" lon="116.6680122">
        <ele>22.87758</ele>
        <time>2026-08-22T22:30:59.445000Z</time>
      </trkpt>
      <trkpt lat="39.8751834" lon="116.6679009">
        <ele>22.87228</ele>
        <time>2026-08-22T22:31:03.427000Z</time>
      </trkpt>
      <trkpt lat="39.875132" lon="116.6677959">
        <ele>22.84517</ele>
        <time>2026-08-22T22:31:07.408000Z</time>
      </trkpt>
      <trkpt lat="39.8750688" lon="116.6677005">
        <ele>22.8151</ele>
        <time>2026-08-22T22:31:11.389000Z</time>
      </trkpt>
      <trkpt lat="39.874997" lon="116.6676205">
        <ele>22.80132</ele>
        <time>2026-08-22T22:31:15.370000Z</time>
      </trkpt>
      <trkpt lat="39.8749102" lon="116.6675625">
        <ele>22.80059</ele>
        <time>2026-08-22T22:31:19.352000Z</time>
      </trkpt>
      <trkpt lat="39.8748174" lon="116.6675195">
        <ele>22.80877</ele>
        <time>2026-08-22T22:31:23.333000Z</time>
      </trkpt>
      <trkpt lat="39.8747225" lon="116.6674884">
        <ele>22.79317</ele>
        <time>2026-08-22T22:31:27.314000Z</time>
      </trkpt>
      <trkpt lat="39.8746257" lon="116.6674704">
        <ele>22.75296</ele>
        <time>2026-08-22T22:31:31.296000Z</time>
      </trkpt>
      <trkpt lat="39.8745297" lon="116.6674698">
        <ele>22.72304</ele>
        <time>2026-08-22T22:31:35.277000Z</time>
      </trkpt>
      <trkpt lat="39.874436" lon="116.6674909">
        <ele>22.67828</ele>
        <time>2026-08-22T22:31:39.258000Z</time>
      </trkpt>
      <trkpt lat="39.8743464" lon="116.6675304">
        <ele>22.58625</ele>
        <time>2026-08-22T22:31:43.240000Z</time>
      </trkpt>
      <trkpt lat="39.8742616" lon="116.6675822">
        <ele>22.4511</ele>
        <time>2026-08-22T22:31:47.221000Z</time>
      </trkpt>
      <trkpt lat="39.8741776" lon="116.6676353">
        <ele>22.29988</ele>
        <time>2026-08-22T22:31:51.202000Z</time>
      </trkpt>
      <trkpt lat="39.8740963" lon="116.667691">
        <ele>22.15792</ele>
        <time>2026-08-22T22:31:55.184000Z</time>
      </trkpt>
      <trkpt lat="39.8740131" lon="116.667741">
        <ele>22.03506</ele>
        <time>2026-08-22T22:31:59.165000Z</time>
      </trkpt>
      <trkpt lat="39.8739272" lon="116.6677825">
        <ele>21.90992</ele>
        <time>2026-08-22T22:32:03.146000Z</time>
      </trkpt>
      <trkpt lat="39.8738363" lon="116.6678058">
        <ele>21.77532</ele>
        <time>2026-08-22T22:32:07.127000Z</time>
      </trkpt>
      <trkpt lat="39.8737418" lon="116.6678112">
        <ele>21.60143</ele>
        <time>2026-08-22T22:32:11.109000Z</time>
      </trkpt>
      <trkpt lat="39.8736491" lon="116.667799">
        <ele>21.36123</ele>
        <time>2026-08-22T22:32:15.090000Z</time>
      </trkpt>
      <trkpt lat="39.8735575" lon="116.6677771">
        <ele>21.12503</ele>
        <time>2026-08-22T22:32:19Z</time>
      </trkpt>
      <trkpt lat="39.8734644" lon="116.6677597">
        <ele>20.99603</ele>
        <time>2026-08-22T22:32:23Z</time>
      </trkpt>
      <trkpt lat="39.8733731" lon="116.66776">
        <ele>20.92754</ele>
        <time>2026-08-22T22:32:27Z</time>
      </trkpt>
      <trkpt lat="39.8732645" lon="116.6677966">
        <ele>20.93168</ele>
        <time>2026-08-22T22:32:32Z</time>
      </trkpt>
      <trkpt lat="39.873161" lon="116.6678491">
        <ele>21.14788</ele>
        <time>2026-08-22T22:32:36.987000Z</time>
      </trkpt>
      <trkpt lat="39.8730706" lon="116.6678804">
        <ele>21.38875</ele>
        <time>2026-08-22T22:32:40.969000Z</time>
      </trkpt>
      <trkpt lat="39.8729725" lon="116.6678829">
        <ele>21.62203</ele>
        <time>2026-08-22T22:32:44.950000Z</time>
      </trkpt>
      <trkpt lat="39.8728751" lon="116.667856">
        <ele>21.81478</ele>
        <time>2026-08-22T22:32:48.931000Z</time>
      </trkpt>
      <trkpt lat="39.8727829" lon="116.6678193">
        <ele>21.94424</ele>
        <time>2026-08-22T22:32:52.913000Z</time>
      </trkpt>
      <trkpt lat="39.8726913" lon="116.6677868">
        <ele>22.01405</ele>
        <time>2026-08-22T22:32:56.894000Z</time>
      </trkpt>
      <trkpt lat="39.8725981" lon="116.6677671">
        <ele>22.05362</ele>
        <time>2026-08-22T22:33:00.875000Z</time>
      </trkpt>
      <trkpt lat="39.8725031" lon="116.6677599">
        <ele>22.07528</ele>
        <time>2026-08-22T22:33:04.856000Z</time>
      </trkpt>
      <trkpt lat="39.8724096" lon="116.6677644">
        <ele>22.05367</ele>
        <time>2026-08-22T22:33:08.838000Z</time>
      </trkpt>
      <trkpt lat="39.8722975" lon="116.6677736">
        <ele>21.95331</ele>
        <time>2026-08-22T22:33:13.814000Z</time>
      </trkpt>
      <trkpt lat="39.8722057" lon="116.6677783">
        <ele>21.84004</ele>
        <time>2026-08-22T22:33:17.796000Z</time>
      </trkpt>
      <trkpt lat="39.8721103" lon="116.6677751">
        <ele>21.69992</ele>
        <time>2026-08-22T22:33:21.777000Z</time>
      </trkpt>
      <trkpt lat="39.8720173" lon="116.6677554">
        <ele>21.51201</ele>
        <time>2026-08-22T22:33:25.758000Z</time>
      </trkpt>
      <trkpt lat="39.8719243" lon="116.6677209">
        <ele>21.27483</ele>
        <time>2026-08-22T22:33:29.740000Z</time>
      </trkpt>
      <trkpt lat="39.8718362" lon="116.6676786">
        <ele>21.00949</ele>
        <time>2026-08-22T22:33:33.721000Z</time>
      </trkpt>
      <trkpt lat="39.8717449" lon="116.6676353">
        <ele>20.7558</ele>
        <time>2026-08-22T22:33:37.702000Z</time>
      </trkpt>
      <trkpt lat="39.8716532" lon="116.6675959">
        <ele>20.59195</ele>
        <time>2026-08-22T22:33:41.684000Z</time>
      </trkpt>
      <trkpt lat="39.8715597" lon="116.6675645">
        <ele>20.50887</ele>
        <time>2026-08-22T22:33:45.665000Z</time>
      </trkpt>
      <trkpt lat="39.8714672" lon="116.667541">
        <ele>20.46135</ele>
        <time>2026-08-22T22:33:49.646000Z</time>
      </trkpt>
      <trkpt lat="39.8713724" lon="116.6675318">
        <ele>20.40549</ele>
        <time>2026-08-22T22:33:53.628000Z</time>
      </trkpt>
      <trkpt lat="39.8712817" lon="116.667537">
        <ele>20.34383</ele>
        <time>2026-08-22T22:33:57.609000Z</time>
      </trkpt>
      <trkpt lat="39.8711919" lon="116.6675451">
        <ele>20.3077</ele>
        <time>2026-08-22T22:34:01.590000Z</time>
      </trkpt>
      <trkpt lat="39.8710846" lon="116.667563">
        <ele>20.31436</ele>
        <time>2026-08-22T22:34:06.567000Z</time>
      </trkpt>
      <trkpt lat="39.8710071" lon="116.6676357">
        <ele>20.41973</ele>
        <time>2026-08-22T22:34:11.544000Z</time>
      </trkpt>
      <trkpt lat="39.8709562" lon="116.6677666">
        <ele>20.70177</ele>
        <time>2026-08-22T22:34:16.520000Z</time>
      </trkpt>
      <trkpt lat="39.8708736" lon="116.6678536">
        <ele>21.08219</ele>
        <time>2026-08-22T22:34:21.497000Z</time>
      </trkpt>
      <trkpt lat="39.8707834" lon="116.6678687">
        <ele>21.34204</ele>
        <time>2026-08-22T22:34:25.478000Z</time>
      </trkpt>
      <trkpt lat="39.8706891" lon="116.6678746">
        <ele>21.52021</ele>
        <time>2026-08-22T22:34:29.460000Z</time>
      </trkpt>
      <trkpt lat="39.8705945" lon="116.6678753">
        <ele>21.61552</ele>
        <time>2026-08-22T22:34:33.441000Z</time>
      </trkpt>
      <trkpt lat="39.8705" lon="116.6678684">
        <ele>21.65914</ele>
        <time>2026-08-22T22:34:37.422000Z</time>
      </trkpt>
      <trkpt lat="39.8704058" lon="116.6678557">
        <ele>21.70004</ele>
        <time>2026-08-22T22:34:41.403000Z</time>
      </trkpt>
      <trkpt lat="39.870317" lon="116.6678153">
        <ele>21.74462</ele>
        <time>2026-08-22T22:34:45.385000Z</time>
      </trkpt>
      <trkpt lat="39.8702307" lon="116.6677716">
        <ele>21.75011</ele>
        <time>2026-08-22T22:34:49.366000Z</time>
      </trkpt>
      <trkpt lat="39.8701347" lon="116.6677738">
        <ele>21.69007</ele>
        <time>2026-08-22T22:34:53.347000Z</time>
      </trkpt>
      <trkpt lat="39.8700393" lon="116.6677817">
        <ele>21.59099</ele>
        <time>2026-08-22T22:34:57.329000Z</time>
      </trkpt>
      <trkpt lat="39.8699439" lon="116.667778">
        <ele>21.49175</ele>
        <time>2026-08-22T22:35:01.310000Z</time>
      </trkpt>
      <trkpt lat="39.8698472" lon="116.6677627">
        <ele>21.40597</ele>
        <time>2026-08-22T22:35:05.291000Z</time>
      </trkpt>
      <trkpt lat="39.8697487" lon="116.667743">
        <ele>21.31354</ele>
        <time>2026-08-22T22:35:09.273000Z</time>
      </trkpt>
      <trkpt lat="39.8696549" lon="116.6677359">
        <ele>21.18215</ele>
        <time>2026-08-22T22:35:13.254000Z</time>
      </trkpt>
      <trkpt lat="39.8695524" lon="116.6677787">
        <ele>20.9599</ele>
        <time>2026-08-22T22:35:18.231000Z</time>
      </trkpt>
      <trkpt lat="39.8694796" lon="116.6678721">
        <ele>20.72974</ele>
        <time>2026-08-22T22:35:23.207000Z</time>
      </trkpt>
      <trkpt lat="39.8694466" lon="116.6679942">
        <ele>20.57475</ele>
        <time>2026-08-22T22:35:28Z</time>
      </trkpt>
      <trkpt lat="39.8694521" lon="116.668137">
        <ele>20.60385</ele>
        <time>2026-08-22T22:35:33Z</time>
      </trkpt>
      <trkpt lat="39.8694905" lon="116.6682491">
        <ele>20.76862</ele>
        <time>2026-08-22T22:35:37.142000Z</time>
      </trkpt>
      <trkpt lat="39.8695535" lon="116.6683335">
        <ele>20.9103</ele>
        <time>2026-08-22T22:35:41.123000Z</time>
      </trkpt>
      <trkpt lat="39.8696384" lon="116.6683775">
        <ele>20.98614</ele>
        <time>2026-08-22T22:35:45.105000Z</time>
      </trkpt>
      <trkpt lat="39.8697327" lon="116.6683755">
        <ele>21.00003</ele>
        <time>2026-08-22T22:35:49.086000Z</time>
      </trkpt>
      <trkpt lat="39.8698252" lon="116.6683405">
        <ele>20.99277</ele>
        <time>2026-08-22T22:35:53.067000Z</time>
      </trkpt>
      <trkpt lat="39.8699166" lon="116.6683059">
        <ele>20.96357</ele>
        <time>2026-08-22T22:35:57.049000Z</time>
      </trkpt>
      <trkpt lat="39.8700086" lon="116.6683015">
        <ele>20.89042</ele>
        <time>2026-08-22T22:36:01.030000Z</time>
      </trkpt>
      <trkpt lat="39.870103" lon="116.6683111">
        <ele>20.78083</ele>
        <time>2026-08-22T22:36:05.011000Z</time>
      </trkpt>
      <trkpt lat="39.8701947" lon="116.6683061">
        <ele>20.66277</ele>
        <time>2026-08-22T22:36:08.993000Z</time>
      </trkpt>
      <trkpt lat="39.8702873" lon="116.6682444">
        <ele>20.516</ele>
        <time>2026-08-22T22:36:13.969000Z</time>
      </trkpt>
      <trkpt lat="39.8703827" lon="116.6681785">
        <ele>20.39862</ele>
        <time>2026-08-22T22:36:18.946000Z</time>
      </trkpt>
      <trkpt lat="39.8704663" lon="116.6681335">
        <ele>20.37514</ele>
        <time>2026-08-22T22:36:22.927000Z</time>
      </trkpt>
      <trkpt lat="39.870576" lon="116.6681176">
        <ele>20.46397</ele>
        <time>2026-08-22T22:36:27.904000Z</time>
      </trkpt>
      <trkpt lat="39.8706814" lon="116.6681189">
        <ele>20.62501</ele>
        <time>2026-08-22T22:36:32.881000Z</time>
      </trkpt>
      <trkpt lat="39.8707709" lon="116.6681501">
        <ele>20.73001</ele>
        <time>2026-08-22T22:36:36.862000Z</time>
      </trkpt>
      <trkpt lat="39.8708683" lon="116.6681624">
        <ele>20.81732</ele>
        <time>2026-08-22T22:36:40.844000Z</time>
      </trkpt>
      <trkpt lat="39.8709633" lon="116.6681423">
        <ele>20.91772</ele>
        <time>2026-08-22T22:36:44.825000Z</time>
      </trkpt>
      <trkpt lat="39.8710522" lon="116.6681032">
        <ele>21.00684</ele>
        <time>2026-08-22T22:36:48.806000Z</time>
      </trkpt>
      <trkpt lat="39.871132" lon="116.6680471">
        <ele>21.06688</ele>
        <time>2026-08-22T22:36:52.788000Z</time>
      </trkpt>
      <trkpt lat="39.8712288" lon="116.6679826">
        <ele>21.0964</ele>
        <time>2026-08-22T22:36:57.764000Z</time>
      </trkpt>
      <trkpt lat="39.8713381" lon="116.6679535">
        <ele>21.05361</ele>
        <time>2026-08-22T22:37:02.741000Z</time>
      </trkpt>
      <trkpt lat="39.8714322" lon="116.6679527">
        <ele>20.99775</ele>
        <time>2026-08-22T22:37:06.722000Z</time>
      </trkpt>
      <trkpt lat="39.8715222" lon="116.6679739">
        <ele>20.9402</ele>
        <time>2026-08-22T22:37:10.704000Z</time>
      </trkpt>
      <trkpt lat="39.8716099" lon="116.6680147">
        <ele>20.86946</ele>
        <time>2026-08-22T22:37:14.685000Z</time>
      </trkpt>
      <trkpt lat="39.871693" lon="116.6680638">
        <ele>20.82336</ele>
        <time>2026-08-22T22:37:18.666000Z</time>
      </trkpt>
      <trkpt lat="39.8717744" lon="116.6681147">
        <ele>20.82895</ele>
        <time>2026-08-22T22:37:22.648000Z</time>
      </trkpt>
      <trkpt lat="39.8718779" lon="116.66816">
        <ele>20.90131</ele>
        <time>2026-08-22T22:37:27.624000Z</time>
      </trkpt>
      <trkpt lat="39.8719802" lon="116.6681917">
        <ele>21.05431</ele>
        <time>2026-08-22T22:37:32.601000Z</time>
      </trkpt>
      <trkpt lat="39.8720888" lon="116.6681873">
        <ele>21.21864</ele>
        <time>2026-08-22T22:37:37.578000Z</time>
      </trkpt>
      <trkpt lat="39.872199" lon="116.6681899">
        <ele>21.32722</ele>
        <time>2026-08-22T22:37:42.554000Z</time>
      </trkpt>
      <trkpt lat="39.8723016" lon="116.6682473">
        <ele>21.41239</ele>
        <time>2026-08-22T22:37:47.531000Z</time>
      </trkpt>
      <trkpt lat="39.8723688" lon="116.6683285">
        <ele>21.47042</ele>
        <time>2026-08-22T22:37:51.512000Z</time>
      </trkpt>
      <trkpt lat="39.8724267" lon="116.6684212">
        <ele>21.50001</ele>
        <time>2026-08-22T22:37:55.494000Z</time>
      </trkpt>
      <trkpt lat="39.8724794" lon="116.6685282">
        <ele>21.50144</ele>
        <time>2026-08-22T22:37:59.475000Z</time>
      </trkpt>
      <trkpt lat="39.8725194" lon="116.6686427">
        <ele>21.50918</ele>
        <time>2026-08-22T22:38:03.456000Z</time>
      </trkpt>
      <trkpt lat="39.8725421" lon="116.6687639">
        <ele>21.57512</ele>
        <time>2026-08-22T22:38:07.438000Z</time>
      </trkpt>
      <trkpt lat="39.8725462" lon="116.6688895">
        <ele>21.66547</ele>
        <time>2026-08-22T22:38:11.419000Z</time>
      </trkpt>
      <trkpt lat="39.8725493" lon="116.6690162">
        <ele>21.71476</ele>
        <time>2026-08-22T22:38:15.401000Z</time>
      </trkpt>
      <trkpt lat="39.87255" lon="116.6691399">
        <ele>21.71039</ele>
        <time>2026-08-22T22:38:19.382000Z</time>
      </trkpt>
      <trkpt lat="39.8725307" lon="116.6692647">
        <ele>21.68972</ele>
        <time>2026-08-22T22:38:23.363000Z</time>
      </trkpt>
      <trkpt lat="39.8725126" lon="116.6693905">
        <ele>21.67905</ele>
        <time>2026-08-22T22:38:27.345000Z</time>
      </trkpt>
      <trkpt lat="39.872503" lon="116.6695133">
        <ele>21.6837</ele>
        <time>2026-08-22T22:38:31.326000Z</time>
      </trkpt>
      <trkpt lat="39.87251" lon="116.669636">
        <ele>21.66684</ele>
        <time>2026-08-22T22:38:35.307000Z</time>
      </trkpt>
      <trkpt lat="39.8725391" lon="116.6697551">
        <ele>21.58863</ele>
        <time>2026-08-22T22:38:39.289000Z</time>
      </trkpt>
      <trkpt lat="39.8725909" lon="116.6698644">
        <ele>21.46465</ele>
        <time>2026-08-22T22:38:43.270000Z</time>
      </trkpt>
      <trkpt lat="39.8726616" lon="116.6699513">
        <ele>21.34486</ele>
        <time>2026-08-22T22:38:47.251000Z</time>
      </trkpt>
      <trkpt lat="39.8727439" lon="116.6700173">
        <ele>21.26642</ele>
        <time>2026-08-22T22:38:51.233000Z</time>
      </trkpt>
      <trkpt lat="39.8728326" lon="116.6700669">
        <ele>21.23615</ele>
        <time>2026-08-22T22:38:55.214000Z</time>
      </trkpt>
      <trkpt lat="39.8729274" lon="116.670098">
        <ele>21.23313</ele>
        <time>2026-08-22T22:38:59.195000Z</time>
      </trkpt>
      <trkpt lat="39.8730234" lon="116.670115">
        <ele>21.24602</ele>
        <time>2026-08-22T22:39:03.177000Z</time>
      </trkpt>
      <trkpt lat="39.8731189" lon="116.6701214">
        <ele>21.25639</ele>
        <time>2026-08-22T22:39:07.158000Z</time>
      </trkpt>
      <trkpt lat="39.8732154" lon="116.6701139">
        <ele>21.25748</ele>
        <time>2026-08-22T22:39:11.139000Z</time>
      </trkpt>
      <trkpt lat="39.8733128" lon="116.6700922">
        <ele>21.26109</ele>
        <time>2026-08-22T22:39:15.121000Z</time>
      </trkpt>
      <trkpt lat="39.8734032" lon="116.6700599">
        <ele>21.25975</ele>
        <time>2026-08-22T22:39:19.102000Z</time>
      </trkpt>
      <trkpt lat="39.8734891" lon="116.6700132">
        <ele>21.23683</ele>
        <time>2026-08-22T22:39:23.084000Z</time>
      </trkpt>
      <trkpt lat="39.8735673" lon="116.6699501">
        <ele>21.18055</ele>
        <time>2026-08-22T22:39:27.065000Z</time>
      </trkpt>
      <trkpt lat="39.8736396" lon="116.6698768">
        <ele>21.09289</ele>
        <time>2026-08-22T22:39:31.046000Z</time>
      </trkpt>
      <trkpt lat="39.8737291" lon="116.6697927">
        <ele>20.95081</ele>
        <time>2026-08-22T22:39:36.023000Z</time>
      </trkpt>
      <trkpt lat="39.873825" lon="116.669758">
        <ele>20.85881</ele>
        <time>2026-08-22T22:39:41Z</time>
      </trkpt>
      <trkpt lat="39.8739182" lon="116.6697553">
        <ele>20.95315</ele>
        <time>2026-08-22T22:39:45.976000Z</time>
      </trkpt>
      <trkpt lat="39.8740132" lon="116.6697674">
        <ele>21.09679</ele>
        <time>2026-08-22T22:39:50.953000Z</time>
      </trkpt>
      <trkpt lat="39.874109" lon="116.6697997">
        <ele>21.20857</ele>
        <time>2026-08-22T22:39:55.930000Z</time>
      </trkpt>
      <trkpt lat="39.8742042" lon="116.6698159">
        <ele>21.28361</ele>
        <time>2026-08-22T22:40:00.906000Z</time>
      </trkpt>
      <trkpt lat="39.8742939" lon="116.6697774">
        <ele>21.30707</ele>
        <time>2026-08-22T22:40:05.883000Z</time>
      </trkpt>
      <trkpt lat="39.8743581" lon="116.6696751">
        <ele>21.36328</ele>
        <time>2026-08-22T22:40:10.860000Z</time>
      </trkpt>
      <trkpt lat="39.874435" lon="116.669579">
        <ele>21.55279</ele>
        <time>2026-08-22T22:40:15.837000Z</time>
      </trkpt>
      <trkpt lat="39.8745207" lon="116.6695414">
        <ele>21.80978</ele>
        <time>2026-08-22T22:40:19.818000Z</time>
      </trkpt>
      <trkpt lat="39.8746151" lon="116.669526">
        <ele>22.08831</ele>
        <time>2026-08-22T22:40:23.799000Z</time>
      </trkpt>
      <trkpt lat="39.8747089" lon="116.6695379">
        <ele>22.33016</ele>
        <time>2026-08-22T22:40:27.781000Z</time>
      </trkpt>
      <trkpt lat="39.8747999" lon="116.6695747">
        <ele>22.53353</ele>
        <time>2026-08-22T22:40:31.762000Z</time>
      </trkpt>
      <trkpt lat="39.8748892" lon="116.6696211">
        <ele>22.69645</ele>
        <time>2026-08-22T22:40:35.743000Z</time>
      </trkpt>
      <trkpt lat="39.8749755" lon="116.6696667">
        <ele>22.84674</ele>
        <time>2026-08-22T22:40:39.725000Z</time>
      </trkpt>
      <trkpt lat="39.875065" lon="116.6696938">
        <ele>23.01148</ele>
        <time>2026-08-22T22:40:43.706000Z</time>
      </trkpt>
      <trkpt lat="39.8751545" lon="116.6696729">
        <ele>23.18217</ele>
        <time>2026-08-22T22:40:47.688000Z</time>
      </trkpt>
      <trkpt lat="39.8752357" lon="116.6696117">
        <ele>23.33594</ele>
        <time>2026-08-22T22:40:51.669000Z</time>
      </trkpt>
      <trkpt lat="39.8753182" lon="116.6695574">
        <ele>23.44748</ele>
        <time>2026-08-22T22:40:55.650000Z</time>
      </trkpt>
      <trkpt lat="39.8754063" lon="116.6695242">
        <ele>23.50581</ele>
        <time>2026-08-22T22:40:59.632000Z</time>
      </trkpt>
      <trkpt lat="39.8754968" lon="116.6694896">
        <ele>23.55393</ele>
        <time>2026-08-22T22:41:03.613000Z</time>
      </trkpt>
      <trkpt lat="39.8755773" lon="116.6694271">
        <ele>23.58524</ele>
        <time>2026-08-22T22:41:07.594000Z</time>
      </trkpt>
      <trkpt lat="39.8756343" lon="116.6693363">
        <ele>23.55736</ele>
        <time>2026-08-22T22:41:11.576000Z</time>
      </trkpt>
      <trkpt lat="39.8756541" lon="116.6691981">
        <ele>23.45919</ele>
        <time>2026-08-22T22:41:16.552000Z</time>
      </trkpt>
      <trkpt lat="39.8756421" lon="116.6690564">
        <ele>23.37065</ele>
        <time>2026-08-22T22:41:21.529000Z</time>
      </trkpt>
      <trkpt lat="39.8756063" lon="116.6689213">
        <ele>23.33337</ele>
        <time>2026-08-22T22:41:26.506000Z</time>
      </trkpt>
      <trkpt lat="39.8755355" lon="116.6688085">
        <ele>23.29334</ele>
        <time>2026-08-22T22:41:31.483000Z</time>
      </trkpt>
      <trkpt lat="39.8754669" lon="116.6687271">
        <ele>23.22011</ele>
        <time>2026-08-22T22:41:35.464000Z</time>
      </trkpt>
      <trkpt lat="39.8753963" lon="116.6686432">
        <ele>23.09898</ele>
        <time>2026-08-22T22:41:39.445000Z</time>
      </trkpt>
      <trkpt lat="39.8753407" lon="116.668539">
        <ele>22.96066</ele>
        <time>2026-08-22T22:41:43.427000Z</time>
      </trkpt>
      <trkpt lat="39.8753029" lon="116.6684181">
        <ele>22.84361</ele>
        <time>2026-08-22T22:41:47.408000Z</time>
      </trkpt>
      <trkpt lat="39.875279" lon="116.6682942">
        <ele>22.77127</ele>
        <time>2026-08-22T22:41:51.390000Z</time>
      </trkpt>
      <trkpt lat="39.8752552" lon="116.668173">
        <ele>22.74621</ele>
        <time>2026-08-22T22:41:55.371000Z</time>
      </trkpt>
      <trkpt lat="39.875224" lon="116.6680543">
        <ele>22.75583</ele>
        <time>2026-08-22T22:41:59.352000Z</time>
      </trkpt>
      <trkpt lat="39.8751869" lon="116.6679385">
        <ele>22.75393</ele>
        <time>2026-08-22T22:42:03.334000Z</time>
      </trkpt>
      <trkpt lat="39.8751391" lon="116.6678306">
        <ele>22.69139</ele>
        <time>2026-08-22T22:42:07.315000Z</time>
      </trkpt>
      <trkpt lat="39.8750762" lon="116.6677368">
        <ele>22.56484</ele>
        <time>2026-08-22T22:42:11.296000Z</time>
      </trkpt>
      <trkpt lat="39.8749996" lon="116.6676609">
        <ele>22.41188</ele>
        <time>2026-08-22T22:42:15.278000Z</time>
      </trkpt>
      <trkpt lat="39.87491" lon="116.667617">
        <ele>22.25719</ele>
        <time>2026-08-22T22:42:19.259000Z</time>
      </trkpt>
      <trkpt lat="39.8748194" lon="116.6675815">
        <ele>22.09754</ele>
        <time>2026-08-22T22:42:23.241000Z</time>
      </trkpt>
      <trkpt lat="39.8747325" lon="116.6675414">
        <ele>21.90415</ele>
        <time>2026-08-22T22:42:27.222000Z</time>
      </trkpt>
      <trkpt lat="39.8746388" lon="116.6675073">
        <ele>21.67289</ele>
        <time>2026-08-22T22:42:31.203000Z</time>
      </trkpt>
      <trkpt lat="39.8745472" lon="116.6674893">
        <ele>21.49019</ele>
        <time>2026-08-22T22:42:35Z</time>
      </trkpt>
      <trkpt lat="39.8744524" lon="116.667504">
        <ele>21.42923</ele>
        <time>2026-08-22T22:42:39Z</time>
      </trkpt>
      <trkpt lat="39.8743601" lon="116.667542">
        <ele>21.42901</ele>
        <time>2026-08-22T22:42:43Z</time>
      </trkpt>
      <trkpt lat="39.8742723" lon="116.6675887">
        <ele>21.41501</ele>
        <time>2026-08-22T22:42:47Z</time>
      </trkpt>
      <trkpt lat="39.8741868" lon="116.6676381">
        <ele>21.36768</ele>
        <time>2026-08-22T22:42:51Z</time>
      </trkpt>
      <trkpt lat="39.874101" lon="116.667693">
        <ele>21.323</ele>
        <time>2026-08-22T22:42:55Z</time>
      </trkpt>
      <trkpt lat="39.8740124" lon="116.6677437">
        <ele>21.30347</ele>
        <time>2026-08-22T22:42:59Z</time>
      </trkpt>
      <trkpt lat="39.8739172" lon="116.6677758">
        <ele>21.28227</ele>
        <time>2026-08-22T22:43:03Z</time>
      </trkpt>
      <trkpt lat="39.8738179" lon="116.6677903">
        <ele>21.26698</ele>
        <time>2026-08-22T22:43:07Z</time>
      </trkpt>
      <trkpt lat="39.8737174" lon="116.6677862">
        <ele>21.31775</ele>
        <time>2026-08-22T22:43:11Z</time>
      </trkpt>
      <trkpt lat="39.8736209" lon="116.6677657">
        <ele>21.50763</ele>
        <time>2026-08-22T22:43:14.998000Z</time>
      </trkpt>
      <trkpt lat="39.8735277" lon="116.6677409">
        <ele>21.79213</ele>
        <time>2026-08-22T22:43:18.980000Z</time>
      </trkpt>
      <trkpt lat="39.8734315" lon="116.6677291">
        <ele>22.03629</ele>
        <time>2026-08-22T22:43:22.961000Z</time>
      </trkpt>
      <trkpt lat="39.8733368" lon="116.667742">
        <ele>22.17561</ele>
        <time>2026-08-22T22:43:26.943000Z</time>
      </trkpt>
      <trkpt lat="39.8732501" lon="116.6677857">
        <ele>22.22683</ele>
        <time>2026-08-22T22:43:30.924000Z</time>
      </trkpt>
      <trkpt lat="39.8731633" lon="116.6678377">
        <ele>22.19387</ele>
        <time>2026-08-22T22:43:34.905000Z</time>
      </trkpt>
      <trkpt lat="39.8730698" lon="116.6678622">
        <ele>22.07064</ele>
        <time>2026-08-22T22:43:38.887000Z</time>
      </trkpt>
      <trkpt lat="39.8729708" lon="116.6678564">
        <ele>21.90998</ele>
        <time>2026-08-22T22:43:42.868000Z</time>
      </trkpt>
      <trkpt lat="39.8728736" lon="116.6678242">
        <ele>21.76638</ele>
        <time>2026-08-22T22:43:46.849000Z</time>
      </trkpt>
      <trkpt lat="39.8727829" lon="116.6677816">
        <ele>21.6577</ele>
        <time>2026-08-22T22:43:50.831000Z</time>
      </trkpt>
      <trkpt lat="39.8726936" lon="116.6677452">
        <ele>21.61407</ele>
        <time>2026-08-22T22:43:54.812000Z</time>
      </trkpt>
      <trkpt lat="39.8726005" lon="116.6677198">
        <ele>21.64066</ele>
        <time>2026-08-22T22:43:58.793000Z</time>
      </trkpt>
      <trkpt lat="39.8725047" lon="116.6677113">
        <ele>21.71305</ele>
        <time>2026-08-22T22:44:02.775000Z</time>
      </trkpt>
      <trkpt lat="39.8724077" lon="116.6677186">
        <ele>21.75738</ele>
        <time>2026-08-22T22:44:06.756000Z</time>
      </trkpt>
      <trkpt lat="39.872311" lon="116.6677349">
        <ele>21.71326</ele>
        <time>2026-08-22T22:44:10.738000Z</time>
      </trkpt>
      <trkpt lat="39.8722146" lon="116.6677474">
        <ele>21.59824</ele>
        <time>2026-08-22T22:44:14.719000Z</time>
      </trkpt>
      <trkpt lat="39.8721173" lon="116.667745">
        <ele>21.45799</ele>
        <time>2026-08-22T22:44:18.700000Z</time>
      </trkpt>
      <trkpt lat="39.8720182" lon="116.6677292">
        <ele>21.30529</ele>
        <time>2026-08-22T22:44:22.682000Z</time>
      </trkpt>
      <trkpt lat="39.8719218" lon="116.6676996">
        <ele>21.15702</ele>
        <time>2026-08-22T22:44:26.663000Z</time>
      </trkpt>
      <trkpt lat="39.8718287" lon="116.6676569">
        <ele>21.00021</ele>
        <time>2026-08-22T22:44:30.644000Z</time>
      </trkpt>
      <trkpt lat="39.8717361" lon="116.6676137">
        <ele>20.82673</ele>
        <time>2026-08-22T22:44:34.626000Z</time>
      </trkpt>
      <trkpt lat="39.8716381" lon="116.6675748">
        <ele>20.70051</ele>
        <time>2026-08-22T22:44:38.607000Z</time>
      </trkpt>
      <trkpt lat="39.8715371" lon="116.6675465">
        <ele>20.63575</ele>
        <time>2026-08-22T22:44:42.589000Z</time>
      </trkpt>
      <trkpt lat="39.8714372" lon="116.6675368">
        <ele>20.59573</ele>
        <time>2026-08-22T22:44:46.570000Z</time>
      </trkpt>
      <trkpt lat="39.8713401" lon="116.6675445">
        <ele>20.57876</ele>
        <time>2026-08-22T22:44:50.551000Z</time>
      </trkpt>
      <trkpt lat="39.8712481" lon="116.6675561">
        <ele>20.56555</ele>
        <time>2026-08-22T22:44:54.533000Z</time>
      </trkpt>
      <trkpt lat="39.8711572" lon="116.667574">
        <ele>20.54608</ele>
        <time>2026-08-22T22:44:58.514000Z</time>
      </trkpt>
      <trkpt lat="39.8710674" lon="116.6676041">
        <ele>20.50173</ele>
        <time>2026-08-22T22:45:02.495000Z</time>
      </trkpt>
      <trkpt lat="39.8709858" lon="116.6676951">
        <ele>20.47831</ele>
        <time>2026-08-22T22:45:07.472000Z</time>
      </trkpt>
      <trkpt lat="39.8709433" lon="116.6678232">
        <ele>20.58711</ele>
        <time>2026-08-22T22:45:12.449000Z</time>
      </trkpt>
      <trkpt lat="39.8708636" lon="116.6678832">
        <ele>20.84943</ele>
        <time>2026-08-22T22:45:17.426000Z</time>
      </trkpt>
      <trkpt lat="39.8707648" lon="116.66788">
        <ele>21.07302</ele>
        <time>2026-08-22T22:45:21.407000Z</time>
      </trkpt>
      <trkpt lat="39.8706617" lon="116.6678758">
        <ele>21.24823</ele>
        <time>2026-08-22T22:45:25.388000Z</time>
      </trkpt>
      <trkpt lat="39.870561" lon="116.6678787">
        <ele>21.3783</ele>
        <time>2026-08-22T22:45:29.370000Z</time>
      </trkpt>
      <trkpt lat="39.8704627" lon="116.6678851">
        <ele>21.49966</ele>
        <time>2026-08-22T22:45:33.351000Z</time>
      </trkpt>
      <trkpt lat="39.8703678" lon="116.6678599">
        <ele>21.63147</ele>
        <time>2026-08-22T22:45:37.332000Z</time>
      </trkpt>
      <trkpt lat="39.8702807" lon="116.6678094">
        <ele>21.73011</ele>
        <time>2026-08-22T22:45:41.314000Z</time>
      </trkpt>
      <trkpt lat="39.8701916" lon="116.6677838">
        <ele>21.76324</ele>
        <time>2026-08-22T22:45:45.295000Z</time>
      </trkpt>
      <trkpt lat="39.8700955" lon="116.6677905">
        <ele>21.72253</ele>
        <time>2026-08-22T22:45:49.277000Z</time>
      </trkpt>
      <trkpt lat="39.8700009" lon="116.6677886">
        <ele>21.63761</ele>
        <time>2026-08-22T22:45:53.258000Z</time>
      </trkpt>
      <trkpt lat="39.8699047" lon="116.667772">
        <ele>21.55346</ele>
        <time>2026-08-22T22:45:57.239000Z</time>
      </trkpt>
      <trkpt lat="39.8698066" lon="116.6677542">
        <ele>21.48989</ele>
        <time>2026-08-22T22:46:01.221000Z</time>
      </trkpt>
      <trkpt lat="39.8697068" lon="116.6677463">
        <ele>21.44816</ele>
        <time>2026-08-22T22:46:05.202000Z</time>
      </trkpt>
      <trkpt lat="39.8696142" lon="116.6677677">
        <ele>21.40563</ele>
        <time>2026-08-22T22:46:09Z</time>
      </trkpt>
      <trkpt lat="39.8695273" lon="116.6678387">
        <ele>21.32428</ele>
        <time>2026-08-22T22:46:13.165000Z</time>
      </trkpt>
      <trkpt lat="39.8694768" lon="116.6679465">
        <ele>21.24634</ele>
        <time>2026-08-22T22:46:17.146000Z</time>
      </trkpt>
      <trkpt lat="39.8694668" lon="116.6680741">
        <ele>21.2057</ele>
        <time>2026-08-22T22:46:21.127000Z</time>
      </trkpt>
      <trkpt lat="39.8694872" lon="116.6681981">
        <ele>21.18777</ele>
        <time>2026-08-22T22:46:25.109000Z</time>
      </trkpt>
      <trkpt lat="39.8695385" lon="116.6683028">
        <ele>21.10656</ele>
        <time>2026-08-22T22:46:29.090000Z</time>
      </trkpt>
      <trkpt lat="39.869614" lon="116.6683665">
        <ele>20.97196</ele>
        <time>2026-08-22T22:46:33Z</time>
      </trkpt>
      <trkpt lat="39.8697065" lon="116.6683661">
        <ele>20.85437</ele>
        <time>2026-08-22T22:46:37Z</time>
      </trkpt>
      <trkpt lat="39.8697997" lon="116.6683239">
        <ele>20.77345</ele>
        <time>2026-08-22T22:46:41Z</time>
      </trkpt>
      <trkpt lat="39.8698955" lon="116.6682925">
        <ele>20.74653</ele>
        <time>2026-08-22T22:46:45Z</time>
      </trkpt>
      <trkpt lat="39.8699952" lon="116.6682895">
        <ele>20.81782</ele>
        <time>2026-08-22T22:46:48.997000Z</time>
      </trkpt>
      <trkpt lat="39.8700955" lon="116.6682854">
        <ele>20.9399</ele>
        <time>2026-08-22T22:46:52.978000Z</time>
      </trkpt>
      <trkpt lat="39.8701922" lon="116.6682599">
        <ele>20.99248</ele>
        <time>2026-08-22T22:46:56.960000Z</time>
      </trkpt>
      <trkpt lat="39.870284" lon="116.6682108">
        <ele>20.96447</ele>
        <time>2026-08-22T22:47:00.941000Z</time>
      </trkpt>
      <trkpt lat="39.8703744" lon="116.6681472">
        <ele>20.90477</ele>
        <time>2026-08-22T22:47:04.923000Z</time>
      </trkpt>
      <trkpt lat="39.8704728" lon="116.6681065">
        <ele>20.83353</ele>
        <time>2026-08-22T22:47:08.904000Z</time>
      </trkpt>
      <trkpt lat="39.870572" lon="116.6680992">
        <ele>20.77802</ele>
        <time>2026-08-22T22:47:12.885000Z</time>
      </trkpt>
      <trkpt lat="39.870671" lon="116.6681198">
        <ele>20.78305</ele>
        <time>2026-08-22T22:47:16.867000Z</time>
      </trkpt>
      <trkpt lat="39.8707707" lon="116.6681475">
        <ele>20.82333</ele>
        <time>2026-08-22T22:47:20.848000Z</time>
      </trkpt>
      <trkpt lat="39.8708766" lon="116.6681476">
        <ele>20.83171</ele>
        <time>2026-08-22T22:47:24.829000Z</time>
      </trkpt>
      <trkpt lat="39.8709814" lon="116.6681205">
        <ele>20.81631</ele>
        <time>2026-08-22T22:47:28.811000Z</time>
      </trkpt>
      <trkpt lat="39.8710748" lon="116.6680745">
        <ele>20.7943</ele>
        <time>2026-08-22T22:47:32.792000Z</time>
      </trkpt>
      <trkpt lat="39.8711605" lon="116.6680086">
        <ele>20.76363</ele>
        <time>2026-08-22T22:47:36.773000Z</time>
      </trkpt>
      <trkpt lat="39.8712472" lon="116.667957">
        <ele>20.68983</ele>
        <time>2026-08-22T22:47:40.755000Z</time>
      </trkpt>
      <trkpt lat="39.8713425" lon="116.6679414">
        <ele>20.57916</ele>
        <time>2026-08-22T22:47:44.736000Z</time>
      </trkpt>
      <trkpt lat="39.8714516" lon="116.6679539">
        <ele>20.48848</ele>
        <time>2026-08-22T22:47:48.718000Z</time>
      </trkpt>
      <trkpt lat="39.871558" lon="116.6679874">
        <ele>20.43378</ele>
        <time>2026-08-22T22:47:52.699000Z</time>
      </trkpt>
      <trkpt lat="39.8716553" lon="116.6680414">
        <ele>20.42581</ele>
        <time>2026-08-22T22:47:56.680000Z</time>
      </trkpt>
      <trkpt lat="39.8717474" lon="116.6681039">
        <ele>20.45893</ele>
        <time>2026-08-22T22:48:00.662000Z</time>
      </trkpt>
      <trkpt lat="39.8718451" lon="116.6681587">
        <ele>20.54639</ele>
        <time>2026-08-22T22:48:04.643000Z</time>
      </trkpt>
      <trkpt lat="39.8719494" lon="116.668193">
        <ele>20.70714</ele>
        <time>2026-08-22T22:48:08.624000Z</time>
      </trkpt>
      <trkpt lat="39.8720519" lon="116.6682066">
        <ele>20.90226</ele>
        <time>2026-08-22T22:48:12.606000Z</time>
      </trkpt>
      <trkpt lat="39.8721529" lon="116.6682133">
        <ele>21.09098</ele>
        <time>2026-08-22T22:48:16.587000Z</time>
      </trkpt>
      <trkpt lat="39.8722541" lon="116.6682318">
        <ele>21.23873</ele>
        <time>2026-08-22T22:48:20.569000Z</time>
      </trkpt>
      <trkpt lat="39.8723517" lon="116.6682789">
        <ele>21.30789</ele>
        <time>2026-08-22T22:48:24.550000Z</time>
      </trkpt>
      <trkpt lat="39.8724363" lon="116.6683549">
        <ele>21.29061</ele>
        <time>2026-08-22T22:48:28.531000Z</time>
      </trkpt>
      <trkpt lat="39.8725055" lon="116.6684505">
        <ele>21.21974</ele>
        <time>2026-08-22T22:48:32.513000Z</time>
      </trkpt>
      <trkpt lat="39.8725653" lon="116.6685582">
        <ele>21.14142</ele>
        <time>2026-08-22T22:48:36.494000Z</time>
      </trkpt>
      <trkpt lat="39.8726045" lon="116.6686803">
        <ele>21.09141</ele>
        <time>2026-08-22T22:48:40.475000Z</time>
      </trkpt>
      <trkpt lat="39.8726117" lon="116.668813">
        <ele>21.0874</ele>
        <time>2026-08-22T22:48:44.457000Z</time>
      </trkpt>
      <trkpt lat="39.8725986" lon="116.6689478">
        <ele>21.12379</ele>
        <time>2026-08-22T22:48:48.438000Z</time>
      </trkpt>
      <trkpt lat="39.8725684" lon="116.6690764">
        <ele>21.17988</ele>
        <time>2026-08-22T22:48:52.419000Z</time>
      </trkpt>
      <trkpt lat="39.8725358" lon="116.6692011">
        <ele>21.22399</ele>
        <time>2026-08-22T22:48:56.401000Z</time>
      </trkpt>
      <trkpt lat="39.872508" lon="116.6693244">
        <ele>21.26373</ele>
        <time>2026-08-22T22:49:00.382000Z</time>
      </trkpt>
      <trkpt lat="39.8724925" lon="116.669451">
        <ele>21.30686</ele>
        <time>2026-08-22T22:49:04.364000Z</time>
      </trkpt>
      <trkpt lat="39.8724901" lon="116.6695825">
        <ele>21.35641</ele>
        <time>2026-08-22T22:49:08.345000Z</time>
      </trkpt>
      <trkpt lat="39.8725029" lon="116.6697102">
        <ele>21.40305</ele>
        <time>2026-08-22T22:49:12.326000Z</time>
      </trkpt>
      <trkpt lat="39.8725346" lon="116.6698344">
        <ele>21.41257</ele>
        <time>2026-08-22T22:49:16.308000Z</time>
      </trkpt>
      <trkpt lat="39.8725918" lon="116.6699404">
        <ele>21.40919</ele>
        <time>2026-08-22T22:49:20.289000Z</time>
      </trkpt>
      <trkpt lat="39.8726673" lon="116.6700247">
        <ele>21.39926</ele>
        <time>2026-08-22T22:49:24.270000Z</time>
      </trkpt>
      <trkpt lat="39.8727507" lon="116.6700826">
        <ele>21.36653</ele>
        <time>2026-08-22T22:49:28.252000Z</time>
      </trkpt>
      <trkpt lat="39.8728406" lon="116.6701241">
        <ele>21.31987</ele>
        <time>2026-08-22T22:49:32.233000Z</time>
      </trkpt>
      <trkpt lat="39.8729309" lon="116.6701512">
        <ele>21.27125</ele>
        <time>2026-08-22T22:49:36.214000Z</time>
      </trkpt>
      <trkpt lat="39.8730262" lon="116.6701559">
        <ele>21.2381</ele>
        <time>2026-08-22T22:49:40.196000Z</time>
      </trkpt>
      <trkpt lat="39.8731169" lon="116.67014">
        <ele>21.23108</ele>
        <time>2026-08-22T22:49:44Z</time>
      </trkpt>
      <trkpt lat="39.8732115" lon="116.6701152">
        <ele>21.23725</ele>
        <time>2026-08-22T22:49:48Z</time>
      </trkpt>
      <trkpt lat="39.8733078" lon="116.6700878">
        <ele>21.25213</ele>
        <time>2026-08-22T22:49:52.140000Z</time>
      </trkpt>
      <trkpt lat="39.8733998" lon="116.6700521">
        <ele>21.26096</ele>
        <time>2026-08-22T22:49:56.121000Z</time>
      </trkpt>
      <trkpt lat="39.8734844" lon="116.6699871">
        <ele>21.25521</ele>
        <time>2026-08-22T22:50:00.103000Z</time>
      </trkpt>
      <trkpt lat="39.8735629" lon="116.6699089">
        <ele>21.25159</ele>
        <time>2026-08-22T22:50:04.084000Z</time>
      </trkpt>
      <trkpt lat="39.8736434" lon="116.6698358">
        <ele>21.258</ele>
        <time>2026-08-22T22:50:08.065000Z</time>
      </trkpt>
      <trkpt lat="39.8737313" lon="116.6697841">
        <ele>21.27573</ele>
        <time>2026-08-22T22:50:12.047000Z</time>
      </trkpt>
      <trkpt lat="39.8738267" lon="116.6697649">
        <ele>21.30186</ele>
        <time>2026-08-22T22:50:16.028000Z</time>
      </trkpt>
      <trkpt lat="39.8739244" lon="116.6697794">
        <ele>21.32515</ele>
        <time>2026-08-22T22:50:20Z</time>
      </trkpt>
      <trkpt lat="39.8740213" lon="116.669805">
        <ele>21.37564</ele>
        <time>2026-08-22T22:50:23.991000Z</time>
      </trkpt>
      <trkpt lat="39.8741209" lon="116.6698173">
        <ele>21.42132</ele>
        <time>2026-08-22T22:50:27.972000Z</time>
      </trkpt>
      <trkpt lat="39.8742165" lon="116.6698007">
        <ele>21.44193</ele>
        <time>2026-08-22T22:50:31.953000Z</time>
      </trkpt>
      <trkpt lat="39.8743022" lon="116.6697423">
        <ele>21.45104</ele>
        <time>2026-08-22T22:50:35.935000Z</time>
      </trkpt>
      <trkpt lat="39.8743759" lon="116.6696558">
        <ele>21.49968</ele>
        <time>2026-08-22T22:50:39.916000Z</time>
      </trkpt>
      <trkpt lat="39.8744467" lon="116.6695675">
        <ele>21.62138</ele>
        <time>2026-08-22T22:50:43.898000Z</time>
      </trkpt>
      <trkpt lat="39.8745293" lon="116.6694972">
        <ele>21.77764</ele>
        <time>2026-08-22T22:50:47.879000Z</time>
      </trkpt>
      <trkpt lat="39.8746252" lon="116.6694769">
        <ele>21.91451</ele>
        <time>2026-08-22T22:50:51.860000Z</time>
      </trkpt>
      <trkpt lat="39.8747219" lon="116.6695041">
        <ele>22.0688</ele>
        <time>2026-08-22T22:50:55.842000Z</time>
      </trkpt>
      <trkpt lat="39.8748184" lon="116.6695536">
        <ele>22.28117</ele>
        <time>2026-08-22T22:50:59.823000Z</time>
      </trkpt>
      <trkpt lat="39.8749108" lon="116.6696162">
        <ele>22.54492</ele>
        <time>2026-08-22T22:51:03.804000Z</time>
      </trkpt>
      <trkpt lat="39.8750033" lon="116.6696739">
        <ele>22.80665</ele>
        <time>2026-08-22T22:51:07.786000Z</time>
      </trkpt>
      <trkpt lat="39.8751" lon="116.669693">
        <ele>23.01819</ele>
        <time>2026-08-22T22:51:11.767000Z</time>
      </trkpt>
      <trkpt lat="39.8751918" lon="116.6696472">
        <ele>23.17768</ele>
        <time>2026-08-22T22:51:15.748000Z</time>
      </trkpt>
      <trkpt lat="39.8752729" lon="116.6695743">
        <ele>23.30989</ele>
        <time>2026-08-22T22:51:19.730000Z</time>
      </trkpt>
      <trkpt lat="39.8753601" lon="116.6695281">
        <ele>23.39615</ele>
        <time>2026-08-22T22:51:23.711000Z</time>
      </trkpt>
      <trkpt lat="39.8754549" lon="116.6695057">
        <ele>23.42113</ele>
        <time>2026-08-22T22:51:27.692000Z</time>
      </trkpt>
      <trkpt lat="39.8755461" lon="116.6694632">
        <ele>23.40632</ele>
        <time>2026-08-22T22:51:31.674000Z</time>
      </trkpt>
      <trkpt lat="39.8756171" lon="116.6693868">
        <ele>23.34257</ele>
        <time>2026-08-22T22:51:35.655000Z</time>
      </trkpt>
      <trkpt lat="39.8756571" lon="116.6692587">
        <ele>23.18958</ele>
        <time>2026-08-22T22:51:40.641000Z</time>
      </trkpt>
    </trkseg>
  </trk>
</gpx>