<?xml version="1.0" encoding="UTF-8"?>
<gpx xmlns="http://www.topografix.com/GPX/1/1" xmlns:gpxtpx="http://www.garmin.com/xmlschemas/TrackPointExtension/v1" xmlns:xsi="http://www.w3.org/2001/XMLSchema-instance" xsi:schemaLocation="http://www.topografix.com/GPX/1/1 http://www.topografix.com/GPX/1/1/gpx.xsd" version="1.1" creator="gpx.py -- https://github.com/tkrajina/gpxpy">
  <trk>
    <name>gpx from codoon</name>
    <type>Run</type>
    <trkseg>
      <trkpt lat="39.8729071" lon="116.6655547">
        <ele>23.18837</ele>
        <time>2026-08-23T22:11:35.614000Z</time>
      </trkpt>
      <trkpt lat="39.8729964" lon="116.6655904">
        <ele>23.2275</ele>
        <time>2026-08-23T22:11:43.675000Z</time>
      </trkpt>
      <trkpt lat="39.8730819" lon="116.665628">
        <ele>23.16276</ele>
        <time>2026-08-23T22:11:49.647000Z</time>
      </trkpt>
      <trkpt lat="39.8731629" lon="116.6657076">
        <ele>23.02058</ele>
        <time>2026-08-23T22:11:55.619000Z</time>
      </trkpt>
      <trkpt lat="39.8732433" lon="116.66577">
        <ele>22.78177</ele>
        <time>2026-08-23T22:12:00.595000Z</time>
      </trkpt>
      <trkpt lat="39.8733436" lon="116.6657979">
        <ele>22.53536</ele>
        <time>2026-08-23T22:12:05.572000Z</time>
      </trkpt>
      <trkpt lat="39.8734487" lon="116.6658215">
        <ele>22.37361</ele>
        <time>2026-08-23T22:12:10.549000Z</time>
      </trkpt>
      <trkpt lat="39.8735471" lon="116.6658031">
        <ele>22.3685</ele>
        <time>2026-08-23T22:12:15.525000Z</time>
      </trkpt>
      <trkpt lat="39.8736365" lon="116.6657466">
        <ele>22.47487</ele>
        <time>2026-08-23T22:12:20.502000Z</time>
      </trkpt>
      <trkpt lat="39.8737294" lon="116.6657007">
        <ele>22.6647</ele>
        <time>2026-08-23T22:12:25.478000Z</time>
      </trkpt>
      <trkpt lat="39.8738249" lon="116.6656535">
        <ele>22.86385</ele>
        <time>2026-08-23T22:12:30.455000Z</time>
      </trkpt>
      <trkpt lat="39.8739262" lon="116.6655904">
        <ele>23.04911</ele>
        <time>2026-08-23T22:12:35.431000Z</time>
      </trkpt>
      <trkpt lat="39.87403" lon="116.6655365">
        <ele>23.25888</ele>
        <time>2026-08-23T22:12:40.408000Z</time>
      </trkpt>
      <trkpt lat="39.8741378" lon="116.6654952">
        <ele>23.45869</ele>
        <time>2026-08-23T22:12:45.384000Z</time>
      </trkpt>
      <trkpt lat="39.8742445" lon="116.66546">
        <ele>23.55981</ele>
        <time>2026-08-23T22:12:50.361000Z</time>
      </trkpt>
      <trkpt lat="39.8743532" lon="116.6654475">
        <ele>23.49465</ele>
        <time>2026-08-23T22:12:55.337000Z</time>
      </trkpt>
      <trkpt lat="39.874439" lon="116.6655186">
        <ele>23.37614</ele>
        <time>2026-08-23T22:13:00.314000Z</time>
      </trkpt>
      <trkpt lat="39.8745028" lon="116.6656391">
        <ele>23.27898</ele>
        <time>2026-08-23T22:13:05.290000Z</time>
      </trkpt>
      <trkpt lat="39.8745623" lon="116.6657623">
        <ele>23.11638</ele>
        <time>2026-08-23T22:13:10.267000Z</time>
      </trkpt>
      <trkpt lat="39.8746112" lon="116.6658614">
        <ele>22.95972</ele>
        <time>2026-08-23T22:13:14.248000Z</time>
      </trkpt>
      <trkpt lat="39.8746617" lon="116.6659593">
        <ele>22.84549</ele>
        <time>2026-08-23T22:13:18.229000Z</time>
      </trkpt>
      <trkpt lat="39.8747166" lon="116.6660535">
        <ele>22.78069</ele>
        <time>2026-08-23T22:13:22.210000Z</time>
      </trkpt>
      <trkpt lat="39.8747721" lon="116.6661456">
        <ele>22.78909</ele>
        <time>2026-08-23T22:13:26.191000Z</time>
      </trkpt>
      <trkpt lat="39.8748382" lon="116.6662648">
        <ele>22.94321</ele>
        <time>2026-08-23T22:13:31.168000Z</time>
      </trkpt>
      <trkpt lat="39.8748877" lon="116.6663679">
        <ele>23.24826</ele>
        <time>2026-08-23T22:13:35.149000Z</time>
      </trkpt>
      <trkpt lat="39.8749317" lon="116.6664725">
        <ele>23.60744</ele>
        <time>2026-08-23T22:13:38.939000Z</time>
      </trkpt>
      <trkpt lat="39.8749881" lon="116.6665744">
        <ele>23.82594</ele>
        <time>2026-08-23T22:13:42.939000Z</time>
      </trkpt>
      <trkpt lat="39.8750507" lon="116.666671">
        <ele>23.88112</ele>
        <time>2026-08-23T22:13:47Z</time>
      </trkpt>
      <trkpt lat="39.8751128" lon="116.6667663">
        <ele>23.913</ele>
        <time>2026-08-23T22:13:51Z</time>
      </trkpt>
      <trkpt lat="39.8751747" lon="116.6668586">
        <ele>23.96742</ele>
        <time>2026-08-23T22:13:55Z</time>
      </trkpt>
      <trkpt lat="39.8752391" lon="116.666946">
        <ele>24.00375</ele>
        <time>2026-08-23T22:13:59Z</time>
      </trkpt>
      <trkpt lat="39.8752987" lon="116.6670411">
        <ele>24.03282</ele>
        <time>2026-08-23T22:14:03Z</time>
      </trkpt>
      <trkpt lat="39.8753566" lon="116.6671405">
        <ele>24.07328</ele>
        <time>2026-08-23T22:14:07Z</time>
      </trkpt>
      <trkpt lat="39.8754182" lon="116.6672432">
        <ele>24.12255</ele>
        <time>2026-08-23T22:14:11Z</time>
      </trkpt>
      <trkpt lat="39.8754819" lon="116.6673419">
        <ele>24.16358</ele>
        <time>2026-08-23T22:14:15Z</time>
      </trkpt>
      <trkpt lat="39.8755451" lon="116.6674371">
        <ele>24.07385</ele>
        <time>2026-08-23T22:14:19Z</time>
      </trkpt>
      <trkpt lat="39.8756036" lon="116.6675306">
        <ele>23.82189</ele>
        <time>2026-08-23T22:14:22.983000Z</time>
      </trkpt>
      <trkpt lat="39.8756561" lon="116.6676289">
        <ele>23.5879</ele>
        <time>2026-08-23T22:14:26.964000Z</time>
      </trkpt>
      <trkpt lat="39.875711" lon="116.6677226">
        <ele>23.46096</ele>
        <time>2026-08-23T22:14:30.945000Z</time>
      </trkpt>
      <trkpt lat="39.8757536" lon="116.6678359">
        <ele>23.44723</ele>
        <time>2026-08-23T22:14:35.921000Z</time>
      </trkpt>
      <trkpt lat="39.8756741" lon="116.6679064">
        <ele>23.47307</ele>
        <time>2026-08-23T22:14:40.898000Z</time>
      </trkpt>
      <trkpt lat="39.8756122" lon="116.6680124">
        <ele>23.37592</ele>
        <time>2026-08-23T22:14:45.874000Z</time>
      </trkpt>
      <trkpt lat="39.8755425" lon="116.668099">
        <ele>23.21395</ele>
        <time>2026-08-23T22:14:50.850000Z</time>
      </trkpt>
      <trkpt lat="39.8754329" lon="116.6680928">
        <ele>23.02946</ele>
        <time>2026-08-23T22:14:55.827000Z</time>
      </trkpt>
      <trkpt lat="39.8753274" lon="116.6680438">
        <ele>22.8618</ele>
        <time>2026-08-23T22:15:00.803000Z</time>
      </trkpt>
      <trkpt lat="39.8752447" lon="116.6679941">
        <ele>22.76642</ele>
        <time>2026-08-23T22:15:04.784000Z</time>
      </trkpt>
      <trkpt lat="39.875169" lon="116.6678958">
        <ele>22.67247</ele>
        <time>2026-08-23T22:15:09.761000Z</time>
      </trkpt>
      <trkpt lat="39.8751268" lon="116.6677639">
        <ele>22.57209</ele>
        <time>2026-08-23T22:15:14.737000Z</time>
      </trkpt>
      <trkpt lat="39.8750713" lon="116.6676658">
        <ele>22.45978</ele>
        <time>2026-08-23T22:15:18.718000Z</time>
      </trkpt>
      <trkpt lat="39.8749946" lon="116.6675874">
        <ele>22.34107</ele>
        <time>2026-08-23T22:15:22.699000Z</time>
      </trkpt>
      <trkpt lat="39.8749034" lon="116.6675267">
        <ele>22.26437</ele>
        <time>2026-08-23T22:15:26.680000Z</time>
      </trkpt>
      <trkpt lat="39.8748085" lon="116.667482">
        <ele>22.25319</ele>
        <time>2026-08-23T22:15:30.661000Z</time>
      </trkpt>
      <trkpt lat="39.874712" lon="116.6674616">
        <ele>22.30482</ele>
        <time>2026-08-23T22:15:34.642000Z</time>
      </trkpt>
      <trkpt lat="39.8746143" lon="116.6674639">
        <ele>22.38605</ele>
        <time>2026-08-23T22:15:38.623000Z</time>
      </trkpt>
      <trkpt lat="39.8745154" lon="116.6674628">
        <ele>22.44521</ele>
        <time>2026-08-23T22:15:42.604000Z</time>
      </trkpt>
      <trkpt lat="39.87442" lon="116.6674793">
        <ele>22.43079</ele>
        <time>2026-08-23T22:15:46.585000Z</time>
      </trkpt>
      <trkpt lat="39.8743261" lon="116.6675125">
        <ele>22.33421</ele>
        <time>2026-08-23T22:15:50.566000Z</time>
      </trkpt>
      <trkpt lat="39.874237" lon="116.6675606">
        <ele>22.18547</ele>
        <time>2026-08-23T22:15:54.547000Z</time>
      </trkpt>
      <trkpt lat="39.8741523" lon="116.6676183">
        <ele>22.05751</ele>
        <time>2026-08-23T22:15:58.528000Z</time>
      </trkpt>
      <trkpt lat="39.8740719" lon="116.6676808">
        <ele>22.00069</ele>
        <time>2026-08-23T22:16:02.509000Z</time>
      </trkpt>
      <trkpt lat="39.8739784" lon="116.6677536">
        <ele>21.99786</ele>
        <time>2026-08-23T22:16:07.486000Z</time>
      </trkpt>
      <trkpt lat="39.8738884" lon="116.6678036">
        <ele>22.02881</ele>
        <time>2026-08-23T22:16:12.462000Z</time>
      </trkpt>
      <trkpt lat="39.8737933" lon="116.6678029">
        <ele>22.0644</ele>
        <time>2026-08-23T22:16:18Z</time>
      </trkpt>
      <trkpt lat="39.8736897" lon="116.6677966">
        <ele>22.03402</ele>
        <time>2026-08-23T22:16:26Z</time>
      </trkpt>
      <trkpt lat="39.8735924" lon="116.6677764">
        <ele>22.07285</ele>
        <time>2026-08-23T22:16:31Z</time>
      </trkpt>
      <trkpt lat="39.8734945" lon="116.6677525">
        <ele>22.07463</ele>
        <time>2026-08-23T22:16:36Z</time>
      </trkpt>
      <trkpt lat="39.8733992" lon="116.6677487">
        <ele>21.9984</ele>
        <time>2026-08-23T22:16:41Z</time>
      </trkpt>
      <trkpt lat="39.8733442" lon="116.6677541">
        <ele>21.86467</ele>
        <time>2026-08-23T22:16:49Z</time>
      </trkpt>
      <trkpt lat="39.8734473" lon="116.6677269">
        <ele>21.98622</ele>
        <time>2026-08-23T22:16:55Z</time>
      </trkpt>
      <trkpt lat="39.8735376" lon="116.6677279">
        <ele>22.06422</ele>
        <time>2026-08-23T22:16:59Z</time>
      </trkpt>
      <trkpt lat="39.8736322" lon="116.6677357">
        <ele>22.0147</ele>
        <time>2026-08-23T22:17:03.221000Z</time>
      </trkpt>
      <trkpt lat="39.8737426" lon="116.6677586">
        <ele>21.9062</ele>
        <time>2026-08-23T22:17:08.197000Z</time>
      </trkpt>
      <trkpt lat="39.8738331" lon="116.667764">
        <ele>21.86199</ele>
        <time>2026-08-23T22:17:12.178000Z</time>
      </trkpt>
      <trkpt lat="39.8739434" lon="116.667749">
        <ele>21.88601</ele>
        <time>2026-08-23T22:17:17.154000Z</time>
      </trkpt>
      <trkpt lat="39.8740483" lon="116.667717">
        <ele>22.0326</ele>
        <time>2026-08-23T22:17:22.131000Z</time>
      </trkpt>
      <trkpt lat="39.8741379" lon="116.667661">
        <ele>22.24199</ele>
        <time>2026-08-23T22:17:27Z</time>
      </trkpt>
      <trkpt lat="39.8742226" lon="116.6675876">
        <ele>22.36158</ele>
        <time>2026-08-23T22:17:32Z</time>
      </trkpt>
      <trkpt lat="39.8743185" lon="116.6675244">
        <ele>22.39162</ele>
        <time>2026-08-23T22:17:37.060000Z</time>
      </trkpt>
      <trkpt lat="39.8744218" lon="116.6674775">
        <ele>22.40694</ele>
        <time>2026-08-23T22:17:42.036000Z</time>
      </trkpt>
      <trkpt lat="39.8745307" lon="116.6674516">
        <ele>22.40083</ele>
        <time>2026-08-23T22:17:47.012000Z</time>
      </trkpt>
      <trkpt lat="39.8746209" lon="116.6674616">
        <ele>22.37477</ele>
        <time>2026-08-23T22:17:50.993000Z</time>
      </trkpt>
      <trkpt lat="39.8747102" lon="116.6674815">
        <ele>22.33921</ele>
        <time>2026-08-23T22:17:54.974000Z</time>
      </trkpt>
      <trkpt lat="39.874798" lon="116.6675098">
        <ele>22.30748</ele>
        <time>2026-08-23T22:17:58.955000Z</time>
      </trkpt>
      <trkpt lat="39.8748867" lon="116.6675412">
        <ele>22.28844</ele>
        <time>2026-08-23T22:18:02.936000Z</time>
      </trkpt>
      <trkpt lat="39.8749926" lon="116.6675833">
        <ele>22.30559</ele>
        <time>2026-08-23T22:18:07.913000Z</time>
      </trkpt>
      <trkpt lat="39.8750849" lon="116.6676664">
        <ele>22.39402</ele>
        <time>2026-08-23T22:18:12.889000Z</time>
      </trkpt>
      <trkpt lat="39.8751605" lon="116.6677717">
        <ele>22.55396</ele>
        <time>2026-08-23T22:18:17.865000Z</time>
      </trkpt>
      <trkpt lat="39.8752086" lon="116.6678726">
        <ele>22.70244</ele>
        <time>2026-08-23T22:18:21.846000Z</time>
      </trkpt>
      <trkpt lat="39.875247" lon="116.6679823">
        <ele>22.84393</ele>
        <time>2026-08-23T22:18:25.827000Z</time>
      </trkpt>
      <trkpt lat="39.8752788" lon="116.6680983">
        <ele>22.95748</ele>
        <time>2026-08-23T22:18:29.808000Z</time>
      </trkpt>
      <trkpt lat="39.8753045" lon="116.6682146">
        <ele>23.0176</ele>
        <time>2026-08-23T22:18:33.789000Z</time>
      </trkpt>
      <trkpt lat="39.8753317" lon="116.6683268">
        <ele>23.02027</ele>
        <time>2026-08-23T22:18:37.771000Z</time>
      </trkpt>
      <trkpt lat="39.8753596" lon="116.6684416">
        <ele>23.01305</ele>
        <time>2026-08-23T22:18:41.752000Z</time>
      </trkpt>
      <trkpt lat="39.8754169" lon="116.6685621">
        <ele>23.05626</ele>
        <time>2026-08-23T22:18:46.728000Z</time>
      </trkpt>
      <trkpt lat="39.8755001" lon="116.6686573">
        <ele>23.13021</ele>
        <time>2026-08-23T22:18:51.704000Z</time>
      </trkpt>
      <trkpt lat="39.8755857" lon="116.6687502">
        <ele>23.16205</ele>
        <time>2026-08-23T22:18:56.680000Z</time>
      </trkpt>
      <trkpt lat="39.8756431" lon="116.6688747">
        <ele>23.14492</ele>
        <time>2026-08-23T22:19:01.657000Z</time>
      </trkpt>
      <trkpt lat="39.8756716" lon="116.6689908">
        <ele>23.12559</ele>
        <time>2026-08-23T22:19:05.638000Z</time>
      </trkpt>
      <trkpt lat="39.875685" lon="116.6691191">
        <ele>23.09836</ele>
        <time>2026-08-23T22:19:09.619000Z</time>
      </trkpt>
      <trkpt lat="39.8756726" lon="116.6692472">
        <ele>23.03207</ele>
        <time>2026-08-23T22:19:13.600000Z</time>
      </trkpt>
      <trkpt lat="39.8756234" lon="116.6693603">
        <ele>22.88376</ele>
        <time>2026-08-23T22:19:17.581000Z</time>
      </trkpt>
      <trkpt lat="39.875547" lon="116.6694403">
        <ele>22.69289</ele>
        <time>2026-08-23T22:19:21.562000Z</time>
      </trkpt>
      <trkpt lat="39.8754557" lon="116.6694802">
        <ele>22.51493</ele>
        <time>2026-08-23T22:19:25.543000Z</time>
      </trkpt>
      <trkpt lat="39.8753631" lon="116.6695079">
        <ele>22.37701</ele>
        <time>2026-08-23T22:19:29.524000Z</time>
      </trkpt>
      <trkpt lat="39.8752694" lon="116.6695806">
        <ele>22.31029</ele>
        <time>2026-08-23T22:19:34.500000Z</time>
      </trkpt>
      <trkpt lat="39.8751866" lon="116.6696699">
        <ele>22.39886</ele>
        <time>2026-08-23T22:19:39.477000Z</time>
      </trkpt>
      <trkpt lat="39.8750958" lon="116.6696877">
        <ele>22.47221</ele>
        <time>2026-08-23T22:19:43.458000Z</time>
      </trkpt>
      <trkpt lat="39.8750015" lon="116.6696481">
        <ele>22.45068</ele>
        <time>2026-08-23T22:19:47.439000Z</time>
      </trkpt>
      <trkpt lat="39.8749083" lon="116.6695997">
        <ele>22.35887</ele>
        <time>2026-08-23T22:19:51.420000Z</time>
      </trkpt>
      <trkpt lat="39.8748145" lon="116.6695572">
        <ele>22.25875</ele>
        <time>2026-08-23T22:19:55.401000Z</time>
      </trkpt>
      <trkpt lat="39.874716" lon="116.669529">
        <ele>22.165</ele>
        <time>2026-08-23T22:19:59.382000Z</time>
      </trkpt>
      <trkpt lat="39.8746196" lon="116.6695369">
        <ele>22.06422</ele>
        <time>2026-08-23T22:20:03.363000Z</time>
      </trkpt>
      <trkpt lat="39.8745328" lon="116.6695848">
        <ele>21.92804</ele>
        <time>2026-08-23T22:20:07.344000Z</time>
      </trkpt>
      <trkpt lat="39.8744631" lon="116.6696607">
        <ele>21.77201</ele>
        <time>2026-08-23T22:20:11.325000Z</time>
      </trkpt>
      <trkpt lat="39.8743881" lon="116.6697617">
        <ele>21.63599</ele>
        <time>2026-08-23T22:20:16.301000Z</time>
      </trkpt>
      <trkpt lat="39.8743007" lon="116.6698542">
        <ele>21.62933</ele>
        <time>2026-08-23T22:20:21.277000Z</time>
      </trkpt>
      <trkpt lat="39.8742106" lon="116.6698953">
        <ele>21.65301</ele>
        <time>2026-08-23T22:20:25.258000Z</time>
      </trkpt>
      <trkpt lat="39.8741134" lon="116.6699069">
        <ele>21.66721</ele>
        <time>2026-08-23T22:20:29.239000Z</time>
      </trkpt>
      <trkpt lat="39.8740142" lon="116.6698905">
        <ele>21.69202</ele>
        <time>2026-08-23T22:20:33.220000Z</time>
      </trkpt>
      <trkpt lat="39.8739188" lon="116.6698658">
        <ele>21.72252</ele>
        <time>2026-08-23T22:20:37.201000Z</time>
      </trkpt>
      <trkpt lat="39.8738286" lon="116.6698502">
        <ele>21.7408</ele>
        <time>2026-08-23T22:20:41Z</time>
      </trkpt>
      <trkpt lat="39.8737357" lon="116.6698601">
        <ele>21.73909</ele>
        <time>2026-08-23T22:20:45Z</time>
      </trkpt>
      <trkpt lat="39.8736354" lon="116.6699234">
        <ele>21.71764</ele>
        <time>2026-08-23T22:20:50Z</time>
      </trkpt>
      <trkpt lat="39.8735595" lon="116.6699977">
        <ele>21.69874</ele>
        <time>2026-08-23T22:20:54Z</time>
      </trkpt>
      <trkpt lat="39.873474" lon="116.6700689">
        <ele>21.69153</ele>
        <time>2026-08-23T22:20:58Z</time>
      </trkpt>
      <trkpt lat="39.8733781" lon="116.6701242">
        <ele>21.67206</ele>
        <time>2026-08-23T22:21:02.083000Z</time>
      </trkpt>
      <trkpt lat="39.8732796" lon="116.6701605">
        <ele>21.64748</ele>
        <time>2026-08-23T22:21:06Z</time>
      </trkpt>
      <trkpt lat="39.8731834" lon="116.6701981">
        <ele>21.61373</ele>
        <time>2026-08-23T22:21:10Z</time>
      </trkpt>
      <trkpt lat="39.8730864" lon="116.670213">
        <ele>21.57084</ele>
        <time>2026-08-23T22:21:14Z</time>
      </trkpt>
      <trkpt lat="39.8729883" lon="116.6702088">
        <ele>21.54395</ele>
        <time>2026-08-23T22:21:18Z</time>
      </trkpt>
      <trkpt lat="39.8728897" lon="116.6701872">
        <ele>21.56797</ele>
        <time>2026-08-23T22:21:21.988000Z</time>
      </trkpt>
      <trkpt lat="39.8727934" lon="116.6701513">
        <ele>21.62093</ele>
        <time>2026-08-23T22:21:25.969000Z</time>
      </trkpt>
      <trkpt lat="39.8726993" lon="116.670094">
        <ele>21.65316</ele>
        <time>2026-08-23T22:21:29.950000Z</time>
      </trkpt>
      <trkpt lat="39.8726191" lon="116.6700116">
        <ele>21.64916</ele>
        <time>2026-08-23T22:21:33.931000Z</time>
      </trkpt>
      <trkpt lat="39.8725535" lon="116.6699047">
        <ele>21.61934</ele>
        <time>2026-08-23T22:21:37.912000Z</time>
      </trkpt>
      <trkpt lat="39.8725104" lon="116.6697786">
        <ele>21.56881</ele>
        <time>2026-08-23T22:21:41.893000Z</time>
      </trkpt>
      <trkpt lat="39.8724876" lon="116.6696464">
        <ele>21.49948</ele>
        <time>2026-08-23T22:21:45.874000Z</time>
      </trkpt>
      <trkpt lat="39.8724853" lon="116.669512">
        <ele>21.40368</ele>
        <time>2026-08-23T22:21:49.855000Z</time>
      </trkpt>
      <trkpt lat="39.8724995" lon="116.6693802">
        <ele>21.28266</ele>
        <time>2026-08-23T22:21:53.836000Z</time>
      </trkpt>
      <trkpt lat="39.8725254" lon="116.6692534">
        <ele>21.14377</ele>
        <time>2026-08-23T22:21:57.817000Z</time>
      </trkpt>
      <trkpt lat="39.8725556" lon="116.6691301">
        <ele>21.00409</ele>
        <time>2026-08-23T22:22:01.798000Z</time>
      </trkpt>
      <trkpt lat="39.8725844" lon="116.6690085">
        <ele>20.89946</ele>
        <time>2026-08-23T22:22:05.779000Z</time>
      </trkpt>
      <trkpt lat="39.8726032" lon="116.6688684">
        <ele>20.84134</ele>
        <time>2026-08-23T22:22:10.755000Z</time>
      </trkpt>
      <trkpt lat="39.8725968" lon="116.668726">
        <ele>20.87975</ele>
        <time>2026-08-23T22:22:15.731000Z</time>
      </trkpt>
      <trkpt lat="39.8725651" lon="116.6686087">
        <ele>20.95749</ele>
        <time>2026-08-23T22:22:19.712000Z</time>
      </trkpt>
      <trkpt lat="39.87252" lon="116.6684994">
        <ele>21.04772</ele>
        <time>2026-08-23T22:22:23.693000Z</time>
      </trkpt>
      <trkpt lat="39.8725023" lon="116.6683593">
        <ele>21.15475</ele>
        <time>2026-08-23T22:22:28.669000Z</time>
      </trkpt>
      <trkpt lat="39.8725269" lon="116.6682355">
        <ele>21.22611</ele>
        <time>2026-08-23T22:22:32.650000Z</time>
      </trkpt>
      <trkpt lat="39.8725254" lon="116.6681103">
        <ele>21.27984</ele>
        <time>2026-08-23T22:22:36.631000Z</time>
      </trkpt>
      <trkpt lat="39.8725122" lon="116.6679919">
        <ele>21.31965</ele>
        <time>2026-08-23T22:22:40.612000Z</time>
      </trkpt>
      <trkpt lat="39.8725453" lon="116.6678777">
        <ele>21.36641</ele>
        <time>2026-08-23T22:22:45.588000Z</time>
      </trkpt>
      <trkpt lat="39.8726181" lon="116.6678053">
        <ele>21.41861</ele>
        <time>2026-08-23T22:22:49.569000Z</time>
      </trkpt>
      <trkpt lat="39.8726449" lon="116.6676874">
        <ele>21.52455</ele>
        <time>2026-08-23T22:22:55.541000Z</time>
      </trkpt>
      <trkpt lat="39.8725412" lon="116.6676554">
        <ele>21.60525</ele>
        <time>2026-08-23T22:23:00.517000Z</time>
      </trkpt>
      <trkpt lat="39.8724468" lon="116.667671">
        <ele>21.64184</ele>
        <time>2026-08-23T22:23:04.498000Z</time>
      </trkpt>
      <trkpt lat="39.8723516" lon="116.6676995">
        <ele>21.63585</ele>
        <time>2026-08-23T22:23:08.479000Z</time>
      </trkpt>
      <trkpt lat="39.8722585" lon="116.667726">
        <ele>21.56248</ele>
        <time>2026-08-23T22:23:12.460000Z</time>
      </trkpt>
      <trkpt lat="39.8721644" lon="116.6677542">
        <ele>21.44659</ele>
        <time>2026-08-23T22:23:16.441000Z</time>
      </trkpt>
      <trkpt lat="39.8720692" lon="116.6677588">
        <ele>21.33937</ele>
        <time>2026-08-23T22:23:20.422000Z</time>
      </trkpt>
      <trkpt lat="39.8719749" lon="116.6677521">
        <ele>21.24345</ele>
        <time>2026-08-23T22:23:24.403000Z</time>
      </trkpt>
      <trkpt lat="39.8718865" lon="116.6677296">
        <ele>21.13547</ele>
        <time>2026-08-23T22:23:28.384000Z</time>
      </trkpt>
      <trkpt lat="39.8718006" lon="116.6676931">
        <ele>21.00466</ele>
        <time>2026-08-23T22:23:32.365000Z</time>
      </trkpt>
      <trkpt lat="39.8717151" lon="116.6676488">
        <ele>20.86015</ele>
        <time>2026-08-23T22:23:36.346000Z</time>
      </trkpt>
      <trkpt lat="39.871632" lon="116.6675978">
        <ele>20.75419</ele>
        <time>2026-08-23T22:23:40.327000Z</time>
      </trkpt>
      <trkpt lat="39.8715314" lon="116.6675401">
        <ele>20.70314</ele>
        <time>2026-08-23T22:23:45.303000Z</time>
      </trkpt>
      <trkpt lat="39.8714773" lon="116.6675397">
        <ele>20.57299</ele>
        <time>2026-08-23T22:23:54.260000Z</time>
      </trkpt>
      <trkpt lat="39.8715806" lon="116.6675439">
        <ele>20.56285</ele>
        <time>2026-08-23T22:23:59.237000Z</time>
      </trkpt>
      <trkpt lat="39.8716728" lon="116.6675647">
        <ele>20.60759</ele>
        <time>2026-08-23T22:24:03.218000Z</time>
      </trkpt>
      <trkpt lat="39.8717606" lon="116.6676107">
        <ele>20.67312</ele>
        <time>2026-08-23T22:24:07.199000Z</time>
      </trkpt>
      <trkpt lat="39.8718522" lon="116.6676553">
        <ele>20.72495</ele>
        <time>2026-08-23T22:24:11.180000Z</time>
      </trkpt>
      <trkpt lat="39.8719424" lon="116.6676947">
        <ele>20.76302</ele>
        <time>2026-08-23T22:24:15.161000Z</time>
      </trkpt>
      <trkpt lat="39.8720351" lon="116.6677225">
        <ele>20.8299</ele>
        <time>2026-08-23T22:24:19.141000Z</time>
      </trkpt>
      <trkpt lat="39.8721299" lon="116.6677341">
        <ele>20.95106</ele>
        <time>2026-08-23T22:24:23.122000Z</time>
      </trkpt>
      <trkpt lat="39.8722267" lon="116.667724">
        <ele>21.13402</ele>
        <time>2026-08-23T22:24:27.103000Z</time>
      </trkpt>
      <trkpt lat="39.8723295" lon="116.6677104">
        <ele>21.33887</ele>
        <time>2026-08-23T22:24:31.084000Z</time>
      </trkpt>
      <trkpt lat="39.872431" lon="116.6677009">
        <ele>21.50231</ele>
        <time>2026-08-23T22:24:35.065000Z</time>
      </trkpt>
      <trkpt lat="39.8725341" lon="116.6677018">
        <ele>21.59206</ele>
        <time>2026-08-23T22:24:39.046000Z</time>
      </trkpt>
      <trkpt lat="39.8726373" lon="116.667716">
        <ele>21.61653</ele>
        <time>2026-08-23T22:24:43.027000Z</time>
      </trkpt>
      <trkpt lat="39.8727413" lon="116.6677456">
        <ele>21.61864</ele>
        <time>2026-08-23T22:24:47Z</time>
      </trkpt>
      <trkpt lat="39.8728422" lon="116.667786">
        <ele>21.63693</ele>
        <time>2026-08-23T22:24:50.989000Z</time>
      </trkpt>
      <trkpt lat="39.8729436" lon="116.6678162">
        <ele>21.63835</ele>
        <time>2026-08-23T22:24:54.970000Z</time>
      </trkpt>
      <trkpt lat="39.8730415" lon="116.6678286">
        <ele>21.61738</ele>
        <time>2026-08-23T22:24:58.951000Z</time>
      </trkpt>
      <trkpt lat="39.8731517" lon="116.6678192">
        <ele>21.55912</ele>
        <time>2026-08-23T22:25:03.928000Z</time>
      </trkpt>
      <trkpt lat="39.8731799" lon="116.6677932">
        <ele>21.46904</ele>
        <time>2026-08-23T22:25:09.899000Z</time>
      </trkpt>
      <trkpt lat="39.8730786" lon="116.6678408">
        <ele>21.45896</ele>
        <time>2026-08-23T22:25:14.875000Z</time>
      </trkpt>
      <trkpt lat="39.8729809" lon="116.6678504">
        <ele>21.49059</ele>
        <time>2026-08-23T22:25:18.856000Z</time>
      </trkpt>
      <trkpt lat="39.8728843" lon="116.6678271">
        <ele>21.52113</ele>
        <time>2026-08-23T22:25:22.837000Z</time>
      </trkpt>
      <trkpt lat="39.8727917" lon="116.6678011">
        <ele>21.53982</ele>
        <time>2026-08-23T22:25:26.818000Z</time>
      </trkpt>
      <trkpt lat="39.8726844" lon="116.6678205">
        <ele>21.58284</ele>
        <time>2026-08-23T22:25:31.795000Z</time>
      </trkpt>
      <trkpt lat="39.8726081" lon="116.6678827">
        <ele>21.69821</ele>
        <time>2026-08-23T22:25:35.776000Z</time>
      </trkpt>
      <trkpt lat="39.8725417" lon="116.6679617">
        <ele>21.85447</ele>
        <time>2026-08-23T22:25:39.757000Z</time>
      </trkpt>
      <trkpt lat="39.8725123" lon="116.668085">
        <ele>22.02901</ele>
        <time>2026-08-23T22:25:44.733000Z</time>
      </trkpt>
      <trkpt lat="39.8725183" lon="116.6682068">
        <ele>22.14107</ele>
        <time>2026-08-23T22:25:48.714000Z</time>
      </trkpt>
      <trkpt lat="39.8725009" lon="116.6683236">
        <ele>22.21745</ele>
        <time>2026-08-23T22:25:52.695000Z</time>
      </trkpt>
      <trkpt lat="39.8724013" lon="116.66836">
        <ele>22.2165</ele>
        <time>2026-08-23T22:25:58.666000Z</time>
      </trkpt>
      <trkpt lat="39.8723156" lon="116.6683036">
        <ele>22.12632</ele>
        <time>2026-08-23T22:26:02.647000Z</time>
      </trkpt>
      <trkpt lat="39.8722206" lon="116.6682718">
        <ele>21.97727</ele>
        <time>2026-08-23T22:26:06.628000Z</time>
      </trkpt>
      <trkpt lat="39.8721174" lon="116.6682624">
        <ele>21.79959</ele>
        <time>2026-08-23T22:26:10.609000Z</time>
      </trkpt>
      <trkpt lat="39.8720147" lon="116.6682597">
        <ele>21.62698</ele>
        <time>2026-08-23T22:26:14.590000Z</time>
      </trkpt>
      <trkpt lat="39.8719097" lon="116.6682492">
        <ele>21.47756</ele>
        <time>2026-08-23T22:26:18.571000Z</time>
      </trkpt>
      <trkpt lat="39.8718107" lon="116.6682183">
        <ele>21.34819</ele>
        <time>2026-08-23T22:26:22.552000Z</time>
      </trkpt>
      <trkpt lat="39.8717149" lon="116.6681685">
        <ele>21.22309</ele>
        <time>2026-08-23T22:26:26.533000Z</time>
      </trkpt>
      <trkpt lat="39.8716204" lon="116.6681208">
        <ele>21.07754</ele>
        <time>2026-08-23T22:26:30.514000Z</time>
      </trkpt>
      <trkpt lat="39.8715249" lon="116.6680821">
        <ele>20.90056</ele>
        <time>2026-08-23T22:26:34.495000Z</time>
      </trkpt>
      <trkpt lat="39.8714263" lon="116.6680614">
        <ele>20.70255</ele>
        <time>2026-08-23T22:26:38.476000Z</time>
      </trkpt>
      <trkpt lat="39.8713244" lon="116.6680645">
        <ele>20.50085</ele>
        <time>2026-08-23T22:26:42.457000Z</time>
      </trkpt>
      <trkpt lat="39.8712278" lon="116.6680931">
        <ele>20.32007</ele>
        <time>2026-08-23T22:26:46.438000Z</time>
      </trkpt>
      <trkpt lat="39.8711348" lon="116.6681379">
        <ele>20.19145</ele>
        <time>2026-08-23T22:26:50.419000Z</time>
      </trkpt>
      <trkpt lat="39.8710425" lon="116.6681817">
        <ele>20.15459</ele>
        <time>2026-08-23T22:26:54.400000Z</time>
      </trkpt>
      <trkpt lat="39.8709418" lon="116.6682107">
        <ele>20.24153</ele>
        <time>2026-08-23T22:26:58.381000Z</time>
      </trkpt>
      <trkpt lat="39.8708378" lon="116.6682191">
        <ele>20.41443</ele>
        <time>2026-08-23T22:27:02.362000Z</time>
      </trkpt>
      <trkpt lat="39.8707357" lon="116.6682041">
        <ele>20.58046</ele>
        <time>2026-08-23T22:27:06.343000Z</time>
      </trkpt>
      <trkpt lat="39.8706343" lon="116.6681832">
        <ele>20.654</ele>
        <time>2026-08-23T22:27:10.324000Z</time>
      </trkpt>
      <trkpt lat="39.8705341" lon="116.6681856">
        <ele>20.65106</ele>
        <time>2026-08-23T22:27:14.305000Z</time>
      </trkpt>
      <trkpt lat="39.8704383" lon="116.66822">
        <ele>20.65545</ele>
        <time>2026-08-23T22:27:18.286000Z</time>
      </trkpt>
      <trkpt lat="39.8703445" lon="116.6682712">
        <ele>20.7009</ele>
        <time>2026-08-23T22:27:22.267000Z</time>
      </trkpt>
      <trkpt lat="39.8702465" lon="116.66832">
        <ele>20.77283</ele>
        <time>2026-08-23T22:27:26.248000Z</time>
      </trkpt>
      <trkpt lat="39.8701452" lon="116.6683511">
        <ele>20.83903</ele>
        <time>2026-08-23T22:27:30.229000Z</time>
      </trkpt>
      <trkpt lat="39.8700404" lon="116.6683577">
        <ele>20.8259</ele>
        <time>2026-08-23T22:27:34.210000Z</time>
      </trkpt>
      <trkpt lat="39.8699424" lon="116.6683534">
        <ele>20.70254</ele>
        <time>2026-08-23T22:27:38Z</time>
      </trkpt>
      <trkpt lat="39.8698427" lon="116.6683649">
        <ele>20.62595</ele>
        <time>2026-08-23T22:27:42Z</time>
      </trkpt>
      <trkpt lat="39.8697427" lon="116.6683866">
        <ele>20.67803</ele>
        <time>2026-08-23T22:27:46Z</time>
      </trkpt>
      <trkpt lat="39.8696403" lon="116.6683856">
        <ele>20.76632</ele>
        <time>2026-08-23T22:27:50Z</time>
      </trkpt>
      <trkpt lat="39.869553" lon="116.6683239">
        <ele>20.82536</ele>
        <time>2026-08-23T22:27:54Z</time>
      </trkpt>
      <trkpt lat="39.8694924" lon="116.6682138">
        <ele>20.87152</ele>
        <time>2026-08-23T22:27:58Z</time>
      </trkpt>
      <trkpt lat="39.8694634" lon="116.6680866">
        <ele>20.9371</ele>
        <time>2026-08-23T22:28:02Z</time>
      </trkpt>
      <trkpt lat="39.8694698" lon="116.6679568">
        <ele>21.01925</ele>
        <time>2026-08-23T22:28:06Z</time>
      </trkpt>
      <trkpt lat="39.869514" lon="116.6678369">
        <ele>21.11299</ele>
        <time>2026-08-23T22:28:10Z</time>
      </trkpt>
      <trkpt lat="39.8695918" lon="116.6677551">
        <ele>21.20455</ele>
        <time>2026-08-23T22:28:14Z</time>
      </trkpt>
      <trkpt lat="39.8696948" lon="116.6677258">
        <ele>21.23861</ele>
        <time>2026-08-23T22:28:18Z</time>
      </trkpt>
      <trkpt lat="39.869801" lon="116.6677345">
        <ele>21.19636</ele>
        <time>2026-08-23T22:28:21.983000Z</time>
      </trkpt>
      <trkpt lat="39.8699035" lon="116.6677538">
        <ele>21.12525</ele>
        <time>2026-08-23T22:28:25.964000Z</time>
      </trkpt>
      <trkpt lat="39.8700033" lon="116.6677649">
        <ele>21.05715</ele>
        <time>2026-08-23T22:28:29.945000Z</time>
      </trkpt>
      <trkpt lat="39.8701046" lon="116.6677599">
        <ele>21.02029</ele>
        <time>2026-08-23T22:28:33.926000Z</time>
      </trkpt>
      <trkpt lat="39.8702038" lon="116.6677456">
        <ele>21.03108</ele>
        <time>2026-08-23T22:28:37.907000Z</time>
      </trkpt>
      <trkpt lat="39.8702949" lon="116.6677671">
        <ele>21.0632</ele>
        <time>2026-08-23T22:28:41.888000Z</time>
      </trkpt>
      <trkpt lat="39.8703798" lon="116.6678092">
        <ele>21.07645</ele>
        <time>2026-08-23T22:28:45.869000Z</time>
      </trkpt>
      <trkpt lat="39.8704928" lon="116.6678078">
        <ele>21.04316</ele>
        <time>2026-08-23T22:28:50.845000Z</time>
      </trkpt>
      <trkpt lat="39.8705869" lon="116.6678037">
        <ele>21.00532</ele>
        <time>2026-08-23T22:28:54.826000Z</time>
      </trkpt>
      <trkpt lat="39.8706802" lon="116.6678038">
        <ele>21.00197</ele>
        <time>2026-08-23T22:28:58.807000Z</time>
      </trkpt>
      <trkpt lat="39.8707795" lon="116.6677956">
        <ele>21.03576</ele>
        <time>2026-08-23T22:29:02.788000Z</time>
      </trkpt>
      <trkpt lat="39.8708718" lon="116.6677724">
        <ele>21.07385</ele>
        <time>2026-08-23T22:29:06.769000Z</time>
      </trkpt>
      <trkpt lat="39.8709502" lon="116.6676855">
        <ele>21.09577</ele>
        <time>2026-08-23T22:29:11.745000Z</time>
      </trkpt>
      <trkpt lat="39.870999" lon="116.6675609">
        <ele>21.09527</ele>
        <time>2026-08-23T22:29:16.722000Z</time>
      </trkpt>
      <trkpt lat="39.8710861" lon="116.6674854">
        <ele>20.97588</ele>
        <time>2026-08-23T22:29:21.698000Z</time>
      </trkpt>
      <trkpt lat="39.8711936" lon="116.6674733">
        <ele>20.75255</ele>
        <time>2026-08-23T22:29:26.674000Z</time>
      </trkpt>
      <trkpt lat="39.8712173" lon="116.6674521">
        <ele>20.51713</ele>
        <time>2026-08-23T22:29:32.646000Z</time>
      </trkpt>
      <trkpt lat="39.8711251" lon="116.6674782">
        <ele>20.38261</ele>
        <time>2026-08-23T22:29:37.622000Z</time>
      </trkpt>
      <trkpt lat="39.8710475" lon="116.6675477">
        <ele>20.34421</ele>
        <time>2026-08-23T22:29:42.598000Z</time>
      </trkpt>
      <trkpt lat="39.8710101" lon="116.6676571">
        <ele>20.44921</ele>
        <time>2026-08-23T22:29:46.579000Z</time>
      </trkpt>
      <trkpt lat="39.8709668" lon="116.6677675">
        <ele>20.67907</ele>
        <time>2026-08-23T22:29:50.560000Z</time>
      </trkpt>
      <trkpt lat="39.8708874" lon="116.6678372">
        <ele>20.95816</ele>
        <time>2026-08-23T22:29:54.541000Z</time>
      </trkpt>
      <trkpt lat="39.8707918" lon="116.6678513">
        <ele>21.21668</ele>
        <time>2026-08-23T22:29:58.522000Z</time>
      </trkpt>
      <trkpt lat="39.8706942" lon="116.6678548">
        <ele>21.41935</ele>
        <time>2026-08-23T22:30:02.503000Z</time>
      </trkpt>
      <trkpt lat="39.8706012" lon="116.6678564">
        <ele>21.55459</ele>
        <time>2026-08-23T22:30:06.484000Z</time>
      </trkpt>
      <trkpt lat="39.8704919" lon="116.6678563">
        <ele>21.65995</ele>
        <time>2026-08-23T22:30:11.461000Z</time>
      </trkpt>
      <trkpt lat="39.8703958" lon="116.6678394">
        <ele>21.73643</ele>
        <time>2026-08-23T22:30:15.442000Z</time>
      </trkpt>
      <trkpt lat="39.870309" lon="116.6677886">
        <ele>21.77233</ele>
        <time>2026-08-23T22:30:19.423000Z</time>
      </trkpt>
      <trkpt lat="39.8702115" lon="116.6677535">
        <ele>21.74283</ele>
        <time>2026-08-23T22:30:23.404000Z</time>
      </trkpt>
      <trkpt lat="39.8701013" lon="116.6677605">
        <ele>21.65613</ele>
        <time>2026-08-23T22:30:27.385000Z</time>
      </trkpt>
      <trkpt lat="39.8699937" lon="116.6677616">
        <ele>21.52608</ele>
        <time>2026-08-23T22:30:31.366000Z</time>
      </trkpt>
      <trkpt lat="39.8698874" lon="116.6677537">
        <ele>21.3823</ele>
        <time>2026-08-23T22:30:35.347000Z</time>
      </trkpt>
      <trkpt lat="39.8697843" lon="116.6677394">
        <ele>21.2462</ele>
        <time>2026-08-23T22:30:39.328000Z</time>
      </trkpt>
      <trkpt lat="39.8696843" lon="116.6677402">
        <ele>21.11806</ele>
        <time>2026-08-23T22:30:43.309000Z</time>
      </trkpt>
      <trkpt lat="39.8695903" lon="116.6677712">
        <ele>21.01277</ele>
        <time>2026-08-23T22:30:47.290000Z</time>
      </trkpt>
      <trkpt lat="39.869518" lon="116.6678452">
        <ele>20.95717</ele>
        <time>2026-08-23T22:30:51.271000Z</time>
      </trkpt>
      <trkpt lat="39.869481" lon="116.6679582">
        <ele>20.93634</ele>
        <time>2026-08-23T22:30:55.252000Z</time>
      </trkpt>
      <trkpt lat="39.8694689" lon="116.6680853">
        <ele>20.94254</ele>
        <time>2026-08-23T22:30:59.233000Z</time>
      </trkpt>
      <trkpt lat="39.8694847" lon="116.6682092">
        <ele>20.96668</ele>
        <time>2026-08-23T22:31:03.214000Z</time>
      </trkpt>
      <trkpt lat="39.8695353" lon="116.6683131">
        <ele>20.96387</ele>
        <time>2026-08-23T22:31:07.195000Z</time>
      </trkpt>
      <trkpt lat="39.8696086" lon="116.6683815">
        <ele>20.92707</ele>
        <time>2026-08-23T22:31:11Z</time>
      </trkpt>
      <trkpt lat="39.8697049" lon="116.6684004">
        <ele>20.85389</ele>
        <time>2026-08-23T22:31:15Z</time>
      </trkpt>
      <trkpt lat="39.8698045" lon="116.6683714">
        <ele>20.76255</ele>
        <time>2026-08-23T22:31:19Z</time>
      </trkpt>
      <trkpt lat="39.8699045" lon="116.6683432">
        <ele>20.68403</ele>
        <time>2026-08-23T22:31:23Z</time>
      </trkpt>
      <trkpt lat="39.8700133" lon="116.6683324">
        <ele>20.66136</ele>
        <time>2026-08-23T22:31:27Z</time>
      </trkpt>
      <trkpt lat="39.8701168" lon="116.6683193">
        <ele>20.67543</ele>
        <time>2026-08-23T22:31:31.082000Z</time>
      </trkpt>
      <trkpt lat="39.8702095" lon="116.6682807">
        <ele>20.65678</ele>
        <time>2026-08-23T22:31:35Z</time>
      </trkpt>
      <trkpt lat="39.8703029" lon="116.6682245">
        <ele>20.59398</ele>
        <time>2026-08-23T22:31:39Z</time>
      </trkpt>
      <trkpt lat="39.870394" lon="116.668158">
        <ele>20.50328</ele>
        <time>2026-08-23T22:31:43Z</time>
      </trkpt>
      <trkpt lat="39.870492" lon="116.6681056">
        <ele>20.38478</ele>
        <time>2026-08-23T22:31:47.006000Z</time>
      </trkpt>
      <trkpt lat="39.8705971" lon="116.6680919">
        <ele>20.27044</ele>
        <time>2026-08-23T22:31:50.987000Z</time>
      </trkpt>
      <trkpt lat="39.8707001" lon="116.668118">
        <ele>20.21659</ele>
        <time>2026-08-23T22:31:54.968000Z</time>
      </trkpt>
      <trkpt lat="39.8708009" lon="116.6681468">
        <ele>20.27031</ele>
        <time>2026-08-23T22:31:58.949000Z</time>
      </trkpt>
      <trkpt lat="39.8708996" lon="116.6681481">
        <ele>20.41318</ele>
        <time>2026-08-23T22:32:02.930000Z</time>
      </trkpt>
      <trkpt lat="39.8709924" lon="116.6681189">
        <ele>20.61134</ele>
        <time>2026-08-23T22:32:06.911000Z</time>
      </trkpt>
      <trkpt lat="39.8710798" lon="116.6680781">
        <ele>20.82358</ele>
        <time>2026-08-23T22:32:10.892000Z</time>
      </trkpt>
      <trkpt lat="39.8711788" lon="116.6680159">
        <ele>21.01645</ele>
        <time>2026-08-23T22:32:15.868000Z</time>
      </trkpt>
      <trkpt lat="39.8712642" lon="116.6679736">
        <ele>21.0764</ele>
        <time>2026-08-23T22:32:19.849000Z</time>
      </trkpt>
      <trkpt lat="39.8713598" lon="116.6679456">
        <ele>21.05582</ele>
        <time>2026-08-23T22:32:23.830000Z</time>
      </trkpt>
      <trkpt lat="39.8714619" lon="116.6679439">
        <ele>20.99281</ele>
        <time>2026-08-23T22:32:27.811000Z</time>
      </trkpt>
      <trkpt lat="39.8715608" lon="116.6679639">
        <ele>20.91359</ele>
        <time>2026-08-23T22:32:31.793000Z</time>
      </trkpt>
      <trkpt lat="39.8716525" lon="116.6680102">
        <ele>20.84761</ele>
        <time>2026-08-23T22:32:35.774000Z</time>
      </trkpt>
      <trkpt lat="39.8717387" lon="116.6680777">
        <ele>20.82679</ele>
        <time>2026-08-23T22:32:39.755000Z</time>
      </trkpt>
      <trkpt lat="39.8718279" lon="116.6681367">
        <ele>20.88311</ele>
        <time>2026-08-23T22:32:43.736000Z</time>
      </trkpt>
      <trkpt lat="39.871925" lon="116.6681723">
        <ele>20.9994</ele>
        <time>2026-08-23T22:32:47.717000Z</time>
      </trkpt>
      <trkpt lat="39.87203" lon="116.6681943">
        <ele>21.12963</ele>
        <time>2026-08-23T22:32:51.698000Z</time>
      </trkpt>
      <trkpt lat="39.8721367" lon="116.6682221">
        <ele>21.22441</ele>
        <time>2026-08-23T22:32:55.679000Z</time>
      </trkpt>
      <trkpt lat="39.8722404" lon="116.6682478">
        <ele>21.26239</ele>
        <time>2026-08-23T22:32:59.660000Z</time>
      </trkpt>
      <trkpt lat="39.8723374" lon="116.6682889">
        <ele>21.22304</ele>
        <time>2026-08-23T22:33:03.641000Z</time>
      </trkpt>
      <trkpt lat="39.8724236" lon="116.6683589">
        <ele>21.13587</ele>
        <time>2026-08-23T22:33:07.622000Z</time>
      </trkpt>
      <trkpt lat="39.8724954" lon="116.6684456">
        <ele>21.03719</ele>
        <time>2026-08-23T22:33:11.603000Z</time>
      </trkpt>
      <trkpt lat="39.8725598" lon="116.6685468">
        <ele>20.9654</ele>
        <time>2026-08-23T22:33:15.584000Z</time>
      </trkpt>
      <trkpt lat="39.8726054" lon="116.6686644">
        <ele>20.95311</ele>
        <time>2026-08-23T22:33:19.565000Z</time>
      </trkpt>
      <trkpt lat="39.8726268" lon="116.6687924">
        <ele>20.97017</ele>
        <time>2026-08-23T22:33:23.546000Z</time>
      </trkpt>
      <trkpt lat="39.8726331" lon="116.6689166">
        <ele>20.99226</ele>
        <time>2026-08-23T22:33:27.527000Z</time>
      </trkpt>
      <trkpt lat="39.8726113" lon="116.6690414">
        <ele>21.02739</ele>
        <time>2026-08-23T22:33:31.508000Z</time>
      </trkpt>
      <trkpt lat="39.8725666" lon="116.6691608">
        <ele>21.07676</ele>
        <time>2026-08-23T22:33:35.489000Z</time>
      </trkpt>
      <trkpt lat="39.8725305" lon="116.669282">
        <ele>21.15435</ele>
        <time>2026-08-23T22:33:39.470000Z</time>
      </trkpt>
      <trkpt lat="39.872507" lon="116.6694027">
        <ele>21.23762</ele>
        <time>2026-08-23T22:33:43.451000Z</time>
      </trkpt>
      <trkpt lat="39.8725005" lon="116.6695267">
        <ele>21.32387</ele>
        <time>2026-08-23T22:33:47.432000Z</time>
      </trkpt>
      <trkpt lat="39.8725105" lon="116.6696458">
        <ele>21.41299</ele>
        <time>2026-08-23T22:33:51.413000Z</time>
      </trkpt>
      <trkpt lat="39.8725346" lon="116.6697639">
        <ele>21.4837</ele>
        <time>2026-08-23T22:33:55.394000Z</time>
      </trkpt>
      <trkpt lat="39.8725731" lon="116.6698768">
        <ele>21.50614</ele>
        <time>2026-08-23T22:33:59.375000Z</time>
      </trkpt>
      <trkpt lat="39.8726297" lon="116.669972">
        <ele>21.48968</ele>
        <time>2026-08-23T22:34:03.357000Z</time>
      </trkpt>
      <trkpt lat="39.8727049" lon="116.6700389">
        <ele>21.47647</ele>
        <time>2026-08-23T22:34:07.338000Z</time>
      </trkpt>
      <trkpt lat="39.8727934" lon="116.67008">
        <ele>21.4672</ele>
        <time>2026-08-23T22:34:11.319000Z</time>
      </trkpt>
      <trkpt lat="39.8728851" lon="116.6701176">
        <ele>21.43857</ele>
        <time>2026-08-23T22:34:15.300000Z</time>
      </trkpt>
      <trkpt lat="39.8729787" lon="116.6701353">
        <ele>21.38388</ele>
        <time>2026-08-23T22:34:19.281000Z</time>
      </trkpt>
      <trkpt lat="39.8730737" lon="116.6701339">
        <ele>21.32245</ele>
        <time>2026-08-23T22:34:23.262000Z</time>
      </trkpt>
      <trkpt lat="39.8731688" lon="116.670128">
        <ele>21.27607</ele>
        <time>2026-08-23T22:34:27.243000Z</time>
      </trkpt>
      <trkpt lat="39.8732649" lon="116.6701127">
        <ele>21.24582</ele>
        <time>2026-08-23T22:34:31.224000Z</time>
      </trkpt>
      <trkpt lat="39.8733547" lon="116.6700665">
        <ele>21.20575</ele>
        <time>2026-08-23T22:34:35.205000Z</time>
      </trkpt>
      <trkpt lat="39.8734331" lon="116.6700022">
        <ele>21.15392</ele>
        <time>2026-08-23T22:34:39Z</time>
      </trkpt>
      <trkpt lat="39.873514" lon="116.6699288">
        <ele>21.12688</ele>
        <time>2026-08-23T22:34:43Z</time>
      </trkpt>
      <trkpt lat="39.8735913" lon="116.6698517">
        <ele>21.12974</ele>
        <time>2026-08-23T22:34:47.148000Z</time>
      </trkpt>
      <trkpt lat="39.8736706" lon="116.6697896">
        <ele>21.14571</ele>
        <time>2026-08-23T22:34:51Z</time>
      </trkpt>
      <trkpt lat="39.8737658" lon="116.6697584">
        <ele>21.17414</ele>
        <time>2026-08-23T22:34:55Z</time>
      </trkpt>
      <trkpt lat="39.8738674" lon="116.6697562">
        <ele>21.22504</ele>
        <time>2026-08-23T22:34:59Z</time>
      </trkpt>
      <trkpt lat="39.873971" lon="116.6697771">
        <ele>21.28643</ele>
        <time>2026-08-23T22:35:03Z</time>
      </trkpt>
      <trkpt lat="39.8740764" lon="116.6697993">
        <ele>21.32959</ele>
        <time>2026-08-23T22:35:07Z</time>
      </trkpt>
      <trkpt lat="39.8741798" lon="116.6698018">
        <ele>21.38301</ele>
        <time>2026-08-23T22:35:11Z</time>
      </trkpt>
      <trkpt lat="39.874279" lon="116.6697657">
        <ele>21.44101</ele>
        <time>2026-08-23T22:35:15Z</time>
      </trkpt>
      <trkpt lat="39.8743645" lon="116.6696851">
        <ele>21.46656</ele>
        <time>2026-08-23T22:35:18.996000Z</time>
      </trkpt>
      <trkpt lat="39.8744362" lon="116.6695864">
        <ele>21.52658</ele>
        <time>2026-08-23T22:35:22.978000Z</time>
      </trkpt>
      <trkpt lat="39.8745172" lon="116.669507">
        <ele>21.64812</ele>
        <time>2026-08-23T22:35:26.959000Z</time>
      </trkpt>
      <trkpt lat="39.8746178" lon="116.6694681">
        <ele>21.82376</ele>
        <time>2026-08-23T22:35:30.940000Z</time>
      </trkpt>
      <trkpt lat="39.8747145" lon="116.6694702">
        <ele>22.03387</ele>
        <time>2026-08-23T22:35:34.921000Z</time>
      </trkpt>
      <trkpt lat="39.8748058" lon="116.6695204">
        <ele>22.29185</ele>
        <time>2026-08-23T22:35:38.902000Z</time>
      </trkpt>
      <trkpt lat="39.87489" lon="116.6695856">
        <ele>22.59849</ele>
        <time>2026-08-23T22:35:42.883000Z</time>
      </trkpt>
      <trkpt lat="39.874977" lon="116.6696425">
        <ele>22.91777</ele>
        <time>2026-08-23T22:35:46.864000Z</time>
      </trkpt>
      <trkpt lat="39.8750737" lon="116.66967">
        <ele>23.19194</ele>
        <time>2026-08-23T22:35:50.845000Z</time>
      </trkpt>
      <trkpt lat="39.8751686" lon="116.6696445">
        <ele>23.37455</ele>
        <time>2026-08-23T22:35:54.826000Z</time>
      </trkpt>
      <trkpt lat="39.8752566" lon="116.6695903">
        <ele>23.4847</ele>
        <time>2026-08-23T22:35:58.807000Z</time>
      </trkpt>
      <trkpt lat="39.8753484" lon="116.6695447">
        <ele>23.58261</ele>
        <time>2026-08-23T22:36:02.788000Z</time>
      </trkpt>
      <trkpt lat="39.8754437" lon="116.6695134">
        <ele>23.72996</ele>
        <time>2026-08-23T22:36:06.769000Z</time>
      </trkpt>
      <trkpt lat="39.8755348" lon="116.6694591">
        <ele>23.91714</ele>
        <time>2026-08-23T22:36:10.750000Z</time>
      </trkpt>
      <trkpt lat="39.8756067" lon="116.669372">
        <ele>24.0741</ele>
        <time>2026-08-23T22:36:14.731000Z</time>
      </trkpt>
      <trkpt lat="39.8756468" lon="116.6692575">
        <ele>24.14361</ele>
        <time>2026-08-23T22:36:18.712000Z</time>
      </trkpt>
      <trkpt lat="39.8756599" lon="116.669131">
        <ele>24.10371</ele>
        <time>2026-08-23T22:36:22.693000Z</time>
      </trkpt>
      <trkpt lat="39.8756437" lon="116.6690065">
        <ele>23.96986</ele>
        <time>2026-08-23T22:36:26.674000Z</time>
      </trkpt>
      <trkpt lat="39.8755954" lon="116.668893">
        <ele>23.79771</ele>
        <time>2026-08-23T22:36:30.656000Z</time>
      </trkpt>
      <trkpt lat="39.8755276" lon="116.6687962">
        <ele>23.64576</ele>
        <time>2026-08-23T22:36:34.637000Z</time>
      </trkpt>
      <trkpt lat="39.8754552" lon="116.6687029">
        <ele>23.52374</ele>
        <time>2026-08-23T22:36:38.618000Z</time>
      </trkpt>
      <trkpt lat="39.8753899" lon="116.6685961">
        <ele>23.3884</ele>
        <time>2026-08-23T22:36:42.599000Z</time>
      </trkpt>
      <trkpt lat="39.8753371" lon="116.6684763">
        <ele>23.20876</ele>
        <time>2026-08-23T22:36:46.580000Z</time>
      </trkpt>
      <trkpt lat="39.875302" lon="116.6683449">
        <ele>23.04154</ele>
        <time>2026-08-23T22:36:50.561000Z</time>
      </trkpt>
      <trkpt lat="39.8752775" lon="116.6682102">
        <ele>22.95715</ele>
        <time>2026-08-23T22:36:54.542000Z</time>
      </trkpt>
      <trkpt lat="39.8752475" lon="116.6680787">
        <ele>22.94614</ele>
        <time>2026-08-23T22:36:58.523000Z</time>
      </trkpt>
      <trkpt lat="39.8752078" lon="116.6679534">
        <ele>22.94991</ele>
        <time>2026-08-23T22:37:02.504000Z</time>
      </trkpt>
      <trkpt lat="39.8751601" lon="116.6678316">
        <ele>22.93218</ele>
        <time>2026-08-23T22:37:06.485000Z</time>
      </trkpt>
      <trkpt lat="39.8750969" lon="116.667724">
        <ele>22.89157</ele>
        <time>2026-08-23T22:37:10.466000Z</time>
      </trkpt>
      <trkpt lat="39.8750183" lon="116.6676406">
        <ele>22.82881</ele>
        <time>2026-08-23T22:37:14.447000Z</time>
      </trkpt>
      <trkpt lat="39.8749236" lon="116.6675809">
        <ele>22.75393</ele>
        <time>2026-08-23T22:37:18.428000Z</time>
      </trkpt>
      <trkpt lat="39.8748233" lon="116.6675299">
        <ele>22.69836</ele>
        <time>2026-08-23T22:37:22.409000Z</time>
      </trkpt>
      <trkpt lat="39.8747207" lon="116.6674865">
        <ele>22.69396</ele>
        <time>2026-08-23T22:37:26.390000Z</time>
      </trkpt>
      <trkpt lat="39.8746159" lon="116.6674634">
        <ele>22.73366</ele>
        <time>2026-08-23T22:37:30.371000Z</time>
      </trkpt>
      <trkpt lat="39.8745123" lon="116.6674588">
        <ele>22.76737</ele>
        <time>2026-08-23T22:37:34.353000Z</time>
      </trkpt>
      <trkpt lat="39.8744135" lon="116.6674759">
        <ele>22.75743</ele>
        <time>2026-08-23T22:37:38.334000Z</time>
      </trkpt>
      <trkpt lat="39.8743188" lon="116.6675229">
        <ele>22.66187</ele>
        <time>2026-08-23T22:37:42.315000Z</time>
      </trkpt>
      <trkpt lat="39.8742326" lon="116.6675835">
        <ele>22.47781</ele>
        <time>2026-08-23T22:37:46.296000Z</time>
      </trkpt>
      <trkpt lat="39.8741443" lon="116.6676386">
        <ele>22.27529</ele>
        <time>2026-08-23T22:37:50.277000Z</time>
      </trkpt>
      <trkpt lat="39.8740537" lon="116.6676884">
        <ele>22.09781</ele>
        <time>2026-08-23T22:37:54.258000Z</time>
      </trkpt>
      <trkpt lat="39.8739581" lon="116.6677234">
        <ele>21.97501</ele>
        <time>2026-08-23T22:37:58.239000Z</time>
      </trkpt>
      <trkpt lat="39.873856" lon="116.6677457">
        <ele>21.9231</ele>
        <time>2026-08-23T22:38:02.220000Z</time>
      </trkpt>
      <trkpt lat="39.8737512" lon="116.6677563">
        <ele>21.92254</ele>
        <time>2026-08-23T22:38:06.201000Z</time>
      </trkpt>
      <trkpt lat="39.8736522" lon="116.667763">
        <ele>21.91973</ele>
        <time>2026-08-23T22:38:10Z</time>
      </trkpt>
      <trkpt lat="39.8735788" lon="116.6678428">
        <ele>21.87936</ele>
        <time>2026-08-23T22:38:15Z</time>
      </trkpt>
      <trkpt lat="39.8735945" lon="116.6679588">
        <ele>21.95818</ele>
        <time>2026-08-23T22:38:19Z</time>
      </trkpt>
      <trkpt lat="39.8736516" lon="116.6680628">
        <ele>22.12214</ele>
        <time>2026-08-23T22:38:23Z</time>
      </trkpt>
      <trkpt lat="39.8737219" lon="116.6681518">
        <ele>22.1692</ele>
        <time>2026-08-23T22:38:27Z</time>
      </trkpt>
      <trkpt lat="39.8737831" lon="116.6682529">
        <ele>21.93449</ele>
        <time>2026-08-23T22:38:31.083000Z</time>
      </trkpt>
      <trkpt lat="39.8738109" lon="116.668366">
        <ele>21.5549</ele>
        <time>2026-08-23T22:38:35.064000Z</time>
      </trkpt>
      <trkpt lat="39.8737876" lon="116.6684811">
        <ele>21.29535</ele>
        <time>2026-08-23T22:38:39.045000Z</time>
      </trkpt>
      <trkpt lat="39.8737289" lon="116.6685917">
        <ele>21.26362</ele>
        <time>2026-08-23T22:38:43.026000Z</time>
      </trkpt>
      <trkpt lat="39.8736769" lon="116.6687018">
        <ele>21.38943</ele>
        <time>2026-08-23T22:38:47.007000Z</time>
      </trkpt>
      <trkpt lat="39.8736492" lon="116.6688256">
        <ele>21.544</ele>
        <time>2026-08-23T22:38:50.988000Z</time>
      </trkpt>
      <trkpt lat="39.8736378" lon="116.6689562">
        <ele>21.63947</ele>
        <time>2026-08-23T22:38:54.969000Z</time>
      </trkpt>
      <trkpt lat="39.8736257" lon="116.6690844">
        <ele>21.65232</ele>
        <time>2026-08-23T22:38:58.951000Z</time>
      </trkpt>
      <trkpt lat="39.8735968" lon="116.6692071">
        <ele>21.63764</ele>
        <time>2026-08-23T22:39:02.932000Z</time>
      </trkpt>
      <trkpt lat="39.8735422" lon="116.6693142">
        <ele>21.66176</ele>
        <time>2026-08-23T22:39:06.913000Z</time>
      </trkpt>
      <trkpt lat="39.8734805" lon="116.6694102">
        <ele>21.73153</ele>
        <time>2026-08-23T22:39:10.894000Z</time>
      </trkpt>
      <trkpt lat="39.8734297" lon="116.6695158">
        <ele>21.83061</ele>
        <time>2026-08-23T22:39:14.875000Z</time>
      </trkpt>
      <trkpt lat="39.8734121" lon="116.6696336">
        <ele>21.92854</ele>
        <time>2026-08-23T22:39:18.856000Z</time>
      </trkpt>
      <trkpt lat="39.8734299" lon="116.6697739">
        <ele>21.87749</ele>
        <time>2026-08-23T22:39:23.832000Z</time>
      </trkpt>
      <trkpt lat="39.8734825" lon="116.6698949">
        <ele>21.63889</ele>
        <time>2026-08-23T22:39:28.809000Z</time>
      </trkpt>
      <trkpt lat="39.873571" lon="116.6699248">
        <ele>21.36438</ele>
        <time>2026-08-23T22:39:33.785000Z</time>
      </trkpt>
      <trkpt lat="39.8736627" lon="116.6698415">
        <ele>21.21151</ele>
        <time>2026-08-23T22:39:38.761000Z</time>
      </trkpt>
      <trkpt lat="39.8737478" lon="116.6697921">
        <ele>21.19779</ele>
        <time>2026-08-23T22:39:42.743000Z</time>
      </trkpt>
      <trkpt lat="39.8738425" lon="116.6697772">
        <ele>21.23317</ele>
        <time>2026-08-23T22:39:46.724000Z</time>
      </trkpt>
      <trkpt lat="39.8739444" lon="116.6697929">
        <ele>21.2947</ele>
        <time>2026-08-23T22:39:50.705000Z</time>
      </trkpt>
      <trkpt lat="39.8740376" lon="116.6698162">
        <ele>21.37379</ele>
        <time>2026-08-23T22:39:54.686000Z</time>
      </trkpt>
      <trkpt lat="39.8741421" lon="116.6698238">
        <ele>21.45029</ele>
        <time>2026-08-23T22:39:58.667000Z</time>
      </trkpt>
      <trkpt lat="39.8742501" lon="116.6698029">
        <ele>21.52063</ele>
        <time>2026-08-23T22:40:02.648000Z</time>
      </trkpt>
      <trkpt lat="39.8743496" lon="116.6697419">
        <ele>21.61376</ele>
        <time>2026-08-23T22:40:06.629000Z</time>
      </trkpt>
      <trkpt lat="39.87444" lon="116.6696605">
        <ele>21.77635</ele>
        <time>2026-08-23T22:40:10.610000Z</time>
      </trkpt>
      <trkpt lat="39.874532" lon="116.6695825">
        <ele>22.00542</ele>
        <time>2026-08-23T22:40:14.591000Z</time>
      </trkpt>
      <trkpt lat="39.8746363" lon="116.6695377">
        <ele>22.24859</ele>
        <time>2026-08-23T22:40:18.573000Z</time>
      </trkpt>
      <trkpt lat="39.8747445" lon="116.6695338">
        <ele>22.48348</ele>
        <time>2026-08-23T22:40:22.554000Z</time>
      </trkpt>
      <trkpt lat="39.8748486" lon="116.6695712">
        <ele>22.71997</ele>
        <time>2026-08-23T22:40:26.535000Z</time>
      </trkpt>
      <trkpt lat="39.8749449" lon="116.6696356">
        <ele>22.93934</ele>
        <time>2026-08-23T22:40:30.516000Z</time>
      </trkpt>
      <trkpt lat="39.8750403" lon="116.6696954">
        <ele>23.10049</ele>
        <time>2026-08-23T22:40:34.497000Z</time>
      </trkpt>
      <trkpt lat="39.8751386" lon="116.6697158">
        <ele>23.1944</ele>
        <time>2026-08-23T22:40:38.478000Z</time>
      </trkpt>
      <trkpt lat="39.8752342" lon="116.6696726">
        <ele>23.22636</ele>
        <time>2026-08-23T22:40:42.459000Z</time>
      </trkpt>
      <trkpt lat="39.875321" lon="116.6696013">
        <ele>23.22002</ele>
        <time>2026-08-23T22:40:46.440000Z</time>
      </trkpt>
      <trkpt lat="39.8754154" lon="116.6695627">
        <ele>23.20964</ele>
        <time>2026-08-23T22:40:50.421000Z</time>
      </trkpt>
      <trkpt lat="39.8755083" lon="116.6695236">
        <ele>23.24052</ele>
        <time>2026-08-23T22:40:54.403000Z</time>
      </trkpt>
      <trkpt lat="39.875592" lon="116.669446">
        <ele>23.33934</ele>
        <time>2026-08-23T22:40:58.384000Z</time>
      </trkpt>
      <trkpt lat="39.8756515" lon="116.6693372">
        <ele>23.47119</ele>
        <time>2026-08-23T22:41:02.365000Z</time>
      </trkpt>
      <trkpt lat="39.8756728" lon="116.6692054">
        <ele>23.59379</ele>
        <time>2026-08-23T22:41:06.346000Z</time>
      </trkpt>
      <trkpt lat="39.8756605" lon="116.6690695">
        <ele>23.63934</ele>
        <time>2026-08-23T22:41:10.327000Z</time>
      </trkpt>
      <trkpt lat="39.8756274" lon="116.6689401">
        <ele>23.58989</ele>
        <time>2026-08-23T22:41:14.308000Z</time>
      </trkpt>
      <trkpt lat="39.8755674" lon="116.6688297">
        <ele>23.47286</ele>
        <time>2026-08-23T22:41:18.289000Z</time>
      </trkpt>
      <trkpt lat="39.8754895" lon="116.6687352">
        <ele>23.32953</ele>
        <time>2026-08-23T22:41:22.270000Z</time>
      </trkpt>
      <trkpt lat="39.8754111" lon="116.6686443">
        <ele>23.17564</ele>
        <time>2026-08-23T22:41:26.252000Z</time>
      </trkpt>
      <trkpt lat="39.8753482" lon="116.6685326">
        <ele>22.99296</ele>
        <time>2026-08-23T22:41:30.233000Z</time>
      </trkpt>
      <trkpt lat="39.875304" lon="116.6684035">
        <ele>22.77339</ele>
        <time>2026-08-23T22:41:34.214000Z</time>
      </trkpt>
      <trkpt lat="39.8752707" lon="116.6682693">
        <ele>22.57988</ele>
        <time>2026-08-23T22:41:38.195000Z</time>
      </trkpt>
      <trkpt lat="39.8752667" lon="116.6681381">
        <ele>22.50634</ele>
        <time>2026-08-23T22:41:42.176000Z</time>
      </trkpt>
      <trkpt lat="39.8753365" lon="116.6680473">
        <ele>22.77413</ele>
        <time>2026-08-23T22:41:47.152000Z</time>
      </trkpt>
      <trkpt lat="39.875443" lon="116.668089">
        <ele>23.2612</ele>
        <time>2026-08-23T22:41:52.129000Z</time>
      </trkpt>
      <trkpt lat="39.8755363" lon="116.6681216">
        <ele>23.5858</ele>
        <time>2026-08-23T22:41:56.110000Z</time>
      </trkpt>
      <trkpt lat="39.8756228" lon="116.6680522">
        <ele>23.81699</ele>
        <time>2026-08-23T22:42:01.086000Z</time>
      </trkpt>
      <trkpt lat="39.8756637" lon="116.6679234">
        <ele>23.87432</ele>
        <time>2026-08-23T22:42:06Z</time>
      </trkpt>
      <trkpt lat="39.8757364" lon="116.6678508">
        <ele>23.72925</ele>
        <time>2026-08-23T22:42:11Z</time>
      </trkpt>
      <trkpt lat="39.8756988" lon="116.6677182">
        <ele>23.49013</ele>
        <time>2026-08-23T22:42:18Z</time>
      </trkpt>
      <trkpt lat="39.875636" lon="116.6676217">
        <ele>23.45574</ele>
        <time>2026-08-23T22:42:21.987000Z</time>
      </trkpt>
      <trkpt lat="39.8755756" lon="116.6675136">
        <ele>23.49108</ele>
        <time>2026-08-23T22:42:25.968000Z</time>
      </trkpt>
      <trkpt lat="39.875506" lon="116.6674123">
        <ele>23.57655</ele>
        <time>2026-08-23T22:42:29.949000Z</time>
      </trkpt>
      <trkpt lat="39.8754327" lon="116.6673221">
        <ele>23.6164</ele>
        <time>2026-08-23T22:42:33.930000Z</time>
      </trkpt>
      <trkpt lat="39.8753627" lon="116.6672305">
        <ele>23.56114</ele>
        <time>2026-08-23T22:42:37.912000Z</time>
      </trkpt>
      <trkpt lat="39.8752998" lon="116.667135">
        <ele>23.42229</ele>
        <time>2026-08-23T22:42:41.893000Z</time>
      </trkpt>
      <trkpt lat="39.8752341" lon="116.6670328">
        <ele>23.23323</ele>
        <time>2026-08-23T22:42:45.874000Z</time>
      </trkpt>
      <trkpt lat="39.8751649" lon="116.6669275">
        <ele>23.03287</ele>
        <time>2026-08-23T22:42:49.855000Z</time>
      </trkpt>
      <trkpt lat="39.8750947" lon="116.6668232">
        <ele>22.86485</ele>
        <time>2026-08-23T22:42:53.836000Z</time>
      </trkpt>
      <trkpt lat="39.8750257" lon="116.6667141">
        <ele>22.71108</ele>
        <time>2026-08-23T22:42:57.817000Z</time>
      </trkpt>
      <trkpt lat="39.8749603" lon="116.6666013">
        <ele>22.59009</ele>
        <time>2026-08-23T22:43:01.798000Z</time>
      </trkpt>
      <trkpt lat="39.8748984" lon="116.666486">
        <ele>22.52093</ele>
        <time>2026-08-23T22:43:05.779000Z</time>
      </trkpt>
      <trkpt lat="39.8748488" lon="116.6663625">
        <ele>22.49572</ele>
        <time>2026-08-23T22:43:09.760000Z</time>
      </trkpt>
      <trkpt lat="39.8748" lon="116.6662376">
        <ele>22.48822</ele>
        <time>2026-08-23T22:43:13.742000Z</time>
      </trkpt>
      <trkpt lat="39.8747464" lon="116.666113">
        <ele>22.49322</ele>
        <time>2026-08-23T22:43:17.723000Z</time>
      </trkpt>
      <trkpt lat="39.8746879" lon="116.6659903">
        <ele>22.53787</ele>
        <time>2026-08-23T22:43:21.704000Z</time>
      </trkpt>
      <trkpt lat="39.8746282" lon="116.6658749">
        <ele>22.64717</ele>
        <time>2026-08-23T22:43:25.685000Z</time>
      </trkpt>
      <trkpt lat="39.8745789" lon="116.6657497">
        <ele>22.85063</ele>
        <time>2026-08-23T22:43:29.666000Z</time>
      </trkpt>
      <trkpt lat="39.8745351" lon="116.6656183">
        <ele>23.13763</ele>
        <time>2026-08-23T22:43:33.647000Z</time>
      </trkpt>
      <trkpt lat="39.8744771" lon="116.6655126">
        <ele>23.45397</ele>
        <time>2026-08-23T22:43:37.628000Z</time>
      </trkpt>
      <trkpt lat="39.8743825" lon="116.6654883">
        <ele>23.75337</ele>
        <time>2026-08-23T22:43:41.609000Z</time>
      </trkpt>
      <trkpt lat="39.8742821" lon="116.6655271">
        <ele>24.00425</ele>
        <time>2026-08-23T22:43:45.590000Z</time>
      </trkpt>
      <trkpt lat="39.8741831" lon="116.6655788">
        <ele>24.18723</ele>
        <time>2026-08-23T22:43:49.572000Z</time>
      </trkpt>
      <trkpt lat="39.8740868" lon="116.6656323">
        <ele>24.27957</ele>
        <time>2026-08-23T22:43:53.553000Z</time>
      </trkpt>
    </trkseg>
  </trk>
</gpx>