<?xml version="1.0" encoding="UTF-8"?>
<gpx xmlns="http://www.topografix.com/GPX/1/1" xmlns:gpxtpx="http://www.garmin.com/xmlschemas/TrackPointExtension/v1" xmlns:xsi="http://www.w3.org/2001/XMLSchema-instance" xsi:schemaLocation="http://www.topografix.com/GPX/1/1 http://www.topografix.com/GPX/1/1/gpx.xsd" version="1.1" creator="gpx.py -- https://github.com/tkrajina/gpxpy">
  <trk>
    <name>gpx from codoon</name>
    <type>Run</type>
    <trkseg>
      <trkpt lat="39.874553" lon="116.6716753">
        <ele>23.95282</ele>
        <time>2026-08-23T10:44:32Z</time>
      </trkpt>
      <trkpt lat="39.8745781" lon="116.6716821">
        <ele>23.99197</ele>
        <time>2026-08-23T10:44:35.841000Z</time>
      </trkpt>
      <trkpt lat="39.8746766" lon="116.6716339">
        <ele>24.09438</ele>
        <time>2026-08-23T10:44:42.809000Z</time>
      </trkpt>
      <trkpt lat="39.8747504" lon="116.6715582">
        <ele>24.16309</ele>
        <time>2026-08-23T10:44:47.786000Z</time>
      </trkpt>
      <trkpt lat="39.8748248" lon="116.6714665">
        <ele>24.19028</ele>
        <time>2026-08-23T10:44:52.763000Z</time>
      </trkpt>
      <trkpt lat="39.8748803" lon="116.6713508">
        <ele>24.14776</ele>
        <time>2026-08-23T10:44:57.741000Z</time>
      </trkpt>
      <trkpt lat="39.8748961" lon="116.6712197">
        <ele>23.99754</ele>
        <time>2026-08-23T10:45:02.718000Z</time>
      </trkpt>
      <trkpt lat="39.8749073" lon="116.6710949">
        <ele>23.77637</ele>
        <time>2026-08-23T10:45:07.695000Z</time>
      </trkpt>
      <trkpt lat="39.874927" lon="116.6709699">
        <ele>23.54984</ele>
        <time>2026-08-23T10:45:12.672000Z</time>
      </trkpt>
      <trkpt lat="39.874956" lon="116.6708438">
        <ele>23.3226</ele>
        <time>2026-08-23T10:45:17.649000Z</time>
      </trkpt>
      <trkpt lat="39.8749679" lon="116.6707163">
        <ele>23.1878</ele>
        <time>2026-08-23T10:45:22.626000Z</time>
      </trkpt>
      <trkpt lat="39.8749296" lon="116.67061">
        <ele>23.24898</ele>
        <time>2026-08-23T10:45:27.604000Z</time>
      </trkpt>
      <trkpt lat="39.874835" lon="116.6705705">
        <ele>23.40702</ele>
        <time>2026-08-23T10:45:32.581000Z</time>
      </trkpt>
      <trkpt lat="39.8747333" lon="116.6705619">
        <ele>23.5318</ele>
        <time>2026-08-23T10:45:37.558000Z</time>
      </trkpt>
      <trkpt lat="39.8746291" lon="116.6705581">
        <ele>23.59694</ele>
        <time>2026-08-23T10:45:42.535000Z</time>
      </trkpt>
      <trkpt lat="39.874525" lon="116.6705617">
        <ele>23.60341</ele>
        <time>2026-08-23T10:45:47.512000Z</time>
      </trkpt>
      <trkpt lat="39.874423" lon="116.6705701">
        <ele>23.57986</ele>
        <time>2026-08-23T10:45:52.489000Z</time>
      </trkpt>
      <trkpt lat="39.874323" lon="116.6705697">
        <ele>23.49971</ele>
        <time>2026-08-23T10:45:57.466000Z</time>
      </trkpt>
      <trkpt lat="39.8742281" lon="116.6705584">
        <ele>23.42289</ele>
        <time>2026-08-23T10:46:02.444000Z</time>
      </trkpt>
      <trkpt lat="39.8741292" lon="116.6705596">
        <ele>23.4507</ele>
        <time>2026-08-23T10:46:07.421000Z</time>
      </trkpt>
      <trkpt lat="39.8740321" lon="116.6705563">
        <ele>23.49632</ele>
        <time>2026-08-23T10:46:12.398000Z</time>
      </trkpt>
      <trkpt lat="39.8739381" lon="116.6705529">
        <ele>23.6056</ele>
        <time>2026-08-23T10:46:17.375000Z</time>
      </trkpt>
      <trkpt lat="39.8738429" lon="116.6705536">
        <ele>23.73551</ele>
        <time>2026-08-23T10:46:22.352000Z</time>
      </trkpt>
      <trkpt lat="39.8737498" lon="116.6705525">
        <ele>23.76657</ele>
        <time>2026-08-23T10:46:27.329000Z</time>
      </trkpt>
      <trkpt lat="39.8736507" lon="116.6705551">
        <ele>23.64933</ele>
        <time>2026-08-23T10:46:32.306000Z</time>
      </trkpt>
      <trkpt lat="39.8735518" lon="116.6705649">
        <ele>23.4206</ele>
        <time>2026-08-23T10:46:37.283000Z</time>
      </trkpt>
      <trkpt lat="39.8734534" lon="116.670576">
        <ele>23.23004</ele>
        <time>2026-08-23T10:46:42.261000Z</time>
      </trkpt>
      <trkpt lat="39.8733606" lon="116.6705892">
        <ele>23.13317</ele>
        <time>2026-08-23T10:46:47.238000Z</time>
      </trkpt>
      <trkpt lat="39.8732629" lon="116.6706054">
        <ele>23.06089</ele>
        <time>2026-08-23T10:46:52.215000Z</time>
      </trkpt>
      <trkpt lat="39.8731604" lon="116.6706173">
        <ele>22.96122</ele>
        <time>2026-08-23T10:46:57.192000Z</time>
      </trkpt>
      <trkpt lat="39.8730614" lon="116.6706246">
        <ele>22.94815</ele>
        <time>2026-08-23T10:47:02.169000Z</time>
      </trkpt>
      <trkpt lat="39.8729657" lon="116.6706378">
        <ele>23.15944</ele>
        <time>2026-08-23T10:47:07.146000Z</time>
      </trkpt>
      <trkpt lat="39.8728946" lon="116.6707301">
        <ele>23.80716</ele>
        <time>2026-08-23T10:47:13.119000Z</time>
      </trkpt>
      <trkpt lat="39.8728706" lon="116.6708573">
        <ele>24.5227</ele>
        <time>2026-08-23T10:47:19Z</time>
      </trkpt>
      <trkpt lat="39.8727741" lon="116.6709107">
        <ele>24.64086</ele>
        <time>2026-08-23T10:47:25Z</time>
      </trkpt>
      <trkpt lat="39.8726701" lon="116.6709032">
        <ele>24.457</ele>
        <time>2026-08-23T10:47:30Z</time>
      </trkpt>
      <trkpt lat="39.8725695" lon="116.6708948">
        <ele>24.19592</ele>
        <time>2026-08-23T10:47:35.018000Z</time>
      </trkpt>
      <trkpt lat="39.8724753" lon="116.6709123">
        <ele>23.91737</ele>
        <time>2026-08-23T10:47:39.995000Z</time>
      </trkpt>
      <trkpt lat="39.8723995" lon="116.670981">
        <ele>23.66483</ele>
        <time>2026-08-23T10:47:44.972000Z</time>
      </trkpt>
      <trkpt lat="39.8723483" lon="116.6710856">
        <ele>23.60136</ele>
        <time>2026-08-23T10:47:49.949000Z</time>
      </trkpt>
      <trkpt lat="39.872323" lon="116.6712027">
        <ele>23.64001</ele>
        <time>2026-08-23T10:47:54.926000Z</time>
      </trkpt>
      <trkpt lat="39.8723162" lon="116.6713265">
        <ele>23.6088</ele>
        <time>2026-08-23T10:47:59.903000Z</time>
      </trkpt>
      <trkpt lat="39.8723174" lon="116.6714539">
        <ele>23.54189</ele>
        <time>2026-08-23T10:48:04.881000Z</time>
      </trkpt>
      <trkpt lat="39.8723237" lon="116.6715773">
        <ele>23.53739</ele>
        <time>2026-08-23T10:48:09.858000Z</time>
      </trkpt>
      <trkpt lat="39.8723308" lon="116.6717033">
        <ele>23.56633</ele>
        <time>2026-08-23T10:48:14.835000Z</time>
      </trkpt>
      <trkpt lat="39.8723293" lon="116.6718296">
        <ele>23.60482</ele>
        <time>2026-08-23T10:48:19.812000Z</time>
      </trkpt>
      <trkpt lat="39.8723141" lon="116.6719562">
        <ele>23.65129</ele>
        <time>2026-08-23T10:48:24.789000Z</time>
      </trkpt>
      <trkpt lat="39.872278" lon="116.6720757">
        <ele>23.70049</ele>
        <time>2026-08-23T10:48:29.766000Z</time>
      </trkpt>
      <trkpt lat="39.8722261" lon="116.6721904">
        <ele>23.73614</ele>
        <time>2026-08-23T10:48:34.743000Z</time>
      </trkpt>
      <trkpt lat="39.8721758" lon="116.6723062">
        <ele>23.7481</ele>
        <time>2026-08-23T10:48:39.720000Z</time>
      </trkpt>
      <trkpt lat="39.8721296" lon="116.6724196">
        <ele>23.76626</ele>
        <time>2026-08-23T10:48:44.697000Z</time>
      </trkpt>
      <trkpt lat="39.8720916" lon="116.6725374">
        <ele>23.80371</ele>
        <time>2026-08-23T10:48:49.674000Z</time>
      </trkpt>
      <trkpt lat="39.8720671" lon="116.6726627">
        <ele>23.81606</ele>
        <time>2026-08-23T10:48:54.651000Z</time>
      </trkpt>
      <trkpt lat="39.8720578" lon="116.6727915">
        <ele>23.79193</ele>
        <time>2026-08-23T10:48:59.628000Z</time>
      </trkpt>
      <trkpt lat="39.8720601" lon="116.6729243">
        <ele>23.74791</ele>
        <time>2026-08-23T10:49:04.605000Z</time>
      </trkpt>
      <trkpt lat="39.8720777" lon="116.6730536">
        <ele>23.7592</ele>
        <time>2026-08-23T10:49:09.582000Z</time>
      </trkpt>
      <trkpt lat="39.8721041" lon="116.6731778">
        <ele>23.81896</ele>
        <time>2026-08-23T10:49:14.559000Z</time>
      </trkpt>
      <trkpt lat="39.8721371" lon="116.6732924">
        <ele>23.87223</ele>
        <time>2026-08-23T10:49:19.536000Z</time>
      </trkpt>
      <trkpt lat="39.8722025" lon="116.6733933">
        <ele>23.98301</ele>
        <time>2026-08-23T10:49:25.509000Z</time>
      </trkpt>
      <trkpt lat="39.8722952" lon="116.6734496">
        <ele>24.19041</ele>
        <time>2026-08-23T10:49:31.481000Z</time>
      </trkpt>
      <trkpt lat="39.8723849" lon="116.6734707">
        <ele>24.35832</ele>
        <time>2026-08-23T10:49:36.458000Z</time>
      </trkpt>
      <trkpt lat="39.8724777" lon="116.6734581">
        <ele>24.44178</ele>
        <time>2026-08-23T10:49:41.435000Z</time>
      </trkpt>
      <trkpt lat="39.872577" lon="116.6734071">
        <ele>24.4628</ele>
        <time>2026-08-23T10:49:47.408000Z</time>
      </trkpt>
      <trkpt lat="39.8726516" lon="116.6733389">
        <ele>24.47159</ele>
        <time>2026-08-23T10:49:52.385000Z</time>
      </trkpt>
      <trkpt lat="39.8727146" lon="116.6732523">
        <ele>24.449</ele>
        <time>2026-08-23T10:49:57.362000Z</time>
      </trkpt>
      <trkpt lat="39.8727558" lon="116.6731475">
        <ele>24.28975</ele>
        <time>2026-08-23T10:50:02.339000Z</time>
      </trkpt>
      <trkpt lat="39.8727963" lon="116.67304">
        <ele>23.99379</ele>
        <time>2026-08-23T10:50:07.316000Z</time>
      </trkpt>
      <trkpt lat="39.8728575" lon="116.672943">
        <ele>23.69764</ele>
        <time>2026-08-23T10:50:12.293000Z</time>
      </trkpt>
      <trkpt lat="39.8729367" lon="116.6728685">
        <ele>23.55039</ele>
        <time>2026-08-23T10:50:17.270000Z</time>
      </trkpt>
      <trkpt lat="39.873024" lon="116.6728147">
        <ele>23.63754</ele>
        <time>2026-08-23T10:50:22.247000Z</time>
      </trkpt>
      <trkpt lat="39.8731172" lon="116.6727614">
        <ele>23.88104</ele>
        <time>2026-08-23T10:50:27.224000Z</time>
      </trkpt>
      <trkpt lat="39.8732003" lon="116.6726867">
        <ele>24.15043</ele>
        <time>2026-08-23T10:50:32.201000Z</time>
      </trkpt>
      <trkpt lat="39.8732616" lon="116.672593">
        <ele>24.34161</ele>
        <time>2026-08-23T10:50:37Z</time>
      </trkpt>
      <trkpt lat="39.8733006" lon="116.672482">
        <ele>24.37728</ele>
        <time>2026-08-23T10:50:42Z</time>
      </trkpt>
      <trkpt lat="39.8733434" lon="116.6723657">
        <ele>24.33686</ele>
        <time>2026-08-23T10:50:47Z</time>
      </trkpt>
      <trkpt lat="39.8734091" lon="116.6722628">
        <ele>24.34762</ele>
        <time>2026-08-23T10:50:52Z</time>
      </trkpt>
      <trkpt lat="39.8734913" lon="116.6721776">
        <ele>24.44429</ele>
        <time>2026-08-23T10:50:57Z</time>
      </trkpt>
      <trkpt lat="39.8735878" lon="116.6721338">
        <ele>24.54161</ele>
        <time>2026-08-23T10:51:02Z</time>
      </trkpt>
      <trkpt lat="39.8736902" lon="116.6721286">
        <ele>24.6506</ele>
        <time>2026-08-23T10:51:07Z</time>
      </trkpt>
      <trkpt lat="39.8737888" lon="116.6721333">
        <ele>24.80507</ele>
        <time>2026-08-23T10:51:12Z</time>
      </trkpt>
      <trkpt lat="39.8738853" lon="116.6720792">
        <ele>24.95387</ele>
        <time>2026-08-23T10:51:17.990000Z</time>
      </trkpt>
      <trkpt lat="39.8739623" lon="116.6719816">
        <ele>24.91996</ele>
        <time>2026-08-23T10:51:23.962000Z</time>
      </trkpt>
      <trkpt lat="39.8740102" lon="116.671881">
        <ele>24.74216</ele>
        <time>2026-08-23T10:51:28.939000Z</time>
      </trkpt>
      <trkpt lat="39.8740401" lon="116.671767">
        <ele>24.46071</ele>
        <time>2026-08-23T10:51:33.916000Z</time>
      </trkpt>
      <trkpt lat="39.8740688" lon="116.6716474">
        <ele>24.15938</ele>
        <time>2026-08-23T10:51:38.893000Z</time>
      </trkpt>
      <trkpt lat="39.8741117" lon="116.6715445">
        <ele>24.02336</ele>
        <time>2026-08-23T10:51:43.870000Z</time>
      </trkpt>
      <trkpt lat="39.8742106" lon="116.6715293">
        <ele>24.10611</ele>
        <time>2026-08-23T10:51:48.847000Z</time>
      </trkpt>
      <trkpt lat="39.8743054" lon="116.6715784">
        <ele>24.2501</ele>
        <time>2026-08-23T10:51:53.824000Z</time>
      </trkpt>
      <trkpt lat="39.8743908" lon="116.671645">
        <ele>24.37608</ele>
        <time>2026-08-23T10:51:58.801000Z</time>
      </trkpt>
      <trkpt lat="39.8744827" lon="116.6716829">
        <ele>24.4564</ele>
        <time>2026-08-23T10:52:03.778000Z</time>
      </trkpt>
      <trkpt lat="39.8745755" lon="116.6716798">
        <ele>24.40507</ele>
        <time>2026-08-23T10:52:08.755000Z</time>
      </trkpt>
      <trkpt lat="39.8746525" lon="116.6716055">
        <ele>24.11384</ele>
        <time>2026-08-23T10:52:14.727000Z</time>
      </trkpt>
      <trkpt lat="39.8747203" lon="116.6715219">
        <ele>23.82795</ele>
        <time>2026-08-23T10:52:19.704000Z</time>
      </trkpt>
      <trkpt lat="39.8747889" lon="116.6714363">
        <ele>23.6324</ele>
        <time>2026-08-23T10:52:24.681000Z</time>
      </trkpt>
      <trkpt lat="39.8748444" lon="116.6713355">
        <ele>23.56294</ele>
        <time>2026-08-23T10:52:29.658000Z</time>
      </trkpt>
      <trkpt lat="39.8748686" lon="116.671215">
        <ele>23.61144</ele>
        <time>2026-08-23T10:52:34.635000Z</time>
      </trkpt>
      <trkpt lat="39.8748763" lon="116.6710923">
        <ele>23.63178</ele>
        <time>2026-08-23T10:52:39.612000Z</time>
      </trkpt>
      <trkpt lat="39.8748914" lon="116.6709717">
        <ele>23.49934</ele>
        <time>2026-08-23T10:52:44.589000Z</time>
      </trkpt>
      <trkpt lat="39.8749196" lon="116.6708528">
        <ele>23.26098</ele>
        <time>2026-08-23T10:52:49.566000Z</time>
      </trkpt>
      <trkpt lat="39.874939" lon="116.6707276">
        <ele>23.03429</ele>
        <time>2026-08-23T10:52:54.543000Z</time>
      </trkpt>
      <trkpt lat="39.8749286" lon="116.6706014">
        <ele>22.95628</ele>
        <time>2026-08-23T10:52:59.520000Z</time>
      </trkpt>
      <trkpt lat="39.8748434" lon="116.670525">
        <ele>23.04627</ele>
        <time>2026-08-23T10:53:05.493000Z</time>
      </trkpt>
      <trkpt lat="39.8747436" lon="116.6705364">
        <ele>23.16262</ele>
        <time>2026-08-23T10:53:10.470000Z</time>
      </trkpt>
      <trkpt lat="39.8746496" lon="116.6705493">
        <ele>23.33986</ele>
        <time>2026-08-23T10:53:15.447000Z</time>
      </trkpt>
      <trkpt lat="39.8745499" lon="116.6705545">
        <ele>23.48002</ele>
        <time>2026-08-23T10:53:20.424000Z</time>
      </trkpt>
      <trkpt lat="39.8744446" lon="116.670565">
        <ele>23.47131</ele>
        <time>2026-08-23T10:53:25.401000Z</time>
      </trkpt>
      <trkpt lat="39.8743406" lon="116.6705785">
        <ele>23.44986</ele>
        <time>2026-08-23T10:53:30.378000Z</time>
      </trkpt>
      <trkpt lat="39.8742374" lon="116.6705842">
        <ele>23.42421</ele>
        <time>2026-08-23T10:53:35.355000Z</time>
      </trkpt>
      <trkpt lat="39.8741388" lon="116.670591">
        <ele>23.41978</ele>
        <time>2026-08-23T10:53:40.332000Z</time>
      </trkpt>
      <trkpt lat="39.8740452" lon="116.6706021">
        <ele>23.50289</ele>
        <time>2026-08-23T10:53:45.309000Z</time>
      </trkpt>
      <trkpt lat="39.8739516" lon="116.6706108">
        <ele>23.68814</ele>
        <time>2026-08-23T10:53:50.286000Z</time>
      </trkpt>
      <trkpt lat="39.873855" lon="116.6706197">
        <ele>23.84477</ele>
        <time>2026-08-23T10:53:55.263000Z</time>
      </trkpt>
      <trkpt lat="39.873756" lon="116.6706258">
        <ele>23.86685</ele>
        <time>2026-08-23T10:54:00.240000Z</time>
      </trkpt>
      <trkpt lat="39.8736533" lon="116.6706343">
        <ele>23.76636</ele>
        <time>2026-08-23T10:54:05.217000Z</time>
      </trkpt>
      <trkpt lat="39.8735498" lon="116.6706457">
        <ele>23.59346</ele>
        <time>2026-08-23T10:54:10Z</time>
      </trkpt>
      <trkpt lat="39.8734442" lon="116.6706526">
        <ele>23.49585</ele>
        <time>2026-08-23T10:54:15Z</time>
      </trkpt>
      <trkpt lat="39.8733393" lon="116.6706624">
        <ele>23.47231</ele>
        <time>2026-08-23T10:54:20Z</time>
      </trkpt>
      <trkpt lat="39.8732341" lon="116.670669">
        <ele>23.42597</ele>
        <time>2026-08-23T10:54:25Z</time>
      </trkpt>
      <trkpt lat="39.8731314" lon="116.6706699">
        <ele>23.35079</ele>
        <time>2026-08-23T10:54:30Z</time>
      </trkpt>
      <trkpt lat="39.8730316" lon="116.6706511">
        <ele>23.28966</ele>
        <time>2026-08-23T10:54:35Z</time>
      </trkpt>
      <trkpt lat="39.8729371" lon="116.6706567">
        <ele>23.32741</ele>
        <time>2026-08-23T10:54:40Z</time>
      </trkpt>
      <trkpt lat="39.8728812" lon="116.6707661">
        <ele>23.66788</ele>
        <time>2026-08-23T10:54:46Z</time>
      </trkpt>
      <trkpt lat="39.8728405" lon="116.6708881">
        <ele>23.99915</ele>
        <time>2026-08-23T10:54:52Z</time>
      </trkpt>
      <trkpt lat="39.8727517" lon="116.6709174">
        <ele>23.82348</ele>
        <time>2026-08-23T10:54:56.978000Z</time>
      </trkpt>
      <trkpt lat="39.8726523" lon="116.6709123">
        <ele>23.59179</ele>
        <time>2026-08-23T10:55:01.955000Z</time>
      </trkpt>
      <trkpt lat="39.8725519" lon="116.6709046">
        <ele>23.39388</ele>
        <time>2026-08-23T10:55:06.932000Z</time>
      </trkpt>
      <trkpt lat="39.8724587" lon="116.6709274">
        <ele>23.27265</ele>
        <time>2026-08-23T10:55:11.909000Z</time>
      </trkpt>
      <trkpt lat="39.872386" lon="116.6709967">
        <ele>23.2625</ele>
        <time>2026-08-23T10:55:16.886000Z</time>
      </trkpt>
      <trkpt lat="39.872328" lon="116.6711115">
        <ele>23.322</ele>
        <time>2026-08-23T10:55:22.859000Z</time>
      </trkpt>
      <trkpt lat="39.8723129" lon="116.6712321">
        <ele>23.37207</ele>
        <time>2026-08-23T10:55:27.836000Z</time>
      </trkpt>
      <trkpt lat="39.8723076" lon="116.6713508">
        <ele>23.41162</ele>
        <time>2026-08-23T10:55:32.813000Z</time>
      </trkpt>
      <trkpt lat="39.8723101" lon="116.6714894">
        <ele>23.43813</ele>
        <time>2026-08-23T10:55:38.785000Z</time>
      </trkpt>
      <trkpt lat="39.8723241" lon="116.6716092">
        <ele>23.45775</ele>
        <time>2026-08-23T10:55:43.762000Z</time>
      </trkpt>
      <trkpt lat="39.872339" lon="116.671741">
        <ele>23.48865</ele>
        <time>2026-08-23T10:55:48.739000Z</time>
      </trkpt>
      <trkpt lat="39.8723412" lon="116.6718815">
        <ele>23.50943</ele>
        <time>2026-08-23T10:55:53.716000Z</time>
      </trkpt>
      <trkpt lat="39.8723156" lon="116.6720195">
        <ele>23.52442</ele>
        <time>2026-08-23T10:55:58.693000Z</time>
      </trkpt>
      <trkpt lat="39.872267" lon="116.6721443">
        <ele>23.50796</ele>
        <time>2026-08-23T10:56:03.670000Z</time>
      </trkpt>
      <trkpt lat="39.8722106" lon="116.6722593">
        <ele>23.46076</ele>
        <time>2026-08-23T10:56:08.647000Z</time>
      </trkpt>
      <trkpt lat="39.8721508" lon="116.6723762">
        <ele>23.45009</ele>
        <time>2026-08-23T10:56:13.625000Z</time>
      </trkpt>
      <trkpt lat="39.8721049" lon="116.6724963">
        <ele>23.52468</ele>
        <time>2026-08-23T10:56:18.602000Z</time>
      </trkpt>
      <trkpt lat="39.8720737" lon="116.6726242">
        <ele>23.64525</ele>
        <time>2026-08-23T10:56:23.579000Z</time>
      </trkpt>
      <trkpt lat="39.8720616" lon="116.6727496">
        <ele>23.76367</ele>
        <time>2026-08-23T10:56:28.556000Z</time>
      </trkpt>
      <trkpt lat="39.8720636" lon="116.6728825">
        <ele>23.87698</ele>
        <time>2026-08-23T10:56:33.533000Z</time>
      </trkpt>
      <trkpt lat="39.872074" lon="116.6730135">
        <ele>24.0046</ele>
        <time>2026-08-23T10:56:38.510000Z</time>
      </trkpt>
      <trkpt lat="39.8721009" lon="116.6731401">
        <ele>24.11474</ele>
        <time>2026-08-23T10:56:43.487000Z</time>
      </trkpt>
      <trkpt lat="39.8721317" lon="116.6732577">
        <ele>24.18415</ele>
        <time>2026-08-23T10:56:48.464000Z</time>
      </trkpt>
      <trkpt lat="39.8721939" lon="116.67337">
        <ele>24.22683</ele>
        <time>2026-08-23T10:56:54.436000Z</time>
      </trkpt>
      <trkpt lat="39.8722817" lon="116.6734364">
        <ele>24.30786</ele>
        <time>2026-08-23T10:57:00.409000Z</time>
      </trkpt>
      <trkpt lat="39.8723722" lon="116.6734418">
        <ele>24.3782</ele>
        <time>2026-08-23T10:57:05.386000Z</time>
      </trkpt>
      <trkpt lat="39.8724657" lon="116.6734442">
        <ele>24.39552</ele>
        <time>2026-08-23T10:57:10.363000Z</time>
      </trkpt>
      <trkpt lat="39.8725563" lon="116.6734202">
        <ele>24.37243</ele>
        <time>2026-08-23T10:57:15.340000Z</time>
      </trkpt>
      <trkpt lat="39.8726395" lon="116.6733631">
        <ele>24.32663</ele>
        <time>2026-08-23T10:57:20.317000Z</time>
      </trkpt>
      <trkpt lat="39.8727089" lon="116.6732857">
        <ele>24.26464</ele>
        <time>2026-08-23T10:57:25.294000Z</time>
      </trkpt>
      <trkpt lat="39.8727625" lon="116.6731826">
        <ele>24.15391</ele>
        <time>2026-08-23T10:57:30.271000Z</time>
      </trkpt>
      <trkpt lat="39.8728059" lon="116.6730735">
        <ele>23.95731</ele>
        <time>2026-08-23T10:57:35.248000Z</time>
      </trkpt>
      <trkpt lat="39.8728652" lon="116.6729677">
        <ele>23.71523</ele>
        <time>2026-08-23T10:57:40.225000Z</time>
      </trkpt>
      <trkpt lat="39.8729438" lon="116.6728756">
        <ele>23.49784</ele>
        <time>2026-08-23T10:57:45.202000Z</time>
      </trkpt>
      <trkpt lat="39.8730316" lon="116.67282">
        <ele>23.38519</ele>
        <time>2026-08-23T10:57:50Z</time>
      </trkpt>
      <trkpt lat="39.8731237" lon="116.672774">
        <ele>23.45079</ele>
        <time>2026-08-23T10:57:55Z</time>
      </trkpt>
      <trkpt lat="39.873215" lon="116.6727067">
        <ele>23.71095</ele>
        <time>2026-08-23T10:58:00.133000Z</time>
      </trkpt>
      <trkpt lat="39.8732892" lon="116.6726148">
        <ele>23.91908</ele>
        <time>2026-08-23T10:58:05.111000Z</time>
      </trkpt>
      <trkpt lat="39.8733411" lon="116.6725015">
        <ele>24.04103</ele>
        <time>2026-08-23T10:58:10.088000Z</time>
      </trkpt>
      <trkpt lat="39.8733973" lon="116.6723907">
        <ele>24.09112</ele>
        <time>2026-08-23T10:58:15.065000Z</time>
      </trkpt>
      <trkpt lat="39.8734686" lon="116.6723049">
        <ele>24.10997</ele>
        <time>2026-08-23T10:58:20.042000Z</time>
      </trkpt>
      <trkpt lat="39.8735518" lon="116.6722327">
        <ele>24.12886</ele>
        <time>2026-08-23T10:58:25.019000Z</time>
      </trkpt>
      <trkpt lat="39.8736481" lon="116.6721977">
        <ele>24.21436</ele>
        <time>2026-08-23T10:58:29.996000Z</time>
      </trkpt>
      <trkpt lat="39.8737467" lon="116.6721881">
        <ele>24.43014</ele>
        <time>2026-08-23T10:58:34.973000Z</time>
      </trkpt>
      <trkpt lat="39.8738442" lon="116.6721678">
        <ele>24.65157</ele>
        <time>2026-08-23T10:58:39.950000Z</time>
      </trkpt>
      <trkpt lat="39.8739224" lon="116.6720948">
        <ele>24.85328</ele>
        <time>2026-08-23T10:58:44.927000Z</time>
      </trkpt>
      <trkpt lat="39.8739879" lon="116.6719981">
        <ele>24.9583</ele>
        <time>2026-08-23T10:58:49.904000Z</time>
      </trkpt>
      <trkpt lat="39.8740278" lon="116.6718834">
        <ele>24.88755</ele>
        <time>2026-08-23T10:58:54.881000Z</time>
      </trkpt>
      <trkpt lat="39.8740582" lon="116.6717586">
        <ele>24.64591</ele>
        <time>2026-08-23T10:58:59.858000Z</time>
      </trkpt>
      <trkpt lat="39.8740883" lon="116.6716347">
        <ele>24.33444</ele>
        <time>2026-08-23T10:59:04.835000Z</time>
      </trkpt>
      <trkpt lat="39.8741571" lon="116.6715502">
        <ele>24.15491</ele>
        <time>2026-08-23T10:59:09.812000Z</time>
      </trkpt>
      <trkpt lat="39.8742648" lon="116.6715768">
        <ele>24.17352</ele>
        <time>2026-08-23T10:59:14.789000Z</time>
      </trkpt>
      <trkpt lat="39.8743472" lon="116.6716249">
        <ele>24.26126</ele>
        <time>2026-08-23T10:59:18.771000Z</time>
      </trkpt>
      <trkpt lat="39.8744386" lon="116.6716799">
        <ele>24.37698</ele>
        <time>2026-08-23T10:59:23.748000Z</time>
      </trkpt>
      <trkpt lat="39.8745356" lon="116.6716945">
        <ele>24.43861</ele>
        <time>2026-08-23T10:59:28.725000Z</time>
      </trkpt>
      <trkpt lat="39.8746362" lon="116.6716448">
        <ele>24.37256</ele>
        <time>2026-08-23T10:59:34.697000Z</time>
      </trkpt>
      <trkpt lat="39.8747029" lon="116.6715577">
        <ele>24.2474</ele>
        <time>2026-08-23T10:59:39.675000Z</time>
      </trkpt>
      <trkpt lat="39.8747673" lon="116.6714719">
        <ele>24.13707</ele>
        <time>2026-08-23T10:59:44.652000Z</time>
      </trkpt>
      <trkpt lat="39.8748254" lon="116.6713735">
        <ele>24.08642</ele>
        <time>2026-08-23T10:59:49.629000Z</time>
      </trkpt>
      <trkpt lat="39.8748601" lon="116.671253">
        <ele>24.08166</ele>
        <time>2026-08-23T10:59:54.606000Z</time>
      </trkpt>
      <trkpt lat="39.8748725" lon="116.6711245">
        <ele>24.0313</ele>
        <time>2026-08-23T10:59:59.583000Z</time>
      </trkpt>
      <trkpt lat="39.8748772" lon="116.670996">
        <ele>23.85488</ele>
        <time>2026-08-23T11:00:04.560000Z</time>
      </trkpt>
      <trkpt lat="39.8748964" lon="116.6708704">
        <ele>23.51191</ele>
        <time>2026-08-23T11:00:09.537000Z</time>
      </trkpt>
      <trkpt lat="39.8749497" lon="116.6707679">
        <ele>23.13371</ele>
        <time>2026-08-23T11:00:14.514000Z</time>
      </trkpt>
      <trkpt lat="39.8750083" lon="116.6706789">
        <ele>22.85579</ele>
        <time>2026-08-23T11:00:22.477000Z</time>
      </trkpt>
      <trkpt lat="39.8750193" lon="116.6705569">
        <ele>22.76403</ele>
        <time>2026-08-23T11:00:29.445000Z</time>
      </trkpt>
      <trkpt lat="39.8750308" lon="116.6704246">
        <ele>22.70559</ele>
        <time>2026-08-23T11:00:35.418000Z</time>
      </trkpt>
      <trkpt lat="39.8750061" lon="116.6702856">
        <ele>22.62207</ele>
        <time>2026-08-23T11:00:40.395000Z</time>
      </trkpt>
      <trkpt lat="39.8749764" lon="116.6701476">
        <ele>22.51663</ele>
        <time>2026-08-23T11:00:45.372000Z</time>
      </trkpt>
      <trkpt lat="39.8750347" lon="116.6700322">
        <ele>22.4773</ele>
        <time>2026-08-23T11:00:51.344000Z</time>
      </trkpt>
      <trkpt lat="39.8751122" lon="116.6699298">
        <ele>22.53587</ele>
        <time>2026-08-23T11:00:56.322000Z</time>
      </trkpt>
      <trkpt lat="39.8751581" lon="116.6697985">
        <ele>22.63215</ele>
        <time>2026-08-23T11:01:01.299000Z</time>
      </trkpt>
      <trkpt lat="39.8752138" lon="116.6696805">
        <ele>22.71792</ele>
        <time>2026-08-23T11:01:06.276000Z</time>
      </trkpt>
      <trkpt lat="39.8752952" lon="116.6695963">
        <ele>22.79435</ele>
        <time>2026-08-23T11:01:11.253000Z</time>
      </trkpt>
      <trkpt lat="39.875394" lon="116.6695594">
        <ele>22.87454</ele>
        <time>2026-08-23T11:01:16.230000Z</time>
      </trkpt>
      <trkpt lat="39.8754945" lon="116.6695296">
        <ele>22.98194</ele>
        <time>2026-08-23T11:01:21.207000Z</time>
      </trkpt>
      <trkpt lat="39.8755842" lon="116.6694582">
        <ele>23.09124</ele>
        <time>2026-08-23T11:01:26.184000Z</time>
      </trkpt>
      <trkpt lat="39.875642" lon="116.6693485">
        <ele>23.16459</ele>
        <time>2026-08-23T11:01:31.161000Z</time>
      </trkpt>
      <trkpt lat="39.8756676" lon="116.6692158">
        <ele>23.22298</ele>
        <time>2026-08-23T11:01:36.138000Z</time>
      </trkpt>
      <trkpt lat="39.8756618" lon="116.6690758">
        <ele>23.28239</ele>
        <time>2026-08-23T11:01:41.115000Z</time>
      </trkpt>
      <trkpt lat="39.8756307" lon="116.6689411">
        <ele>23.40601</ele>
        <time>2026-08-23T11:01:46.092000Z</time>
      </trkpt>
      <trkpt lat="39.8755691" lon="116.668826">
        <ele>23.49293</ele>
        <time>2026-08-23T11:01:51Z</time>
      </trkpt>
      <trkpt lat="39.8754869" lon="116.66873">
        <ele>23.45928</ele>
        <time>2026-08-23T11:01:56Z</time>
      </trkpt>
      <trkpt lat="39.8754061" lon="116.6686363">
        <ele>23.36985</ele>
        <time>2026-08-23T11:02:01Z</time>
      </trkpt>
      <trkpt lat="39.8753408" lon="116.6685181">
        <ele>23.15684</ele>
        <time>2026-08-23T11:02:06Z</time>
      </trkpt>
      <trkpt lat="39.8753072" lon="116.6684079">
        <ele>22.89207</ele>
        <time>2026-08-23T11:02:09.983000Z</time>
      </trkpt>
      <trkpt lat="39.875286" lon="116.6682925">
        <ele>22.67112</ele>
        <time>2026-08-23T11:02:13.964000Z</time>
      </trkpt>
      <trkpt lat="39.8752617" lon="116.6681504">
        <ele>22.5133</ele>
        <time>2026-08-23T11:02:18.941000Z</time>
      </trkpt>
      <trkpt lat="39.8752302" lon="116.6680111">
        <ele>22.47701</ele>
        <time>2026-08-23T11:02:23.918000Z</time>
      </trkpt>
      <trkpt lat="39.8751839" lon="116.6678819">
        <ele>22.50205</ele>
        <time>2026-08-23T11:02:28.895000Z</time>
      </trkpt>
      <trkpt lat="39.8751215" lon="116.6677664">
        <ele>22.51123</ele>
        <time>2026-08-23T11:02:33.873000Z</time>
      </trkpt>
      <trkpt lat="39.8750413" lon="116.6676793">
        <ele>22.47312</ele>
        <time>2026-08-23T11:02:38.850000Z</time>
      </trkpt>
      <trkpt lat="39.8749458" lon="116.6676192">
        <ele>22.41281</ele>
        <time>2026-08-23T11:02:43.827000Z</time>
      </trkpt>
      <trkpt lat="39.8748445" lon="116.6675784">
        <ele>22.36602</ele>
        <time>2026-08-23T11:02:48.804000Z</time>
      </trkpt>
      <trkpt lat="39.8747435" lon="116.66754">
        <ele>22.3516</ele>
        <time>2026-08-23T11:02:53.781000Z</time>
      </trkpt>
      <trkpt lat="39.8746386" lon="116.6675084">
        <ele>22.36521</ele>
        <time>2026-08-23T11:02:58.758000Z</time>
      </trkpt>
      <trkpt lat="39.8745322" lon="116.6674891">
        <ele>22.36365</ele>
        <time>2026-08-23T11:03:03.735000Z</time>
      </trkpt>
      <trkpt lat="39.8744265" lon="116.6674888">
        <ele>22.31103</ele>
        <time>2026-08-23T11:03:08.712000Z</time>
      </trkpt>
      <trkpt lat="39.874327" lon="116.6675308">
        <ele>22.18951</ele>
        <time>2026-08-23T11:03:13.689000Z</time>
      </trkpt>
      <trkpt lat="39.8742351" lon="116.6675972">
        <ele>22.00001</ele>
        <time>2026-08-23T11:03:18.666000Z</time>
      </trkpt>
      <trkpt lat="39.8741443" lon="116.6676654">
        <ele>21.78824</ele>
        <time>2026-08-23T11:03:23.643000Z</time>
      </trkpt>
      <trkpt lat="39.8740512" lon="116.6677328">
        <ele>21.59248</ele>
        <time>2026-08-23T11:03:28.620000Z</time>
      </trkpt>
      <trkpt lat="39.8739544" lon="116.6677814">
        <ele>21.41078</ele>
        <time>2026-08-23T11:03:33.598000Z</time>
      </trkpt>
      <trkpt lat="39.8738514" lon="116.6678153">
        <ele>21.28612</ele>
        <time>2026-08-23T11:03:38.575000Z</time>
      </trkpt>
      <trkpt lat="39.8737475" lon="116.6678219">
        <ele>21.21742</ele>
        <time>2026-08-23T11:03:43.552000Z</time>
      </trkpt>
      <trkpt lat="39.873646" lon="116.6677981">
        <ele>21.19672</ele>
        <time>2026-08-23T11:03:48.529000Z</time>
      </trkpt>
      <trkpt lat="39.8735432" lon="116.6677621">
        <ele>21.2491</ele>
        <time>2026-08-23T11:03:53.506000Z</time>
      </trkpt>
      <trkpt lat="39.8734372" lon="116.6677427">
        <ele>21.37068</ele>
        <time>2026-08-23T11:03:58.483000Z</time>
      </trkpt>
      <trkpt lat="39.8733302" lon="116.6677612">
        <ele>21.53436</ele>
        <time>2026-08-23T11:04:03.460000Z</time>
      </trkpt>
      <trkpt lat="39.8732284" lon="116.6678041">
        <ele>21.65462</ele>
        <time>2026-08-23T11:04:08.437000Z</time>
      </trkpt>
      <trkpt lat="39.8731266" lon="116.6678527">
        <ele>21.71984</ele>
        <time>2026-08-23T11:04:13.414000Z</time>
      </trkpt>
      <trkpt lat="39.873025" lon="116.667876">
        <ele>21.7809</ele>
        <time>2026-08-23T11:04:18.391000Z</time>
      </trkpt>
      <trkpt lat="39.872922" lon="116.6678613">
        <ele>21.837</ele>
        <time>2026-08-23T11:04:23.368000Z</time>
      </trkpt>
      <trkpt lat="39.8728243" lon="116.66781">
        <ele>21.85888</ele>
        <time>2026-08-23T11:04:28.345000Z</time>
      </trkpt>
      <trkpt lat="39.8727255" lon="116.66776">
        <ele>21.838</ele>
        <time>2026-08-23T11:04:33.322000Z</time>
      </trkpt>
      <trkpt lat="39.8726229" lon="116.6677274">
        <ele>21.83896</ele>
        <time>2026-08-23T11:04:38.300000Z</time>
      </trkpt>
      <trkpt lat="39.8725125" lon="116.6677062">
        <ele>21.87055</ele>
        <time>2026-08-23T11:04:43.277000Z</time>
      </trkpt>
      <trkpt lat="39.8724008" lon="116.6677006">
        <ele>21.86802</ele>
        <time>2026-08-23T11:04:48.254000Z</time>
      </trkpt>
      <trkpt lat="39.872292" lon="116.6677256">
        <ele>21.80998</ele>
        <time>2026-08-23T11:04:53.231000Z</time>
      </trkpt>
      <trkpt lat="39.8721851" lon="116.6677469">
        <ele>21.79488</ele>
        <time>2026-08-23T11:04:58.208000Z</time>
      </trkpt>
      <trkpt lat="39.8720819" lon="116.6677431">
        <ele>21.81985</ele>
        <time>2026-08-23T11:05:03Z</time>
      </trkpt>
      <trkpt lat="39.8719748" lon="116.6677246">
        <ele>21.77538</ele>
        <time>2026-08-23T11:05:08Z</time>
      </trkpt>
      <trkpt lat="39.8718719" lon="116.6676821">
        <ele>21.69483</ele>
        <time>2026-08-23T11:05:13Z</time>
      </trkpt>
      <trkpt lat="39.8717745" lon="116.6676199">
        <ele>21.60413</ele>
        <time>2026-08-23T11:05:18Z</time>
      </trkpt>
      <trkpt lat="39.8716722" lon="116.6675649">
        <ele>21.49773</ele>
        <time>2026-08-23T11:05:23Z</time>
      </trkpt>
      <trkpt lat="39.8715624" lon="116.6675384">
        <ele>21.38024</ele>
        <time>2026-08-23T11:05:28Z</time>
      </trkpt>
      <trkpt lat="39.8714717" lon="116.6675368">
        <ele>21.25512</ele>
        <time>2026-08-23T11:05:32Z</time>
      </trkpt>
      <trkpt lat="39.8713801" lon="116.6675424">
        <ele>21.0531</ele>
        <time>2026-08-23T11:05:36.034000Z</time>
      </trkpt>
      <trkpt lat="39.8712701" lon="116.6675565">
        <ele>20.8014</ele>
        <time>2026-08-23T11:05:41.011000Z</time>
      </trkpt>
      <trkpt lat="39.8711802" lon="116.6675701">
        <ele>20.67313</ele>
        <time>2026-08-23T11:05:44.993000Z</time>
      </trkpt>
      <trkpt lat="39.871071" lon="116.6675898">
        <ele>20.60829</ele>
        <time>2026-08-23T11:05:49.970000Z</time>
      </trkpt>
      <trkpt lat="39.8709837" lon="116.6676544">
        <ele>20.65461</ele>
        <time>2026-08-23T11:05:54.947000Z</time>
      </trkpt>
      <trkpt lat="39.8709277" lon="116.6677782">
        <ele>20.82391</ele>
        <time>2026-08-23T11:05:59.924000Z</time>
      </trkpt>
      <trkpt lat="39.8708531" lon="116.6678761">
        <ele>21.01218</ele>
        <time>2026-08-23T11:06:04.901000Z</time>
      </trkpt>
      <trkpt lat="39.8707489" lon="116.6679084">
        <ele>21.06349</ele>
        <time>2026-08-23T11:06:09.878000Z</time>
      </trkpt>
      <trkpt lat="39.8706389" lon="116.6679247">
        <ele>21.00505</ele>
        <time>2026-08-23T11:06:14.855000Z</time>
      </trkpt>
      <trkpt lat="39.8705339" lon="116.6679317">
        <ele>20.93827</ele>
        <time>2026-08-23T11:06:19.832000Z</time>
      </trkpt>
      <trkpt lat="39.870428" lon="116.6679159">
        <ele>20.914</ele>
        <time>2026-08-23T11:06:24.809000Z</time>
      </trkpt>
      <trkpt lat="39.8703323" lon="116.6678629">
        <ele>20.95482</ele>
        <time>2026-08-23T11:06:29.787000Z</time>
      </trkpt>
      <trkpt lat="39.8702575" lon="116.66779">
        <ele>21.02382</ele>
        <time>2026-08-23T11:06:34.764000Z</time>
      </trkpt>
      <trkpt lat="39.8701637" lon="116.6677585">
        <ele>21.05158</ele>
        <time>2026-08-23T11:06:40.736000Z</time>
      </trkpt>
      <trkpt lat="39.870062" lon="116.6677724">
        <ele>20.99597</ele>
        <time>2026-08-23T11:06:46.709000Z</time>
      </trkpt>
      <trkpt lat="39.8699581" lon="116.6677914">
        <ele>20.89449</ele>
        <time>2026-08-23T11:06:52.681000Z</time>
      </trkpt>
      <trkpt lat="39.869868" lon="116.6677812">
        <ele>20.79462</ele>
        <time>2026-08-23T11:06:57.658000Z</time>
      </trkpt>
      <trkpt lat="39.8697685" lon="116.6677331">
        <ele>20.69366</ele>
        <time>2026-08-23T11:07:02.635000Z</time>
      </trkpt>
      <trkpt lat="39.8696599" lon="116.6677216">
        <ele>20.64102</ele>
        <time>2026-08-23T11:07:07.613000Z</time>
      </trkpt>
      <trkpt lat="39.869563" lon="116.6677598">
        <ele>20.66003</ele>
        <time>2026-08-23T11:07:12.590000Z</time>
      </trkpt>
      <trkpt lat="39.8694958" lon="116.6678537">
        <ele>20.73156</ele>
        <time>2026-08-23T11:07:17.567000Z</time>
      </trkpt>
      <trkpt lat="39.8694748" lon="116.6679861">
        <ele>20.82054</ele>
        <time>2026-08-23T11:07:22.544000Z</time>
      </trkpt>
      <trkpt lat="39.8694871" lon="116.6681257">
        <ele>20.91192</ele>
        <time>2026-08-23T11:07:27.521000Z</time>
      </trkpt>
      <trkpt lat="39.8695264" lon="116.6682557">
        <ele>20.97705</ele>
        <time>2026-08-23T11:07:32.498000Z</time>
      </trkpt>
      <trkpt lat="39.8696001" lon="116.6683507">
        <ele>20.98021</ele>
        <time>2026-08-23T11:07:37.475000Z</time>
      </trkpt>
      <trkpt lat="39.8696957" lon="116.6683712">
        <ele>20.89418</ele>
        <time>2026-08-23T11:07:42.452000Z</time>
      </trkpt>
      <trkpt lat="39.8697926" lon="116.668336">
        <ele>20.78943</ele>
        <time>2026-08-23T11:07:47.429000Z</time>
      </trkpt>
      <trkpt lat="39.8698925" lon="116.6682984">
        <ele>20.72865</ele>
        <time>2026-08-23T11:07:52.407000Z</time>
      </trkpt>
      <trkpt lat="39.8699985" lon="116.6682885">
        <ele>20.68101</ele>
        <time>2026-08-23T11:07:57.384000Z</time>
      </trkpt>
      <trkpt lat="39.8701097" lon="116.6682848">
        <ele>20.63676</ele>
        <time>2026-08-23T11:08:02.361000Z</time>
      </trkpt>
      <trkpt lat="39.8702162" lon="116.6682628">
        <ele>20.57103</ele>
        <time>2026-08-23T11:08:07.338000Z</time>
      </trkpt>
      <trkpt lat="39.8703169" lon="116.6682006">
        <ele>20.46527</ele>
        <time>2026-08-23T11:08:12.315000Z</time>
      </trkpt>
      <trkpt lat="39.8704127" lon="116.6681249">
        <ele>20.36693</ele>
        <time>2026-08-23T11:08:17.292000Z</time>
      </trkpt>
      <trkpt lat="39.8705144" lon="116.6680757">
        <ele>20.32607</ele>
        <time>2026-08-23T11:08:22.269000Z</time>
      </trkpt>
      <trkpt lat="39.8706229" lon="116.6680749">
        <ele>20.35233</ele>
        <time>2026-08-23T11:08:27.246000Z</time>
      </trkpt>
      <trkpt lat="39.8707314" lon="116.6681036">
        <ele>20.3746</ele>
        <time>2026-08-23T11:08:32.223000Z</time>
      </trkpt>
      <trkpt lat="39.8708203" lon="116.668124">
        <ele>20.32033</ele>
        <time>2026-08-23T11:08:36.205000Z</time>
      </trkpt>
      <trkpt lat="39.8709123" lon="116.6681256">
        <ele>20.20083</ele>
        <time>2026-08-23T11:08:40.187000Z</time>
      </trkpt>
      <trkpt lat="39.8710236" lon="116.6680991">
        <ele>20.06469</ele>
        <time>2026-08-23T11:08:45Z</time>
      </trkpt>
      <trkpt lat="39.8711084" lon="116.6680552">
        <ele>20.01974</ele>
        <time>2026-08-23T11:08:49Z</time>
      </trkpt>
      <trkpt lat="39.8712089" lon="116.6679964">
        <ele>20.07721</ele>
        <time>2026-08-23T11:08:53.999000Z</time>
      </trkpt>
      <trkpt lat="39.8713152" lon="116.6679587">
        <ele>20.19212</ele>
        <time>2026-08-23T11:08:58.999000Z</time>
      </trkpt>
      <trkpt lat="39.8714051" lon="116.667949">
        <ele>20.29532</ele>
        <time>2026-08-23T11:09:02.999000Z</time>
      </trkpt>
      <trkpt lat="39.8714945" lon="116.6679637">
        <ele>20.39256</ele>
        <time>2026-08-23T11:09:06.999000Z</time>
      </trkpt>
      <trkpt lat="39.8715841" lon="116.6679946">
        <ele>20.47037</ele>
        <time>2026-08-23T11:09:11.045000Z</time>
      </trkpt>
      <trkpt lat="39.8716711" lon="116.6680428">
        <ele>20.54836</ele>
        <time>2026-08-23T11:09:15.027000Z</time>
      </trkpt>
      <trkpt lat="39.8717536" lon="116.6681055">
        <ele>20.66852</ele>
        <time>2026-08-23T11:09:19.008000Z</time>
      </trkpt>
      <trkpt lat="39.8718374" lon="116.6681649">
        <ele>20.85875</ele>
        <time>2026-08-23T11:09:22.990000Z</time>
      </trkpt>
      <trkpt lat="39.8719247" lon="116.6682105">
        <ele>21.06662</ele>
        <time>2026-08-23T11:09:26.972000Z</time>
      </trkpt>
      <trkpt lat="39.8720177" lon="116.6682428">
        <ele>21.20511</ele>
        <time>2026-08-23T11:09:30.953000Z</time>
      </trkpt>
      <trkpt lat="39.8721091" lon="116.6682666">
        <ele>21.28739</ele>
        <time>2026-08-23T11:09:34.935000Z</time>
      </trkpt>
      <trkpt lat="39.8721993" lon="116.668292">
        <ele>21.35764</ele>
        <time>2026-08-23T11:09:38.917000Z</time>
      </trkpt>
      <trkpt lat="39.8722904" lon="116.6683213">
        <ele>21.40719</ele>
        <time>2026-08-23T11:09:42.898000Z</time>
      </trkpt>
      <trkpt lat="39.8723751" lon="116.6683699">
        <ele>21.4124</ele>
        <time>2026-08-23T11:09:46.880000Z</time>
      </trkpt>
      <trkpt lat="39.8724615" lon="116.6684625">
        <ele>21.36624</ele>
        <time>2026-08-23T11:09:51.857000Z</time>
      </trkpt>
      <trkpt lat="39.8725335" lon="116.668552">
        <ele>21.32884</ele>
        <time>2026-08-23T11:09:56.834000Z</time>
      </trkpt>
      <trkpt lat="39.8726135" lon="116.6686312">
        <ele>21.39832</ele>
        <time>2026-08-23T11:10:05.793000Z</time>
      </trkpt>
      <trkpt lat="39.8726146" lon="116.6687494">
        <ele>21.44097</ele>
        <time>2026-08-23T11:10:09.775000Z</time>
      </trkpt>
      <trkpt lat="39.8726006" lon="116.668872">
        <ele>21.46729</ele>
        <time>2026-08-23T11:10:13.756000Z</time>
      </trkpt>
      <trkpt lat="39.8725704" lon="116.6689838">
        <ele>21.47871</ele>
        <time>2026-08-23T11:10:17.738000Z</time>
      </trkpt>
      <trkpt lat="39.8725302" lon="116.6690898">
        <ele>21.4592</ele>
        <time>2026-08-23T11:10:21.720000Z</time>
      </trkpt>
      <trkpt lat="39.8725018" lon="116.6692016">
        <ele>21.41185</ele>
        <time>2026-08-23T11:10:25.701000Z</time>
      </trkpt>
      <trkpt lat="39.8724822" lon="116.6693446">
        <ele>21.39905</ele>
        <time>2026-08-23T11:10:30.679000Z</time>
      </trkpt>
      <trkpt lat="39.8724755" lon="116.66949">
        <ele>21.48493</ele>
        <time>2026-08-23T11:10:35.656000Z</time>
      </trkpt>
      <trkpt lat="39.8724851" lon="116.6696066">
        <ele>21.58617</ele>
        <time>2026-08-23T11:10:39.637000Z</time>
      </trkpt>
      <trkpt lat="39.8725123" lon="116.66972">
        <ele>21.67069</ele>
        <time>2026-08-23T11:10:43.619000Z</time>
      </trkpt>
      <trkpt lat="39.8725574" lon="116.6698244">
        <ele>21.73645</ele>
        <time>2026-08-23T11:10:47.601000Z</time>
      </trkpt>
      <trkpt lat="39.8726191" lon="116.6699141">
        <ele>21.77934</ele>
        <time>2026-08-23T11:10:51.582000Z</time>
      </trkpt>
      <trkpt lat="39.8726928" lon="116.6699831">
        <ele>21.78732</ele>
        <time>2026-08-23T11:10:55.564000Z</time>
      </trkpt>
      <trkpt lat="39.8727761" lon="116.6700373">
        <ele>21.75198</ele>
        <time>2026-08-23T11:10:59.546000Z</time>
      </trkpt>
      <trkpt lat="39.8728638" lon="116.6700761">
        <ele>21.68994</ele>
        <time>2026-08-23T11:11:03.527000Z</time>
      </trkpt>
      <trkpt lat="39.8729544" lon="116.6700965">
        <ele>21.61493</ele>
        <time>2026-08-23T11:11:07.509000Z</time>
      </trkpt>
      <trkpt lat="39.8730465" lon="116.6701052">
        <ele>21.52108</ele>
        <time>2026-08-23T11:11:11.491000Z</time>
      </trkpt>
      <trkpt lat="39.8731376" lon="116.6701014">
        <ele>21.38235</ele>
        <time>2026-08-23T11:11:15.472000Z</time>
      </trkpt>
      <trkpt lat="39.8732478" lon="116.6700766">
        <ele>21.14345</ele>
        <time>2026-08-23T11:11:20.449000Z</time>
      </trkpt>
      <trkpt lat="39.87335" lon="116.6700333">
        <ele>20.88812</ele>
        <time>2026-08-23T11:11:25.427000Z</time>
      </trkpt>
      <trkpt lat="39.8734429" lon="116.6699636">
        <ele>20.67963</ele>
        <time>2026-08-23T11:11:30.404000Z</time>
      </trkpt>
      <trkpt lat="39.873532" lon="116.6698812">
        <ele>20.58754</ele>
        <time>2026-08-23T11:11:35.381000Z</time>
      </trkpt>
      <trkpt lat="39.8736284" lon="116.6698068">
        <ele>20.63457</ele>
        <time>2026-08-23T11:11:40.358000Z</time>
      </trkpt>
      <trkpt lat="39.8737331" lon="116.6697592">
        <ele>20.79281</ele>
        <time>2026-08-23T11:11:45.335000Z</time>
      </trkpt>
      <trkpt lat="39.8738435" lon="116.6697583">
        <ele>20.9687</ele>
        <time>2026-08-23T11:11:50.312000Z</time>
      </trkpt>
      <trkpt lat="39.8739334" lon="116.6697781">
        <ele>21.0588</ele>
        <time>2026-08-23T11:11:54.294000Z</time>
      </trkpt>
      <trkpt lat="39.8740265" lon="116.6697956">
        <ele>21.11539</ele>
        <time>2026-08-23T11:11:58.275000Z</time>
      </trkpt>
      <trkpt lat="39.87412" lon="116.6698018">
        <ele>21.16357</ele>
        <time>2026-08-23T11:12:02.257000Z</time>
      </trkpt>
      <trkpt lat="39.8742118" lon="116.6697885">
        <ele>21.18783</ele>
        <time>2026-08-23T11:12:06.238000Z</time>
      </trkpt>
      <trkpt lat="39.8743002" lon="116.6697483">
        <ele>21.18754</ele>
        <time>2026-08-23T11:12:10.220000Z</time>
      </trkpt>
      <trkpt lat="39.8743806" lon="116.669677">
        <ele>21.21872</ele>
        <time>2026-08-23T11:12:14.202000Z</time>
      </trkpt>
      <trkpt lat="39.8744565" lon="116.669592">
        <ele>21.32869</ele>
        <time>2026-08-23T11:12:18.183000Z</time>
      </trkpt>
      <trkpt lat="39.8745317" lon="116.6695131">
        <ele>21.5174</ele>
        <time>2026-08-23T11:12:22.165000Z</time>
      </trkpt>
      <trkpt lat="39.8746201" lon="116.6694579">
        <ele>21.74663</ele>
        <time>2026-08-23T11:12:26.147000Z</time>
      </trkpt>
      <trkpt lat="39.8747131" lon="116.6694439">
        <ele>21.98337</ele>
        <time>2026-08-23T11:12:30.128000Z</time>
      </trkpt>
      <trkpt lat="39.8748012" lon="116.6694696">
        <ele>22.18374</ele>
        <time>2026-08-23T11:12:34.110000Z</time>
      </trkpt>
      <trkpt lat="39.8748838" lon="116.6695181">
        <ele>22.30898</ele>
        <time>2026-08-23T11:12:38.092000Z</time>
      </trkpt>
      <trkpt lat="39.8749795" lon="116.6695923">
        <ele>22.27446</ele>
        <time>2026-08-23T11:12:43.069000Z</time>
      </trkpt>
      <trkpt lat="39.8750707" lon="116.6696597">
        <ele>22.04874</ele>
        <time>2026-08-23T11:12:48.046000Z</time>
      </trkpt>
      <trkpt lat="39.87517" lon="116.6696671">
        <ele>21.98201</ele>
        <time>2026-08-23T11:12:53.023000Z</time>
      </trkpt>
      <trkpt lat="39.875266" lon="116.6696048">
        <ele>22.15326</ele>
        <time>2026-08-23T11:12:58Z</time>
      </trkpt>
      <trkpt lat="39.8753655" lon="116.6695484">
        <ele>22.56151</ele>
        <time>2026-08-23T11:13:02.977000Z</time>
      </trkpt>
      <trkpt lat="39.8754687" lon="116.6695053">
        <ele>22.9261</ele>
        <time>2026-08-23T11:13:07.954000Z</time>
      </trkpt>
      <trkpt lat="39.8755469" lon="116.6694456">
        <ele>23.13289</ele>
        <time>2026-08-23T11:13:11.936000Z</time>
      </trkpt>
      <trkpt lat="39.8756166" lon="116.6693343">
        <ele>23.27966</ele>
        <time>2026-08-23T11:13:16.913000Z</time>
      </trkpt>
      <trkpt lat="39.8756396" lon="116.6692194">
        <ele>23.35852</ele>
        <time>2026-08-23T11:13:20.894000Z</time>
      </trkpt>
      <trkpt lat="39.8756398" lon="116.6691022">
        <ele>23.38751</ele>
        <time>2026-08-23T11:13:24.876000Z</time>
      </trkpt>
      <trkpt lat="39.8756093" lon="116.6689662">
        <ele>23.31664</ele>
        <time>2026-08-23T11:13:29.853000Z</time>
      </trkpt>
      <trkpt lat="39.8755479" lon="116.6688469">
        <ele>23.17194</ele>
        <time>2026-08-23T11:13:34.830000Z</time>
      </trkpt>
      <trkpt lat="39.8754694" lon="116.6687489">
        <ele>23.01451</ele>
        <time>2026-08-23T11:13:39.807000Z</time>
      </trkpt>
      <trkpt lat="39.875404" lon="116.6686662">
        <ele>22.88582</ele>
        <time>2026-08-23T11:13:43.789000Z</time>
      </trkpt>
      <trkpt lat="39.875347" lon="116.6685663">
        <ele>22.75255</ele>
        <time>2026-08-23T11:13:47.770000Z</time>
      </trkpt>
      <trkpt lat="39.8753116" lon="116.6684479">
        <ele>22.64154</ele>
        <time>2026-08-23T11:13:51.752000Z</time>
      </trkpt>
      <trkpt lat="39.8752875" lon="116.6683228">
        <ele>22.56484</ele>
        <time>2026-08-23T11:13:55.734000Z</time>
      </trkpt>
      <trkpt lat="39.8752642" lon="116.6681972">
        <ele>22.53168</ele>
        <time>2026-08-23T11:13:59.715000Z</time>
      </trkpt>
      <trkpt lat="39.8752392" lon="116.6680746">
        <ele>22.54494</ele>
        <time>2026-08-23T11:14:03.697000Z</time>
      </trkpt>
      <trkpt lat="39.8752015" lon="116.6679605">
        <ele>22.57883</ele>
        <time>2026-08-23T11:14:07.679000Z</time>
      </trkpt>
      <trkpt lat="39.8751574" lon="116.6678542">
        <ele>22.61054</ele>
        <time>2026-08-23T11:14:11.660000Z</time>
      </trkpt>
      <trkpt lat="39.8751054" lon="116.667755">
        <ele>22.62469</ele>
        <time>2026-08-23T11:14:15.642000Z</time>
      </trkpt>
      <trkpt lat="39.875037" lon="116.6676728">
        <ele>22.62354</ele>
        <time>2026-08-23T11:14:19.623000Z</time>
      </trkpt>
      <trkpt lat="39.8749572" lon="116.6676115">
        <ele>22.61138</ele>
        <time>2026-08-23T11:14:23.605000Z</time>
      </trkpt>
      <trkpt lat="39.8748698" lon="116.6675694">
        <ele>22.5917</ele>
        <time>2026-08-23T11:14:27.587000Z</time>
      </trkpt>
      <trkpt lat="39.8747808" lon="116.6675393">
        <ele>22.5691</ele>
        <time>2026-08-23T11:14:31.568000Z</time>
      </trkpt>
      <trkpt lat="39.8746897" lon="116.667514">
        <ele>22.54231</ele>
        <time>2026-08-23T11:14:35.550000Z</time>
      </trkpt>
      <trkpt lat="39.8745975" lon="116.6674972">
        <ele>22.49653</ele>
        <time>2026-08-23T11:14:39.532000Z</time>
      </trkpt>
      <trkpt lat="39.8745026" lon="116.6675018">
        <ele>22.40785</ele>
        <time>2026-08-23T11:14:43.513000Z</time>
      </trkpt>
      <trkpt lat="39.87441" lon="116.6675335">
        <ele>22.27192</ele>
        <time>2026-08-23T11:14:47.495000Z</time>
      </trkpt>
      <trkpt lat="39.8743197" lon="116.6675803">
        <ele>22.08493</ele>
        <time>2026-08-23T11:14:51.477000Z</time>
      </trkpt>
      <trkpt lat="39.8742293" lon="116.6676321">
        <ele>21.86294</ele>
        <time>2026-08-23T11:14:55.458000Z</time>
      </trkpt>
      <trkpt lat="39.8741416" lon="116.6676813">
        <ele>21.63897</ele>
        <time>2026-08-23T11:14:59.440000Z</time>
      </trkpt>
      <trkpt lat="39.8740537" lon="116.6677274">
        <ele>21.46141</ele>
        <time>2026-08-23T11:15:03.421000Z</time>
      </trkpt>
      <trkpt lat="39.8739627" lon="116.667759">
        <ele>21.34443</ele>
        <time>2026-08-23T11:15:07.403000Z</time>
      </trkpt>
      <trkpt lat="39.8738535" lon="116.6677798">
        <ele>21.25216</ele>
        <time>2026-08-23T11:15:12.380000Z</time>
      </trkpt>
      <trkpt lat="39.8737492" lon="116.6678027">
        <ele>21.19949</ele>
        <time>2026-08-23T11:15:17.357000Z</time>
      </trkpt>
      <trkpt lat="39.873647" lon="116.6677996">
        <ele>21.19787</ele>
        <time>2026-08-23T11:15:22.334000Z</time>
      </trkpt>
      <trkpt lat="39.8735576" lon="116.6677619">
        <ele>21.25741</ele>
        <time>2026-08-23T11:15:26.316000Z</time>
      </trkpt>
      <trkpt lat="39.8734635" lon="116.6677394">
        <ele>21.35762</ele>
        <time>2026-08-23T11:15:30.297000Z</time>
      </trkpt>
      <trkpt lat="39.8733666" lon="116.6677486">
        <ele>21.46804</ele>
        <time>2026-08-23T11:15:34.279000Z</time>
      </trkpt>
      <trkpt lat="39.8732738" lon="116.6677898">
        <ele>21.52684</ele>
        <time>2026-08-23T11:15:38.261000Z</time>
      </trkpt>
      <trkpt lat="39.8731899" lon="116.6678409">
        <ele>21.46674</ele>
        <time>2026-08-23T11:15:42.242000Z</time>
      </trkpt>
      <trkpt lat="39.8731019" lon="116.6678752">
        <ele>21.25589</ele>
        <time>2026-08-23T11:15:46.224000Z</time>
      </trkpt>
      <trkpt lat="39.8729892" lon="116.6678806">
        <ele>20.81551</ele>
        <time>2026-08-23T11:15:51.201000Z</time>
      </trkpt>
      <trkpt lat="39.8728778" lon="116.6678521">
        <ele>20.47184</ele>
        <time>2026-08-23T11:15:56Z</time>
      </trkpt>
      <trkpt lat="39.8727873" lon="116.6678166">
        <ele>20.41535</ele>
        <time>2026-08-23T11:16:00Z</time>
      </trkpt>
      <trkpt lat="39.8726953" lon="116.6677883">
        <ele>20.43216</ele>
        <time>2026-08-23T11:16:04Z</time>
      </trkpt>
      <trkpt lat="39.8725997" lon="116.6677607">
        <ele>20.4503</ele>
        <time>2026-08-23T11:16:08Z</time>
      </trkpt>
      <trkpt lat="39.8724984" lon="116.6677425">
        <ele>20.50981</ele>
        <time>2026-08-23T11:16:12Z</time>
      </trkpt>
      <trkpt lat="39.8723943" lon="116.6677382">
        <ele>20.62014</ele>
        <time>2026-08-23T11:16:16.086000Z</time>
      </trkpt>
      <trkpt lat="39.8722947" lon="116.6677438">
        <ele>20.64215</ele>
        <time>2026-08-23T11:16:20.068000Z</time>
      </trkpt>
      <trkpt lat="39.8721925" lon="116.6677484">
        <ele>20.52935</ele>
        <time>2026-08-23T11:16:24.050000Z</time>
      </trkpt>
      <trkpt lat="39.8720909" lon="116.6677425">
        <ele>20.32773</ele>
        <time>2026-08-23T11:16:28.031000Z</time>
      </trkpt>
      <trkpt lat="39.8719891" lon="116.6677244">
        <ele>20.151</ele>
        <time>2026-08-23T11:16:32Z</time>
      </trkpt>
      <trkpt lat="39.8718907" lon="116.6676883">
        <ele>20.10695</ele>
        <time>2026-08-23T11:16:35.994000Z</time>
      </trkpt>
      <trkpt lat="39.8717939" lon="116.6676434">
        <ele>20.14295</ele>
        <time>2026-08-23T11:16:39.976000Z</time>
      </trkpt>
      <trkpt lat="39.8716948" lon="116.667589">
        <ele>20.20033</ele>
        <time>2026-08-23T11:16:43.958000Z</time>
      </trkpt>
      <trkpt lat="39.871609" lon="116.6675486">
        <ele>20.2513</ele>
        <time>2026-08-23T11:16:46.944000Z</time>
      </trkpt>
      <trkpt lat="39.8715201" lon="116.667522">
        <ele>20.29467</ele>
        <time>2026-08-23T11:16:49.930000Z</time>
      </trkpt>
      <trkpt lat="39.871428" lon="116.6675111">
        <ele>20.31913</ele>
        <time>2026-08-23T11:16:52.916000Z</time>
      </trkpt>
      <trkpt lat="39.8713379" lon="116.6675111">
        <ele>20.32909</ele>
        <time>2026-08-23T11:16:55.903000Z</time>
      </trkpt>
      <trkpt lat="39.8712206" lon="116.6675144">
        <ele>20.33681</ele>
        <time>2026-08-23T11:16:59.884000Z</time>
      </trkpt>
      <trkpt lat="39.8711129" lon="116.6675363">
        <ele>20.32727</ele>
        <time>2026-08-23T11:17:03.866000Z</time>
      </trkpt>
      <trkpt lat="39.871031" lon="116.6676093">
        <ele>20.29766</ele>
        <time>2026-08-23T11:17:07.848000Z</time>
      </trkpt>
      <trkpt lat="39.870981" lon="116.6677414">
        <ele>20.3625</ele>
        <time>2026-08-23T11:17:11.829000Z</time>
      </trkpt>
      <trkpt lat="39.8709142" lon="116.6678512">
        <ele>20.58168</ele>
        <time>2026-08-23T11:17:15.811000Z</time>
      </trkpt>
      <trkpt lat="39.8708098" lon="116.6678871">
        <ele>20.82443</ele>
        <time>2026-08-23T11:17:19.793000Z</time>
      </trkpt>
      <trkpt lat="39.8706967" lon="116.667886">
        <ele>20.9929</ele>
        <time>2026-08-23T11:17:23.774000Z</time>
      </trkpt>
      <trkpt lat="39.8705848" lon="116.667875">
        <ele>21.08491</ele>
        <time>2026-08-23T11:17:27.756000Z</time>
      </trkpt>
      <trkpt lat="39.8704767" lon="116.6678588">
        <ele>21.12354</ele>
        <time>2026-08-23T11:17:31.737000Z</time>
      </trkpt>
      <trkpt lat="39.8703746" lon="116.6678283">
        <ele>21.13692</ele>
        <time>2026-08-23T11:17:35.719000Z</time>
      </trkpt>
      <trkpt lat="39.8702835" lon="116.6677749">
        <ele>21.1472</ele>
        <time>2026-08-23T11:17:39.701000Z</time>
      </trkpt>
      <trkpt lat="39.870191" lon="116.6677569">
        <ele>21.14245</ele>
        <time>2026-08-23T11:17:43.682000Z</time>
      </trkpt>
      <trkpt lat="39.8700934" lon="116.6677733">
        <ele>21.10004</ele>
        <time>2026-08-23T11:17:47.664000Z</time>
      </trkpt>
      <trkpt lat="39.8699953" lon="116.667781">
        <ele>21.01379</ele>
        <time>2026-08-23T11:17:51.646000Z</time>
      </trkpt>
      <trkpt lat="39.8698934" lon="116.6677717">
        <ele>20.9147</ele>
        <time>2026-08-23T11:17:55.627000Z</time>
      </trkpt>
      <trkpt lat="39.8697932" lon="116.6677503">
        <ele>20.83909</ele>
        <time>2026-08-23T11:17:59.609000Z</time>
      </trkpt>
      <trkpt lat="39.8696922" lon="116.6677455">
        <ele>20.83463</ele>
        <time>2026-08-23T11:18:03.590000Z</time>
      </trkpt>
      <trkpt lat="39.8695945" lon="116.6677783">
        <ele>20.9054</ele>
        <time>2026-08-23T11:18:07.572000Z</time>
      </trkpt>
      <trkpt lat="39.8695155" lon="116.6678533">
        <ele>21.0294</ele>
        <time>2026-08-23T11:18:11.554000Z</time>
      </trkpt>
      <trkpt lat="39.8694755" lon="116.6679687">
        <ele>21.18819</ele>
        <time>2026-08-23T11:18:15.535000Z</time>
      </trkpt>
      <trkpt lat="39.8694727" lon="116.6680958">
        <ele>21.34831</ele>
        <time>2026-08-23T11:18:19.517000Z</time>
      </trkpt>
      <trkpt lat="39.869502" lon="116.6682133">
        <ele>21.44656</ele>
        <time>2026-08-23T11:18:23.499000Z</time>
      </trkpt>
      <trkpt lat="39.8695618" lon="116.6683042">
        <ele>21.44491</ele>
        <time>2026-08-23T11:18:27.480000Z</time>
      </trkpt>
      <trkpt lat="39.869647" lon="116.6683498">
        <ele>21.37237</ele>
        <time>2026-08-23T11:18:31.462000Z</time>
      </trkpt>
      <trkpt lat="39.8697405" lon="116.6683403">
        <ele>21.27384</ele>
        <time>2026-08-23T11:18:35.443000Z</time>
      </trkpt>
      <trkpt lat="39.8698291" lon="116.6683008">
        <ele>21.18107</ele>
        <time>2026-08-23T11:18:39.425000Z</time>
      </trkpt>
      <trkpt lat="39.8699208" lon="116.6682773">
        <ele>21.10153</ele>
        <time>2026-08-23T11:18:43.407000Z</time>
      </trkpt>
      <trkpt lat="39.8700145" lon="116.6682798">
        <ele>21.02367</ele>
        <time>2026-08-23T11:18:47.388000Z</time>
      </trkpt>
      <trkpt lat="39.8701103" lon="116.6682779">
        <ele>20.95504</ele>
        <time>2026-08-23T11:18:51.370000Z</time>
      </trkpt>
      <trkpt lat="39.8702062" lon="116.6682509">
        <ele>20.89268</ele>
        <time>2026-08-23T11:18:55.351000Z</time>
      </trkpt>
      <trkpt lat="39.8702995" lon="116.6682008">
        <ele>20.81733</ele>
        <time>2026-08-23T11:18:59.333000Z</time>
      </trkpt>
      <trkpt lat="39.8703885" lon="116.6681407">
        <ele>20.75622</ele>
        <time>2026-08-23T11:19:03.315000Z</time>
      </trkpt>
      <trkpt lat="39.8704821" lon="116.6680954">
        <ele>20.71184</ele>
        <time>2026-08-23T11:19:07.296000Z</time>
      </trkpt>
      <trkpt lat="39.8705807" lon="116.668089">
        <ele>20.64136</ele>
        <time>2026-08-23T11:19:11.278000Z</time>
      </trkpt>
      <trkpt lat="39.8706804" lon="116.6681074">
        <ele>20.50098</ele>
        <time>2026-08-23T11:19:15.260000Z</time>
      </trkpt>
      <trkpt lat="39.8707826" lon="116.6681311">
        <ele>20.25505</ele>
        <time>2026-08-23T11:19:19.241000Z</time>
      </trkpt>
      <trkpt lat="39.8708861" lon="116.6681385">
        <ele>19.86649</ele>
        <time>2026-08-23T11:19:23.223000Z</time>
      </trkpt>
      <trkpt lat="39.8709888" lon="116.6681215">
        <ele>19.309</ele>
        <time>2026-08-23T11:19:27.204000Z</time>
      </trkpt>
      <trkpt lat="39.8710784" lon="116.6680812">
        <ele>18.7837</ele>
        <time>2026-08-23T11:19:31Z</time>
      </trkpt>
      <trkpt lat="39.8711656" lon="116.6680175">
        <ele>18.61568</ele>
        <time>2026-08-23T11:19:35Z</time>
      </trkpt>
      <trkpt lat="39.8712644" lon="116.6679659">
        <ele>18.73404</ele>
        <time>2026-08-23T11:19:39.149000Z</time>
      </trkpt>
      <trkpt lat="39.8713586" lon="116.6679447">
        <ele>18.80102</ele>
        <time>2026-08-23T11:19:43Z</time>
      </trkpt>
      <trkpt lat="39.871464" lon="116.6679509">
        <ele>18.87388</ele>
        <time>2026-08-23T11:19:47Z</time>
      </trkpt>
      <trkpt lat="39.8715683" lon="116.6679828">
        <ele>18.99125</ele>
        <time>2026-08-23T11:19:51Z</time>
      </trkpt>
      <trkpt lat="39.8716689" lon="116.6680351">
        <ele>19.1211</ele>
        <time>2026-08-23T11:19:55Z</time>
      </trkpt>
      <trkpt lat="39.8717677" lon="116.6680933">
        <ele>19.19872</ele>
        <time>2026-08-23T11:19:59Z</time>
      </trkpt>
      <trkpt lat="39.8718683" lon="116.6681398">
        <ele>19.24266</ele>
        <time>2026-08-23T11:20:03Z</time>
      </trkpt>
      <trkpt lat="39.8719683" lon="116.6681697">
        <ele>19.43361</ele>
        <time>2026-08-23T11:20:07Z</time>
      </trkpt>
      <trkpt lat="39.8720689" lon="116.6681843">
        <ele>19.93959</ele>
        <time>2026-08-23T11:20:11Z</time>
      </trkpt>
      <trkpt lat="39.8721691" lon="116.66819">
        <ele>20.51215</ele>
        <time>2026-08-23T11:20:14.984000Z</time>
      </trkpt>
      <trkpt lat="39.8722701" lon="116.6682112">
        <ele>20.94029</ele>
        <time>2026-08-23T11:20:18.965000Z</time>
      </trkpt>
      <trkpt lat="39.8723662" lon="116.668261">
        <ele>21.19026</ele>
        <time>2026-08-23T11:20:22.947000Z</time>
      </trkpt>
      <trkpt lat="39.8724508" lon="116.6683398">
        <ele>21.28001</ele>
        <time>2026-08-23T11:20:26.929000Z</time>
      </trkpt>
      <trkpt lat="39.8725197" lon="116.6684392">
        <ele>21.25835</ele>
        <time>2026-08-23T11:20:30.924000Z</time>
      </trkpt>
    </trkseg>
  </trk>
</gpx>