<?xml version="1.0" encoding="UTF-8"?>
<gpx xmlns="http://www.topografix.com/GPX/1/1" xmlns:gpxtpx="http://www.garmin.com/xmlschemas/TrackPointExtension/v1" xmlns:xsi="http://www.w3.org/2001/XMLSchema-instance" xsi:schemaLocation="http://www.topografix.com/GPX/1/1 http://www.topografix.com/GPX/1/1/gpx.xsd" version="1.1" creator="gpx.py -- https://github.com/tkrajina/gpxpy">
  <trk>
    <name>gpx from codoon</name>
    <type>Run</type>
    <trkseg>
      <trkpt lat="39.8734513" lon="116.665852">
        <ele>22.48792</ele>
        <time>2026-08-29T22:31:19.133000Z</time>
      </trkpt>
      <trkpt lat="39.8734727" lon="116.6658589">
        <ele>22.45787</ele>
        <time>2026-08-29T22:31:22.662000Z</time>
      </trkpt>
      <trkpt lat="39.8735741" lon="116.665841">
        <ele>22.4076</ele>
        <time>2026-08-29T22:31:29.629000Z</time>
      </trkpt>
      <trkpt lat="39.8736585" lon="116.6657932">
        <ele>22.42382</ele>
        <time>2026-08-29T22:31:34.607000Z</time>
      </trkpt>
      <trkpt lat="39.8737539" lon="116.6657362">
        <ele>22.51092</ele>
        <time>2026-08-29T22:31:39.583000Z</time>
      </trkpt>
      <trkpt lat="39.8738544" lon="116.6656723">
        <ele>22.6899</ele>
        <time>2026-08-29T22:31:44.560000Z</time>
      </trkpt>
      <trkpt lat="39.8739376" lon="116.6656071">
        <ele>22.9002</ele>
        <time>2026-08-29T22:31:48.542000Z</time>
      </trkpt>
      <trkpt lat="39.8740241" lon="116.6655465">
        <ele>23.16711</ele>
        <time>2026-08-29T22:31:52.523000Z</time>
      </trkpt>
      <trkpt lat="39.8741147" lon="116.6654923">
        <ele>23.47184</ele>
        <time>2026-08-29T22:31:56.504000Z</time>
      </trkpt>
      <trkpt lat="39.8742081" lon="116.6654446">
        <ele>23.70278</ele>
        <time>2026-08-29T22:32:00.485000Z</time>
      </trkpt>
      <trkpt lat="39.874303" lon="116.6654083">
        <ele>23.76585</ele>
        <time>2026-08-29T22:32:04.466000Z</time>
      </trkpt>
      <trkpt lat="39.8743997" lon="116.6653935">
        <ele>23.69003</ele>
        <time>2026-08-29T22:32:08.448000Z</time>
      </trkpt>
      <trkpt lat="39.8744806" lon="116.6654605">
        <ele>23.55905</ele>
        <time>2026-08-29T22:32:12.429000Z</time>
      </trkpt>
      <trkpt lat="39.8745394" lon="116.6655843">
        <ele>23.42733</ele>
        <time>2026-08-29T22:32:16.410000Z</time>
      </trkpt>
      <trkpt lat="39.8745884" lon="116.6657086">
        <ele>23.30375</ele>
        <time>2026-08-29T22:32:20.391000Z</time>
      </trkpt>
      <trkpt lat="39.8746346" lon="116.6658302">
        <ele>23.21438</ele>
        <time>2026-08-29T22:32:24.372000Z</time>
      </trkpt>
      <trkpt lat="39.8746833" lon="116.6659427">
        <ele>23.16646</ele>
        <time>2026-08-29T22:32:28.353000Z</time>
      </trkpt>
      <trkpt lat="39.8747351" lon="116.666053">
        <ele>23.1362</ele>
        <time>2026-08-29T22:32:32.334000Z</time>
      </trkpt>
      <trkpt lat="39.8747874" lon="116.666164">
        <ele>23.11872</ele>
        <time>2026-08-29T22:32:36.315000Z</time>
      </trkpt>
      <trkpt lat="39.8748361" lon="116.6662672">
        <ele>23.11763</ele>
        <time>2026-08-29T22:32:40.296000Z</time>
      </trkpt>
      <trkpt lat="39.8748996" lon="116.6663871">
        <ele>23.10782</ele>
        <time>2026-08-29T22:32:45.273000Z</time>
      </trkpt>
      <trkpt lat="39.8749527" lon="116.6664874">
        <ele>23.12916</ele>
        <time>2026-08-29T22:32:49.254000Z</time>
      </trkpt>
      <trkpt lat="39.875006" lon="116.6665914">
        <ele>23.26204</ele>
        <time>2026-08-29T22:32:53.235000Z</time>
      </trkpt>
      <trkpt lat="39.8750665" lon="116.6666919">
        <ele>23.58202</ele>
        <time>2026-08-29T22:32:57.216000Z</time>
      </trkpt>
      <trkpt lat="39.8751321" lon="116.6667866">
        <ele>24.03311</ele>
        <time>2026-08-29T22:33:01.197000Z</time>
      </trkpt>
      <trkpt lat="39.8751916" lon="116.6668755">
        <ele>24.34041</ele>
        <time>2026-08-29T22:33:05Z</time>
      </trkpt>
      <trkpt lat="39.8752552" lon="116.6669727">
        <ele>24.43556</ele>
        <time>2026-08-29T22:33:09Z</time>
      </trkpt>
      <trkpt lat="39.8753206" lon="116.6670617">
        <ele>24.4523</ele>
        <time>2026-08-29T22:33:13Z</time>
      </trkpt>
      <trkpt lat="39.8753874" lon="116.6671532">
        <ele>24.45057</ele>
        <time>2026-08-29T22:33:17Z</time>
      </trkpt>
      <trkpt lat="39.875454" lon="116.6672482">
        <ele>24.45981</ele>
        <time>2026-08-29T22:33:21Z</time>
      </trkpt>
      <trkpt lat="39.8755222" lon="116.6673413">
        <ele>24.49808</ele>
        <time>2026-08-29T22:33:25Z</time>
      </trkpt>
      <trkpt lat="39.8755901" lon="116.6674347">
        <ele>24.51557</ele>
        <time>2026-08-29T22:33:29Z</time>
      </trkpt>
      <trkpt lat="39.8756558" lon="116.6675349">
        <ele>24.4627</ele>
        <time>2026-08-29T22:33:33.045000Z</time>
      </trkpt>
      <trkpt lat="39.8757163" lon="116.6676383">
        <ele>24.32097</ele>
        <time>2026-08-29T22:33:37Z</time>
      </trkpt>
      <trkpt lat="39.8757694" lon="116.667744">
        <ele>24.03034</ele>
        <time>2026-08-29T22:33:41.007000Z</time>
      </trkpt>
      <trkpt lat="39.8757517" lon="116.6678592">
        <ele>23.58279</ele>
        <time>2026-08-29T22:33:46.978000Z</time>
      </trkpt>
      <trkpt lat="39.875676" lon="116.6679517">
        <ele>23.35177</ele>
        <time>2026-08-29T22:33:51.955000Z</time>
      </trkpt>
      <trkpt lat="39.8756391" lon="116.6680766">
        <ele>23.15592</ele>
        <time>2026-08-29T22:33:56.931000Z</time>
      </trkpt>
      <trkpt lat="39.8755416" lon="116.6681136">
        <ele>22.90105</ele>
        <time>2026-08-29T22:34:01.907000Z</time>
      </trkpt>
      <trkpt lat="39.8754546" lon="116.6680814">
        <ele>22.72432</ele>
        <time>2026-08-29T22:34:05.888000Z</time>
      </trkpt>
      <trkpt lat="39.8753636" lon="116.6680424">
        <ele>22.63443</ele>
        <time>2026-08-29T22:34:09.869000Z</time>
      </trkpt>
      <trkpt lat="39.8752727" lon="116.6679949">
        <ele>22.60866</ele>
        <time>2026-08-29T22:34:13.850000Z</time>
      </trkpt>
      <trkpt lat="39.8752027" lon="116.6679077">
        <ele>22.59579</ele>
        <time>2026-08-29T22:34:17.831000Z</time>
      </trkpt>
      <trkpt lat="39.8751453" lon="116.6678057">
        <ele>22.56818</ele>
        <time>2026-08-29T22:34:21.812000Z</time>
      </trkpt>
      <trkpt lat="39.8750819" lon="116.6677174">
        <ele>22.50776</ele>
        <time>2026-08-29T22:34:25.793000Z</time>
      </trkpt>
      <trkpt lat="39.8750102" lon="116.6676419">
        <ele>22.40031</ele>
        <time>2026-08-29T22:34:29.774000Z</time>
      </trkpt>
      <trkpt lat="39.8749273" lon="116.6675826">
        <ele>22.26422</ele>
        <time>2026-08-29T22:34:33.755000Z</time>
      </trkpt>
      <trkpt lat="39.8748404" lon="116.6675462">
        <ele>22.11826</ele>
        <time>2026-08-29T22:34:37.736000Z</time>
      </trkpt>
      <trkpt lat="39.8747327" lon="116.6675164">
        <ele>21.96113</ele>
        <time>2026-08-29T22:34:42.712000Z</time>
      </trkpt>
      <trkpt lat="39.874621" lon="116.6674979">
        <ele>21.86507</ele>
        <time>2026-08-29T22:34:47.689000Z</time>
      </trkpt>
      <trkpt lat="39.8745308" lon="116.6674948">
        <ele>21.83325</ele>
        <time>2026-08-29T22:34:51.669000Z</time>
      </trkpt>
      <trkpt lat="39.8744191" lon="116.6675125">
        <ele>21.83158</ele>
        <time>2026-08-29T22:34:56.646000Z</time>
      </trkpt>
      <trkpt lat="39.8743325" lon="116.6675514">
        <ele>21.81739</ele>
        <time>2026-08-29T22:35:00.627000Z</time>
      </trkpt>
      <trkpt lat="39.8742347" lon="116.6676182">
        <ele>21.74227</ele>
        <time>2026-08-29T22:35:05.603000Z</time>
      </trkpt>
      <trkpt lat="39.8741405" lon="116.667694">
        <ele>21.63765</ele>
        <time>2026-08-29T22:35:10.579000Z</time>
      </trkpt>
      <trkpt lat="39.8740421" lon="116.6677617">
        <ele>21.49653</ele>
        <time>2026-08-29T22:35:15.555000Z</time>
      </trkpt>
      <trkpt lat="39.8739569" lon="116.6678028">
        <ele>21.36596</ele>
        <time>2026-08-29T22:35:19.536000Z</time>
      </trkpt>
      <trkpt lat="39.8738451" lon="116.6678146">
        <ele>21.22423</ele>
        <time>2026-08-29T22:35:24.512000Z</time>
      </trkpt>
      <trkpt lat="39.8737547" lon="116.6678047">
        <ele>21.16567</ele>
        <time>2026-08-29T22:35:28.493000Z</time>
      </trkpt>
      <trkpt lat="39.8736441" lon="116.6677826">
        <ele>21.18377</ele>
        <time>2026-08-29T22:35:33.469000Z</time>
      </trkpt>
      <trkpt lat="39.8735554" lon="116.6677579">
        <ele>21.25398</ele>
        <time>2026-08-29T22:35:37.450000Z</time>
      </trkpt>
      <trkpt lat="39.8734651" lon="116.6677363">
        <ele>21.36957</ele>
        <time>2026-08-29T22:35:41.431000Z</time>
      </trkpt>
      <trkpt lat="39.8733556" lon="116.6677443">
        <ele>21.55582</ele>
        <time>2026-08-29T22:35:46.407000Z</time>
      </trkpt>
      <trkpt lat="39.8732575" lon="116.6678068">
        <ele>21.72122</ele>
        <time>2026-08-29T22:35:51.383000Z</time>
      </trkpt>
      <trkpt lat="39.8731598" lon="116.6678731">
        <ele>21.79392</ele>
        <time>2026-08-29T22:35:56.360000Z</time>
      </trkpt>
      <trkpt lat="39.8730535" lon="116.6678984">
        <ele>21.7141</ele>
        <time>2026-08-29T22:36:01.336000Z</time>
      </trkpt>
      <trkpt lat="39.8729431" lon="116.6678859">
        <ele>21.61654</ele>
        <time>2026-08-29T22:36:06.312000Z</time>
      </trkpt>
      <trkpt lat="39.8728562" lon="116.6678511">
        <ele>21.57702</ele>
        <time>2026-08-29T22:36:10.293000Z</time>
      </trkpt>
      <trkpt lat="39.8727723" lon="116.6678077">
        <ele>21.56081</ele>
        <time>2026-08-29T22:36:14.274000Z</time>
      </trkpt>
      <trkpt lat="39.8726871" lon="116.6677691">
        <ele>21.60759</ele>
        <time>2026-08-29T22:36:18.255000Z</time>
      </trkpt>
      <trkpt lat="39.8725979" lon="116.6677489">
        <ele>21.75362</ele>
        <time>2026-08-29T22:36:22.235000Z</time>
      </trkpt>
      <trkpt lat="39.8724865" lon="116.667751">
        <ele>22.03288</ele>
        <time>2026-08-29T22:36:27.212000Z</time>
      </trkpt>
      <trkpt lat="39.872383" lon="116.6677655">
        <ele>22.24505</ele>
        <time>2026-08-29T22:36:32Z</time>
      </trkpt>
      <trkpt lat="39.8722751" lon="116.6677918">
        <ele>22.26947</ele>
        <time>2026-08-29T22:36:37Z</time>
      </trkpt>
      <trkpt lat="39.8721661" lon="116.6678035">
        <ele>22.1899</ele>
        <time>2026-08-29T22:36:42Z</time>
      </trkpt>
      <trkpt lat="39.8720559" lon="116.6677997">
        <ele>22.0935</ele>
        <time>2026-08-29T22:36:47Z</time>
      </trkpt>
      <trkpt lat="39.8719657" lon="116.6677794">
        <ele>22.02712</ele>
        <time>2026-08-29T22:36:51Z</time>
      </trkpt>
      <trkpt lat="39.8718749" lon="116.6677399">
        <ele>21.97905</ele>
        <time>2026-08-29T22:36:55Z</time>
      </trkpt>
      <trkpt lat="39.8717881" lon="116.6676915">
        <ele>21.92799</ele>
        <time>2026-08-29T22:36:59Z</time>
      </trkpt>
      <trkpt lat="39.8717043" lon="116.6676466">
        <ele>21.85714</ele>
        <time>2026-08-29T22:37:03Z</time>
      </trkpt>
      <trkpt lat="39.8716165" lon="116.6676172">
        <ele>21.72347</ele>
        <time>2026-08-29T22:37:07Z</time>
      </trkpt>
      <trkpt lat="39.8715074" lon="116.6675944">
        <ele>21.32571</ele>
        <time>2026-08-29T22:37:11.996000Z</time>
      </trkpt>
      <trkpt lat="39.8714162" lon="116.6675846">
        <ele>20.91346</ele>
        <time>2026-08-29T22:37:15.977000Z</time>
      </trkpt>
      <trkpt lat="39.8713047" lon="116.6675818">
        <ele>20.49813</ele>
        <time>2026-08-29T22:37:20.953000Z</time>
      </trkpt>
      <trkpt lat="39.8711943" lon="116.6675903">
        <ele>20.19283</ele>
        <time>2026-08-29T22:37:25.929000Z</time>
      </trkpt>
      <trkpt lat="39.8710885" lon="116.6676155">
        <ele>19.93981</ele>
        <time>2026-08-29T22:37:30.905000Z</time>
      </trkpt>
      <trkpt lat="39.8710074" lon="116.6676969">
        <ele>19.77184</ele>
        <time>2026-08-29T22:37:35.881000Z</time>
      </trkpt>
      <trkpt lat="39.87096" lon="116.6678263">
        <ele>19.75776</ele>
        <time>2026-08-29T22:37:40.858000Z</time>
      </trkpt>
      <trkpt lat="39.8708825" lon="116.6679254">
        <ele>19.88816</ele>
        <time>2026-08-29T22:37:45.834000Z</time>
      </trkpt>
      <trkpt lat="39.8707914" lon="116.6679403">
        <ele>20.02981</ele>
        <time>2026-08-29T22:37:49.814000Z</time>
      </trkpt>
      <trkpt lat="39.8706994" lon="116.6679377">
        <ele>20.15776</ele>
        <time>2026-08-29T22:37:53.795000Z</time>
      </trkpt>
      <trkpt lat="39.8706065" lon="116.6679354">
        <ele>20.26024</ele>
        <time>2026-08-29T22:37:57.776000Z</time>
      </trkpt>
      <trkpt lat="39.8705128" lon="116.6679353">
        <ele>20.35427</ele>
        <time>2026-08-29T22:38:01.757000Z</time>
      </trkpt>
      <trkpt lat="39.8704216" lon="116.6679229">
        <ele>20.44186</ele>
        <time>2026-08-29T22:38:05.738000Z</time>
      </trkpt>
      <trkpt lat="39.8703334" lon="116.6678835">
        <ele>20.51041</ele>
        <time>2026-08-29T22:38:09.719000Z</time>
      </trkpt>
      <trkpt lat="39.870248" lon="116.6678327">
        <ele>20.55339</ele>
        <time>2026-08-29T22:38:13.699000Z</time>
      </trkpt>
      <trkpt lat="39.870157" lon="116.6678223">
        <ele>20.57651</ele>
        <time>2026-08-29T22:38:17.680000Z</time>
      </trkpt>
      <trkpt lat="39.8700624" lon="116.6678264">
        <ele>20.58361</ele>
        <time>2026-08-29T22:38:21.661000Z</time>
      </trkpt>
      <trkpt lat="39.8699667" lon="116.6678223">
        <ele>20.58552</ele>
        <time>2026-08-29T22:38:25.642000Z</time>
      </trkpt>
      <trkpt lat="39.869872" lon="116.6678011">
        <ele>20.58156</ele>
        <time>2026-08-29T22:38:29.623000Z</time>
      </trkpt>
      <trkpt lat="39.8697764" lon="116.6677768">
        <ele>20.55226</ele>
        <time>2026-08-29T22:38:33.604000Z</time>
      </trkpt>
      <trkpt lat="39.8696853" lon="116.6677704">
        <ele>20.4938</ele>
        <time>2026-08-29T22:38:37.584000Z</time>
      </trkpt>
      <trkpt lat="39.8695809" lon="116.6678088">
        <ele>20.41121</ele>
        <time>2026-08-29T22:38:42.560000Z</time>
      </trkpt>
      <trkpt lat="39.8695114" lon="116.6679034">
        <ele>20.34908</ele>
        <time>2026-08-29T22:38:47.536000Z</time>
      </trkpt>
      <trkpt lat="39.8694862" lon="116.6680403">
        <ele>20.3524</ele>
        <time>2026-08-29T22:38:52.512000Z</time>
      </trkpt>
      <trkpt lat="39.8694995" lon="116.6681816">
        <ele>20.39798</ele>
        <time>2026-08-29T22:38:57.488000Z</time>
      </trkpt>
      <trkpt lat="39.8695581" lon="116.6683043">
        <ele>20.4415</ele>
        <time>2026-08-29T22:39:02.464000Z</time>
      </trkpt>
      <trkpt lat="39.8696524" lon="116.668365">
        <ele>20.4322</ele>
        <time>2026-08-29T22:39:07.441000Z</time>
      </trkpt>
      <trkpt lat="39.8697593" lon="116.6683534">
        <ele>20.39988</ele>
        <time>2026-08-29T22:39:12.417000Z</time>
      </trkpt>
      <trkpt lat="39.8698646" lon="116.6683124">
        <ele>20.38438</ele>
        <time>2026-08-29T22:39:17.393000Z</time>
      </trkpt>
      <trkpt lat="39.8699568" lon="116.6682945">
        <ele>20.39975</ele>
        <time>2026-08-29T22:39:21.373000Z</time>
      </trkpt>
      <trkpt lat="39.8700477" lon="116.6682894">
        <ele>20.40475</ele>
        <time>2026-08-29T22:39:25.354000Z</time>
      </trkpt>
      <trkpt lat="39.8701383" lon="116.6682697">
        <ele>20.38677</ele>
        <time>2026-08-29T22:39:29.335000Z</time>
      </trkpt>
      <trkpt lat="39.8702256" lon="116.6682292">
        <ele>20.36187</ele>
        <time>2026-08-29T22:39:33.316000Z</time>
      </trkpt>
      <trkpt lat="39.8703261" lon="116.6681754">
        <ele>20.33115</ele>
        <time>2026-08-29T22:39:38.292000Z</time>
      </trkpt>
      <trkpt lat="39.8704352" lon="116.6681348">
        <ele>20.27561</ele>
        <time>2026-08-29T22:39:43.268000Z</time>
      </trkpt>
      <trkpt lat="39.8705294" lon="116.6681171">
        <ele>20.21885</ele>
        <time>2026-08-29T22:39:47.249000Z</time>
      </trkpt>
      <trkpt lat="39.8706246" lon="116.6681224">
        <ele>20.20767</ele>
        <time>2026-08-29T22:39:51.229000Z</time>
      </trkpt>
      <trkpt lat="39.8707207" lon="116.6681415">
        <ele>20.31493</ele>
        <time>2026-08-29T22:39:55.210000Z</time>
      </trkpt>
      <trkpt lat="39.8708106" lon="116.668155">
        <ele>20.49935</ele>
        <time>2026-08-29T22:39:59Z</time>
      </trkpt>
      <trkpt lat="39.8709072" lon="116.6681528">
        <ele>20.6111</ele>
        <time>2026-08-29T22:40:03Z</time>
      </trkpt>
      <trkpt lat="39.8710029" lon="116.6681351">
        <ele>20.65131</ele>
        <time>2026-08-29T22:40:07Z</time>
      </trkpt>
      <trkpt lat="39.8710923" lon="116.6680947">
        <ele>20.7056</ele>
        <time>2026-08-29T22:40:11Z</time>
      </trkpt>
      <trkpt lat="39.8711725" lon="116.6680338">
        <ele>20.76527</ele>
        <time>2026-08-29T22:40:15Z</time>
      </trkpt>
      <trkpt lat="39.8712547" lon="116.6679796">
        <ele>20.82917</ele>
        <time>2026-08-29T22:40:19Z</time>
      </trkpt>
      <trkpt lat="39.8713461" lon="116.6679487">
        <ele>20.92178</ele>
        <time>2026-08-29T22:40:23.075000Z</time>
      </trkpt>
      <trkpt lat="39.8714391" lon="116.6679406">
        <ele>21.04647</ele>
        <time>2026-08-29T22:40:27.056000Z</time>
      </trkpt>
      <trkpt lat="39.8715296" lon="116.6679486">
        <ele>21.1771</ele>
        <time>2026-08-29T22:40:31Z</time>
      </trkpt>
      <trkpt lat="39.871621" lon="116.6679806">
        <ele>21.23309</ele>
        <time>2026-08-29T22:40:35Z</time>
      </trkpt>
      <trkpt lat="39.8717111" lon="116.668036">
        <ele>21.1031</ele>
        <time>2026-08-29T22:40:38.999000Z</time>
      </trkpt>
      <trkpt lat="39.8718004" lon="116.6680948">
        <ele>20.88784</ele>
        <time>2026-08-29T22:40:42.979000Z</time>
      </trkpt>
      <trkpt lat="39.8718951" lon="116.6681444">
        <ele>20.75854</ele>
        <time>2026-08-29T22:40:46.960000Z</time>
      </trkpt>
      <trkpt lat="39.8719901" lon="116.6681759">
        <ele>20.71145</ele>
        <time>2026-08-29T22:40:50.941000Z</time>
      </trkpt>
      <trkpt lat="39.8720825" lon="116.6681905">
        <ele>20.70418</ele>
        <time>2026-08-29T22:40:54.922000Z</time>
      </trkpt>
      <trkpt lat="39.8721775" lon="116.6681946">
        <ele>20.7243</ele>
        <time>2026-08-29T22:40:58.902000Z</time>
      </trkpt>
      <trkpt lat="39.872274" lon="116.6682131">
        <ele>20.77562</ele>
        <time>2026-08-29T22:41:02.883000Z</time>
      </trkpt>
      <trkpt lat="39.8723673" lon="116.6682672">
        <ele>20.85577</ele>
        <time>2026-08-29T22:41:06.864000Z</time>
      </trkpt>
      <trkpt lat="39.8724448" lon="116.6683505">
        <ele>20.94944</ele>
        <time>2026-08-29T22:41:10.844000Z</time>
      </trkpt>
      <trkpt lat="39.8725033" lon="116.6684557">
        <ele>21.03678</ele>
        <time>2026-08-29T22:41:14.825000Z</time>
      </trkpt>
      <trkpt lat="39.8725458" lon="116.6685709">
        <ele>21.10628</ele>
        <time>2026-08-29T22:41:18.806000Z</time>
      </trkpt>
      <trkpt lat="39.8725861" lon="116.6686863">
        <ele>21.14126</ele>
        <time>2026-08-29T22:41:22.787000Z</time>
      </trkpt>
      <trkpt lat="39.8726052" lon="116.66881">
        <ele>21.13339</ele>
        <time>2026-08-29T22:41:26.767000Z</time>
      </trkpt>
      <trkpt lat="39.8726008" lon="116.6689374">
        <ele>21.13087</ele>
        <time>2026-08-29T22:41:30.748000Z</time>
      </trkpt>
      <trkpt lat="39.8725862" lon="116.6690595">
        <ele>21.17268</ele>
        <time>2026-08-29T22:41:34.729000Z</time>
      </trkpt>
      <trkpt lat="39.8725685" lon="116.6691784">
        <ele>21.23849</ele>
        <time>2026-08-29T22:41:38.710000Z</time>
      </trkpt>
      <trkpt lat="39.8725331" lon="116.6692921">
        <ele>21.27868</ele>
        <time>2026-08-29T22:41:42.690000Z</time>
      </trkpt>
      <trkpt lat="39.8725035" lon="116.6694057">
        <ele>21.26737</ele>
        <time>2026-08-29T22:41:46.671000Z</time>
      </trkpt>
      <trkpt lat="39.8724916" lon="116.6695246">
        <ele>21.23436</ele>
        <time>2026-08-29T22:41:50.652000Z</time>
      </trkpt>
      <trkpt lat="39.8724999" lon="116.669644">
        <ele>21.20905</ele>
        <time>2026-08-29T22:41:54.633000Z</time>
      </trkpt>
      <trkpt lat="39.8725225" lon="116.6697608">
        <ele>21.19904</ele>
        <time>2026-08-29T22:41:58.613000Z</time>
      </trkpt>
      <trkpt lat="39.872559" lon="116.6698709">
        <ele>21.21019</ele>
        <time>2026-08-29T22:42:02.594000Z</time>
      </trkpt>
      <trkpt lat="39.8726171" lon="116.6699647">
        <ele>21.24673</ele>
        <time>2026-08-29T22:42:06.575000Z</time>
      </trkpt>
      <trkpt lat="39.8727072" lon="116.6700491">
        <ele>21.29987</ele>
        <time>2026-08-29T22:42:11.551000Z</time>
      </trkpt>
      <trkpt lat="39.8727902" lon="116.6700969">
        <ele>21.32018</ele>
        <time>2026-08-29T22:42:15.531000Z</time>
      </trkpt>
      <trkpt lat="39.8728804" lon="116.6701243">
        <ele>21.30316</ele>
        <time>2026-08-29T22:42:19.512000Z</time>
      </trkpt>
      <trkpt lat="39.8729701" lon="116.6701415">
        <ele>21.2465</ele>
        <time>2026-08-29T22:42:23.493000Z</time>
      </trkpt>
      <trkpt lat="39.8730789" lon="116.6701431">
        <ele>21.12698</ele>
        <time>2026-08-29T22:42:28.469000Z</time>
      </trkpt>
      <trkpt lat="39.8731877" lon="116.6701223">
        <ele>20.92545</ele>
        <time>2026-08-29T22:42:33.445000Z</time>
      </trkpt>
      <trkpt lat="39.873277" lon="116.6700926">
        <ele>20.7273</ele>
        <time>2026-08-29T22:42:37.425000Z</time>
      </trkpt>
      <trkpt lat="39.8733644" lon="116.6700526">
        <ele>20.55032</ele>
        <time>2026-08-29T22:42:41.406000Z</time>
      </trkpt>
      <trkpt lat="39.8734449" lon="116.6699979">
        <ele>20.43156</ele>
        <time>2026-08-29T22:42:45.387000Z</time>
      </trkpt>
      <trkpt lat="39.8735184" lon="116.6699289">
        <ele>20.39344</ele>
        <time>2026-08-29T22:42:49.367000Z</time>
      </trkpt>
      <trkpt lat="39.8735867" lon="116.669852">
        <ele>20.43448</ele>
        <time>2026-08-29T22:42:53.348000Z</time>
      </trkpt>
      <trkpt lat="39.8736657" lon="116.66979">
        <ele>20.54151</ele>
        <time>2026-08-29T22:42:57.329000Z</time>
      </trkpt>
      <trkpt lat="39.8737557" lon="116.6697589">
        <ele>20.6932</ele>
        <time>2026-08-29T22:43:01.309000Z</time>
      </trkpt>
      <trkpt lat="39.8738502" lon="116.6697575">
        <ele>20.86027</ele>
        <time>2026-08-29T22:43:05.290000Z</time>
      </trkpt>
      <trkpt lat="39.8739456" lon="116.6697729">
        <ele>21.00877</ele>
        <time>2026-08-29T22:43:09.271000Z</time>
      </trkpt>
      <trkpt lat="39.8740406" lon="116.6697838">
        <ele>21.10572</ele>
        <time>2026-08-29T22:43:13.251000Z</time>
      </trkpt>
      <trkpt lat="39.874141" lon="116.6697795">
        <ele>21.14115</ele>
        <time>2026-08-29T22:43:17.232000Z</time>
      </trkpt>
      <trkpt lat="39.874237" lon="116.6697499">
        <ele>21.13317</ele>
        <time>2026-08-29T22:43:21.213000Z</time>
      </trkpt>
      <trkpt lat="39.8743204" lon="116.6696854">
        <ele>21.13605</ele>
        <time>2026-08-29T22:43:25.193000Z</time>
      </trkpt>
      <trkpt lat="39.8743933" lon="116.6695972">
        <ele>21.19267</ele>
        <time>2026-08-29T22:43:29.174000Z</time>
      </trkpt>
      <trkpt lat="39.8744645" lon="116.669502">
        <ele>21.32067</ele>
        <time>2026-08-29T22:43:33.155000Z</time>
      </trkpt>
      <trkpt lat="39.8745466" lon="116.6694265">
        <ele>21.49708</ele>
        <time>2026-08-29T22:43:37.135000Z</time>
      </trkpt>
      <trkpt lat="39.874645" lon="116.6693979">
        <ele>21.70603</ele>
        <time>2026-08-29T22:43:41.116000Z</time>
      </trkpt>
      <trkpt lat="39.8747486" lon="116.6694044">
        <ele>21.96806</ele>
        <time>2026-08-29T22:43:45.097000Z</time>
      </trkpt>
      <trkpt lat="39.8748496" lon="116.6694317">
        <ele>22.2896</ele>
        <time>2026-08-29T22:43:49.077000Z</time>
      </trkpt>
      <trkpt lat="39.874946" lon="116.6694651">
        <ele>22.61816</ele>
        <time>2026-08-29T22:43:53.058000Z</time>
      </trkpt>
      <trkpt lat="39.8750451" lon="116.6694978">
        <ele>22.89487</ele>
        <time>2026-08-29T22:43:57.039000Z</time>
      </trkpt>
      <trkpt lat="39.8751451" lon="116.6694961">
        <ele>23.09358</ele>
        <time>2026-08-29T22:44:01.019000Z</time>
      </trkpt>
      <trkpt lat="39.8752358" lon="116.6694447">
        <ele>23.21718</ele>
        <time>2026-08-29T22:44:05Z</time>
      </trkpt>
      <trkpt lat="39.8753238" lon="116.6693804">
        <ele>23.26639</ele>
        <time>2026-08-29T22:44:08.981000Z</time>
      </trkpt>
      <trkpt lat="39.8754171" lon="116.6693328">
        <ele>23.2954</ele>
        <time>2026-08-29T22:44:12.961000Z</time>
      </trkpt>
      <trkpt lat="39.8755086" lon="116.6692935">
        <ele>23.32433</ele>
        <time>2026-08-29T22:44:16.942000Z</time>
      </trkpt>
      <trkpt lat="39.8755867" lon="116.6692219">
        <ele>23.32816</ele>
        <time>2026-08-29T22:44:20.922000Z</time>
      </trkpt>
      <trkpt lat="39.8756434" lon="116.6691242">
        <ele>23.28391</ele>
        <time>2026-08-29T22:44:24.903000Z</time>
      </trkpt>
      <trkpt lat="39.875667" lon="116.6690068">
        <ele>23.20703</ele>
        <time>2026-08-29T22:44:28.884000Z</time>
      </trkpt>
      <trkpt lat="39.8756622" lon="116.6688851">
        <ele>23.15017</ele>
        <time>2026-08-29T22:44:32.864000Z</time>
      </trkpt>
      <trkpt lat="39.8756316" lon="116.6687735">
        <ele>23.14701</ele>
        <time>2026-08-29T22:44:36.845000Z</time>
      </trkpt>
      <trkpt lat="39.87558" lon="116.668676">
        <ele>23.14984</ele>
        <time>2026-08-29T22:44:40.826000Z</time>
      </trkpt>
      <trkpt lat="39.8755121" lon="116.6685887">
        <ele>23.11866</ele>
        <time>2026-08-29T22:44:44.806000Z</time>
      </trkpt>
      <trkpt lat="39.8754345" lon="116.6685103">
        <ele>23.06234</ele>
        <time>2026-08-29T22:44:48.787000Z</time>
      </trkpt>
      <trkpt lat="39.8753635" lon="116.6684268">
        <ele>22.96734</ele>
        <time>2026-08-29T22:44:52.768000Z</time>
      </trkpt>
      <trkpt lat="39.8753126" lon="116.668324">
        <ele>22.85107</ele>
        <time>2026-08-29T22:44:56.748000Z</time>
      </trkpt>
      <trkpt lat="39.8752747" lon="116.6682126">
        <ele>22.7774</ele>
        <time>2026-08-29T22:45:00.729000Z</time>
      </trkpt>
      <trkpt lat="39.8752404" lon="116.668102">
        <ele>22.79111</ele>
        <time>2026-08-29T22:45:04.710000Z</time>
      </trkpt>
      <trkpt lat="39.875251" lon="116.6679783">
        <ele>22.91627</ele>
        <time>2026-08-29T22:45:09.685000Z</time>
      </trkpt>
      <trkpt lat="39.8753597" lon="116.6679607">
        <ele>23.09128</ele>
        <time>2026-08-29T22:45:14.661000Z</time>
      </trkpt>
      <trkpt lat="39.8754551" lon="116.6680052">
        <ele>23.20543</ele>
        <time>2026-08-29T22:45:18.642000Z</time>
      </trkpt>
      <trkpt lat="39.8755482" lon="116.6680127">
        <ele>23.23167</ele>
        <time>2026-08-29T22:45:22.622000Z</time>
      </trkpt>
      <trkpt lat="39.8756276" lon="116.6679191">
        <ele>23.12088</ele>
        <time>2026-08-29T22:45:27.598000Z</time>
      </trkpt>
      <trkpt lat="39.8757045" lon="116.6678277">
        <ele>22.95488</ele>
        <time>2026-08-29T22:45:32.574000Z</time>
      </trkpt>
      <trkpt lat="39.875795" lon="116.66784">
        <ele>22.84728</ele>
        <time>2026-08-29T22:45:36.555000Z</time>
      </trkpt>
      <trkpt lat="39.8758788" lon="116.6679135">
        <ele>22.78876</ele>
        <time>2026-08-29T22:45:40.535000Z</time>
      </trkpt>
      <trkpt lat="39.8759535" lon="116.6680028">
        <ele>22.76952</ele>
        <time>2026-08-29T22:45:44.516000Z</time>
      </trkpt>
      <trkpt lat="39.8760311" lon="116.6680959">
        <ele>22.78211</ele>
        <time>2026-08-29T22:45:48.497000Z</time>
      </trkpt>
      <trkpt lat="39.876107" lon="116.6681849">
        <ele>22.83666</ele>
        <time>2026-08-29T22:45:52.477000Z</time>
      </trkpt>
      <trkpt lat="39.8761854" lon="116.6682638">
        <ele>22.93393</ele>
        <time>2026-08-29T22:45:56.458000Z</time>
      </trkpt>
      <trkpt lat="39.8762682" lon="116.6683368">
        <ele>23.05283</ele>
        <time>2026-08-29T22:46:00.438000Z</time>
      </trkpt>
      <trkpt lat="39.8763451" lon="116.6684188">
        <ele>23.15744</ele>
        <time>2026-08-29T22:46:04.419000Z</time>
      </trkpt>
      <trkpt lat="39.8764125" lon="116.6685161">
        <ele>23.24005</ele>
        <time>2026-08-29T22:46:08.400000Z</time>
      </trkpt>
      <trkpt lat="39.8764812" lon="116.6686139">
        <ele>23.34386</ele>
        <time>2026-08-29T22:46:12.380000Z</time>
      </trkpt>
      <trkpt lat="39.8765527" lon="116.6687091">
        <ele>23.5116</ele>
        <time>2026-08-29T22:46:16.361000Z</time>
      </trkpt>
      <trkpt lat="39.8766254" lon="116.6688028">
        <ele>23.75943</ele>
        <time>2026-08-29T22:46:20.342000Z</time>
      </trkpt>
      <trkpt lat="39.8766977" lon="116.6688892">
        <ele>24.03248</ele>
        <time>2026-08-29T22:46:24.322000Z</time>
      </trkpt>
      <trkpt lat="39.8767705" lon="116.6689836">
        <ele>24.25587</ele>
        <time>2026-08-29T22:46:28.303000Z</time>
      </trkpt>
      <trkpt lat="39.8768399" lon="116.6690874">
        <ele>24.37933</ele>
        <time>2026-08-29T22:46:32.284000Z</time>
      </trkpt>
      <trkpt lat="39.876911" lon="116.6691923">
        <ele>24.39226</ele>
        <time>2026-08-29T22:46:36.264000Z</time>
      </trkpt>
      <trkpt lat="39.8769801" lon="116.669291">
        <ele>24.31757</ele>
        <time>2026-08-29T22:46:40.245000Z</time>
      </trkpt>
      <trkpt lat="39.8770383" lon="116.6694012">
        <ele>24.20086</ele>
        <time>2026-08-29T22:46:44.225000Z</time>
      </trkpt>
      <trkpt lat="39.877058" lon="116.6695301">
        <ele>24.07314</ele>
        <time>2026-08-29T22:46:48.206000Z</time>
      </trkpt>
      <trkpt lat="39.8770242" lon="116.6696546">
        <ele>23.96145</ele>
        <time>2026-08-29T22:46:52.187000Z</time>
      </trkpt>
      <trkpt lat="39.8769584" lon="116.6697522">
        <ele>23.8958</ele>
        <time>2026-08-29T22:46:56Z</time>
      </trkpt>
      <trkpt lat="39.8768847" lon="116.6698487">
        <ele>23.9054</ele>
        <time>2026-08-29T22:47:00Z</time>
      </trkpt>
      <trkpt lat="39.8768152" lon="116.6699456">
        <ele>23.96835</ele>
        <time>2026-08-29T22:47:04Z</time>
      </trkpt>
      <trkpt lat="39.8767472" lon="116.670042">
        <ele>23.98944</ele>
        <time>2026-08-29T22:47:08Z</time>
      </trkpt>
      <trkpt lat="39.8766754" lon="116.6701331">
        <ele>23.98195</ele>
        <time>2026-08-29T22:47:12.090000Z</time>
      </trkpt>
      <trkpt lat="39.8766067" lon="116.6702183">
        <ele>23.94367</ele>
        <time>2026-08-29T22:47:16.071000Z</time>
      </trkpt>
      <trkpt lat="39.8765383" lon="116.670303">
        <ele>23.91576</ele>
        <time>2026-08-29T22:47:20Z</time>
      </trkpt>
      <trkpt lat="39.8764678" lon="116.6703972">
        <ele>23.91269</ele>
        <time>2026-08-29T22:47:24Z</time>
      </trkpt>
      <trkpt lat="39.8763967" lon="116.6704956">
        <ele>23.94669</ele>
        <time>2026-08-29T22:47:28Z</time>
      </trkpt>
      <trkpt lat="39.8763216" lon="116.6705905">
        <ele>24.09757</ele>
        <time>2026-08-29T22:47:31.993000Z</time>
      </trkpt>
      <trkpt lat="39.8762441" lon="116.6706839">
        <ele>24.26946</ele>
        <time>2026-08-29T22:47:35.974000Z</time>
      </trkpt>
      <trkpt lat="39.8761688" lon="116.6707692">
        <ele>24.37803</ele>
        <time>2026-08-29T22:47:39.955000Z</time>
      </trkpt>
      <trkpt lat="39.8760939" lon="116.6708526">
        <ele>24.45416</ele>
        <time>2026-08-29T22:47:43.935000Z</time>
      </trkpt>
      <trkpt lat="39.8760199" lon="116.6709408">
        <ele>24.525</ele>
        <time>2026-08-29T22:47:47.916000Z</time>
      </trkpt>
      <trkpt lat="39.8759463" lon="116.671027">
        <ele>24.57793</ele>
        <time>2026-08-29T22:47:51.897000Z</time>
      </trkpt>
      <trkpt lat="39.8758729" lon="116.6711181">
        <ele>24.61686</ele>
        <time>2026-08-29T22:47:55.877000Z</time>
      </trkpt>
      <trkpt lat="39.875801" lon="116.6712093">
        <ele>24.67432</ele>
        <time>2026-08-29T22:47:59.858000Z</time>
      </trkpt>
      <trkpt lat="39.8757296" lon="116.6712956">
        <ele>24.74943</ele>
        <time>2026-08-29T22:48:03.839000Z</time>
      </trkpt>
      <trkpt lat="39.8756578" lon="116.6713803">
        <ele>24.7945</ele>
        <time>2026-08-29T22:48:07.820000Z</time>
      </trkpt>
      <trkpt lat="39.8755849" lon="116.6714676">
        <ele>24.76369</ele>
        <time>2026-08-29T22:48:11.800000Z</time>
      </trkpt>
      <trkpt lat="39.8755106" lon="116.6715548">
        <ele>24.69152</ele>
        <time>2026-08-29T22:48:15.781000Z</time>
      </trkpt>
      <trkpt lat="39.8754358" lon="116.6716413">
        <ele>24.64173</ele>
        <time>2026-08-29T22:48:19.762000Z</time>
      </trkpt>
      <trkpt lat="39.8753599" lon="116.6717148">
        <ele>24.62663</ele>
        <time>2026-08-29T22:48:23.742000Z</time>
      </trkpt>
      <trkpt lat="39.8752833" lon="116.6717967">
        <ele>24.59563</ele>
        <time>2026-08-29T22:48:27.723000Z</time>
      </trkpt>
      <trkpt lat="39.8752029" lon="116.6718793">
        <ele>24.5348</ele>
        <time>2026-08-29T22:48:31.704000Z</time>
      </trkpt>
      <trkpt lat="39.8751101" lon="116.6719394">
        <ele>24.45306</ele>
        <time>2026-08-29T22:48:35.684000Z</time>
      </trkpt>
      <trkpt lat="39.8750063" lon="116.6719639">
        <ele>24.36751</ele>
        <time>2026-08-29T22:48:39.665000Z</time>
      </trkpt>
      <trkpt lat="39.8749032" lon="116.6719712">
        <ele>24.32449</ele>
        <time>2026-08-29T22:48:43.646000Z</time>
      </trkpt>
      <trkpt lat="39.8748111" lon="116.6719827">
        <ele>24.3911</ele>
        <time>2026-08-29T22:48:47.627000Z</time>
      </trkpt>
      <trkpt lat="39.874712" lon="116.671977">
        <ele>24.52476</ele>
        <time>2026-08-29T22:48:51.607000Z</time>
      </trkpt>
      <trkpt lat="39.8746146" lon="116.6719487">
        <ele>24.64607</ele>
        <time>2026-08-29T22:48:55.588000Z</time>
      </trkpt>
      <trkpt lat="39.8745334" lon="116.671878">
        <ele>24.7002</ele>
        <time>2026-08-29T22:48:59.569000Z</time>
      </trkpt>
      <trkpt lat="39.8744678" lon="116.6717733">
        <ele>24.62974</ele>
        <time>2026-08-29T22:49:04.545000Z</time>
      </trkpt>
      <trkpt lat="39.8744706" lon="116.6717484">
        <ele>24.50355</ele>
        <time>2026-08-29T22:49:08.525000Z</time>
      </trkpt>
      <trkpt lat="39.8745654" lon="116.6717466">
        <ele>24.3712</ele>
        <time>2026-08-29T22:49:13.501000Z</time>
      </trkpt>
      <trkpt lat="39.8746628" lon="116.6717125">
        <ele>24.27654</ele>
        <time>2026-08-29T22:49:18.477000Z</time>
      </trkpt>
      <trkpt lat="39.874739" lon="116.6716238">
        <ele>24.19371</ele>
        <time>2026-08-29T22:49:23.453000Z</time>
      </trkpt>
      <trkpt lat="39.8747962" lon="116.6715175">
        <ele>24.12198</ele>
        <time>2026-08-29T22:49:28.429000Z</time>
      </trkpt>
      <trkpt lat="39.8748579" lon="116.6714064">
        <ele>24.08274</ele>
        <time>2026-08-29T22:49:34.400000Z</time>
      </trkpt>
      <trkpt lat="39.8748538" lon="116.6712648">
        <ele>24.05119</ele>
        <time>2026-08-29T22:49:39.376000Z</time>
      </trkpt>
      <trkpt lat="39.8748537" lon="116.6711423">
        <ele>23.92692</ele>
        <time>2026-08-29T22:49:43.357000Z</time>
      </trkpt>
      <trkpt lat="39.8748677" lon="116.6710127">
        <ele>23.69757</ele>
        <time>2026-08-29T22:49:47.338000Z</time>
      </trkpt>
      <trkpt lat="39.8748801" lon="116.670871">
        <ele>23.45415</ele>
        <time>2026-08-29T22:49:51.318000Z</time>
      </trkpt>
      <trkpt lat="39.8748668" lon="116.6707343">
        <ele>23.30994</ele>
        <time>2026-08-29T22:49:55.299000Z</time>
      </trkpt>
      <trkpt lat="39.8747989" lon="116.6706442">
        <ele>23.27029</ele>
        <time>2026-08-29T22:49:59.280000Z</time>
      </trkpt>
      <trkpt lat="39.8747015" lon="116.6706311">
        <ele>23.26243</ele>
        <time>2026-08-29T22:50:03.261000Z</time>
      </trkpt>
      <trkpt lat="39.8746029" lon="116.6706259">
        <ele>23.26046</ele>
        <time>2026-08-29T22:50:07.241000Z</time>
      </trkpt>
      <trkpt lat="39.8745072" lon="116.6706149">
        <ele>23.26148</ele>
        <time>2026-08-29T22:50:11.222000Z</time>
      </trkpt>
      <trkpt lat="39.8744083" lon="116.6706071">
        <ele>23.25359</ele>
        <time>2026-08-29T22:50:15.203000Z</time>
      </trkpt>
      <trkpt lat="39.8743053" lon="116.670599">
        <ele>23.2208</ele>
        <time>2026-08-29T22:50:19.184000Z</time>
      </trkpt>
      <trkpt lat="39.874206" lon="116.6705917">
        <ele>23.16266</ele>
        <time>2026-08-29T22:50:23Z</time>
      </trkpt>
      <trkpt lat="39.8740994" lon="116.6705921">
        <ele>23.06618</ele>
        <time>2026-08-29T22:50:27Z</time>
      </trkpt>
      <trkpt lat="39.8739919" lon="116.6705997">
        <ele>22.93516</ele>
        <time>2026-08-29T22:50:31Z</time>
      </trkpt>
      <trkpt lat="39.8738842" lon="116.670612">
        <ele>22.80466</ele>
        <time>2026-08-29T22:50:35Z</time>
      </trkpt>
      <trkpt lat="39.8737762" lon="116.6706179">
        <ele>22.70995</ele>
        <time>2026-08-29T22:50:39Z</time>
      </trkpt>
      <trkpt lat="39.8736663" lon="116.6706169">
        <ele>22.65709</ele>
        <time>2026-08-29T22:50:43Z</time>
      </trkpt>
      <trkpt lat="39.8735524" lon="116.6706221">
        <ele>22.60413</ele>
        <time>2026-08-29T22:50:47Z</time>
      </trkpt>
      <trkpt lat="39.8734367" lon="116.6706336">
        <ele>22.5562</ele>
        <time>2026-08-29T22:50:51Z</time>
      </trkpt>
      <trkpt lat="39.8733244" lon="116.6706514">
        <ele>22.61058</ele>
        <time>2026-08-29T22:50:55Z</time>
      </trkpt>
      <trkpt lat="39.8732119" lon="116.6706675">
        <ele>22.85896</ele>
        <time>2026-08-29T22:50:58.991000Z</time>
      </trkpt>
      <trkpt lat="39.8731011" lon="116.6706763">
        <ele>23.11831</ele>
        <time>2026-08-29T22:51:02.972000Z</time>
      </trkpt>
      <trkpt lat="39.8729965" lon="116.6706893">
        <ele>23.26444</ele>
        <time>2026-08-29T22:51:06.953000Z</time>
      </trkpt>
      <trkpt lat="39.872908" lon="116.670743">
        <ele>23.32523</ele>
        <time>2026-08-29T22:51:10.933000Z</time>
      </trkpt>
      <trkpt lat="39.8728618" lon="116.6708457">
        <ele>23.34513</ele>
        <time>2026-08-29T22:51:14.914000Z</time>
      </trkpt>
      <trkpt lat="39.8727853" lon="116.6709346">
        <ele>23.33276</ele>
        <time>2026-08-29T22:51:19.890000Z</time>
      </trkpt>
      <trkpt lat="39.8726775" lon="116.6709308">
        <ele>23.33074</ele>
        <time>2026-08-29T22:51:23.871000Z</time>
      </trkpt>
      <trkpt lat="39.8725717" lon="116.6709177">
        <ele>23.35065</ele>
        <time>2026-08-29T22:51:27.851000Z</time>
      </trkpt>
      <trkpt lat="39.8724699" lon="116.6709284">
        <ele>23.38116</ele>
        <time>2026-08-29T22:51:31.832000Z</time>
      </trkpt>
      <trkpt lat="39.8723829" lon="116.6709933">
        <ele>23.44499</ele>
        <time>2026-08-29T22:51:35.813000Z</time>
      </trkpt>
      <trkpt lat="39.8723234" lon="116.6710933">
        <ele>23.50669</ele>
        <time>2026-08-29T22:51:39.794000Z</time>
      </trkpt>
      <trkpt lat="39.8722989" lon="116.6712085">
        <ele>23.44249</ele>
        <time>2026-08-29T22:51:43.774000Z</time>
      </trkpt>
      <trkpt lat="39.8722912" lon="116.6713344">
        <ele>23.26812</ele>
        <time>2026-08-29T22:51:47.755000Z</time>
      </trkpt>
      <trkpt lat="39.8722922" lon="116.6714599">
        <ele>23.11973</ele>
        <time>2026-08-29T22:51:51.736000Z</time>
      </trkpt>
      <trkpt lat="39.8723003" lon="116.6715876">
        <ele>23.11356</ele>
        <time>2026-08-29T22:51:55.716000Z</time>
      </trkpt>
      <trkpt lat="39.8723124" lon="116.6717157">
        <ele>23.18946</ele>
        <time>2026-08-29T22:51:59.697000Z</time>
      </trkpt>
      <trkpt lat="39.8723152" lon="116.6718472">
        <ele>23.26626</ele>
        <time>2026-08-29T22:52:03.678000Z</time>
      </trkpt>
      <trkpt lat="39.8723025" lon="116.6719804">
        <ele>23.35842</ele>
        <time>2026-08-29T22:52:07.659000Z</time>
      </trkpt>
      <trkpt lat="39.8722713" lon="116.6721124">
        <ele>23.43778</ele>
        <time>2026-08-29T22:52:11.639000Z</time>
      </trkpt>
      <trkpt lat="39.8722263" lon="116.6722351">
        <ele>23.44589</ele>
        <time>2026-08-29T22:52:15.620000Z</time>
      </trkpt>
      <trkpt lat="39.8721765" lon="116.672357">
        <ele>23.40903</ele>
        <time>2026-08-29T22:52:19.601000Z</time>
      </trkpt>
      <trkpt lat="39.872126" lon="116.67248">
        <ele>23.39025</ele>
        <time>2026-08-29T22:52:23.582000Z</time>
      </trkpt>
      <trkpt lat="39.8720851" lon="116.6726044">
        <ele>23.38848</ele>
        <time>2026-08-29T22:52:27.562000Z</time>
      </trkpt>
      <trkpt lat="39.8720547" lon="116.6727296">
        <ele>23.40436</ele>
        <time>2026-08-29T22:52:31.543000Z</time>
      </trkpt>
      <trkpt lat="39.8720361" lon="116.6728573">
        <ele>23.4291</ele>
        <time>2026-08-29T22:52:35.524000Z</time>
      </trkpt>
      <trkpt lat="39.8720365" lon="116.672987">
        <ele>23.47722</ele>
        <time>2026-08-29T22:52:39.505000Z</time>
      </trkpt>
      <trkpt lat="39.8720601" lon="116.6731115">
        <ele>23.5549</ele>
        <time>2026-08-29T22:52:43.485000Z</time>
      </trkpt>
      <trkpt lat="39.8720962" lon="116.6732311">
        <ele>23.65559</ele>
        <time>2026-08-29T22:52:47.466000Z</time>
      </trkpt>
      <trkpt lat="39.8721442" lon="116.6733382">
        <ele>23.76632</ele>
        <time>2026-08-29T22:52:51.447000Z</time>
      </trkpt>
      <trkpt lat="39.8722094" lon="116.6734281">
        <ele>23.87741</ele>
        <time>2026-08-29T22:52:55.428000Z</time>
      </trkpt>
      <trkpt lat="39.8722898" lon="116.6734964">
        <ele>24.00654</ele>
        <time>2026-08-29T22:52:59.408000Z</time>
      </trkpt>
      <trkpt lat="39.8723812" lon="116.6735285">
        <ele>24.14615</ele>
        <time>2026-08-29T22:53:03.389000Z</time>
      </trkpt>
      <trkpt lat="39.8724873" lon="116.6735067">
        <ele>24.29963</ele>
        <time>2026-08-29T22:53:08.365000Z</time>
      </trkpt>
      <trkpt lat="39.872585" lon="116.6734457">
        <ele>24.39336</ele>
        <time>2026-08-29T22:53:13.341000Z</time>
      </trkpt>
      <trkpt lat="39.8726645" lon="116.6733786">
        <ele>24.42024</ele>
        <time>2026-08-29T22:53:17.322000Z</time>
      </trkpt>
      <trkpt lat="39.872733" lon="116.6732967">
        <ele>24.38622</ele>
        <time>2026-08-29T22:53:21.302000Z</time>
      </trkpt>
      <trkpt lat="39.8727852" lon="116.6731957">
        <ele>24.27368</ele>
        <time>2026-08-29T22:53:25.283000Z</time>
      </trkpt>
      <trkpt lat="39.872843" lon="116.6730697">
        <ele>24.04989</ele>
        <time>2026-08-29T22:53:30.259000Z</time>
      </trkpt>
      <trkpt lat="39.872902" lon="116.6729728">
        <ele>23.88763</ele>
        <time>2026-08-29T22:53:34.240000Z</time>
      </trkpt>
      <trkpt lat="39.872977" lon="116.6728919">
        <ele>23.83429</ele>
        <time>2026-08-29T22:53:38.221000Z</time>
      </trkpt>
      <trkpt lat="39.8730669" lon="116.6728236">
        <ele>23.87309</ele>
        <time>2026-08-29T22:53:42.201000Z</time>
      </trkpt>
      <trkpt lat="39.8731557" lon="116.672756">
        <ele>23.94607</ele>
        <time>2026-08-29T22:53:46.182000Z</time>
      </trkpt>
      <trkpt lat="39.8732389" lon="116.6726802">
        <ele>24.00518</ele>
        <time>2026-08-29T22:53:50.163000Z</time>
      </trkpt>
      <trkpt lat="39.8733133" lon="116.672589">
        <ele>24.00312</ele>
        <time>2026-08-29T22:53:54.144000Z</time>
      </trkpt>
      <trkpt lat="39.8733648" lon="116.6724816">
        <ele>23.98257</ele>
        <time>2026-08-29T22:53:58.124000Z</time>
      </trkpt>
      <trkpt lat="39.8734098" lon="116.6723726">
        <ele>23.9899</ele>
        <time>2026-08-29T22:54:02.105000Z</time>
      </trkpt>
      <trkpt lat="39.8734678" lon="116.6722693">
        <ele>24.03308</ele>
        <time>2026-08-29T22:54:06.086000Z</time>
      </trkpt>
      <trkpt lat="39.8735437" lon="116.6721923">
        <ele>24.11918</ele>
        <time>2026-08-29T22:54:10.067000Z</time>
      </trkpt>
      <trkpt lat="39.8736335" lon="116.6721358">
        <ele>24.28244</ele>
        <time>2026-08-29T22:54:14.047000Z</time>
      </trkpt>
      <trkpt lat="39.8737296" lon="116.6721068">
        <ele>24.51579</ele>
        <time>2026-08-29T22:54:18.028000Z</time>
      </trkpt>
      <trkpt lat="39.8738252" lon="116.6720979">
        <ele>24.76423</ele>
        <time>2026-08-29T22:54:22.009000Z</time>
      </trkpt>
      <trkpt lat="39.8739314" lon="116.6720551">
        <ele>24.97324</ele>
        <time>2026-08-29T22:54:26.985000Z</time>
      </trkpt>
      <trkpt lat="39.8740208" lon="116.6719718">
        <ele>24.99872</ele>
        <time>2026-08-29T22:54:31.961000Z</time>
      </trkpt>
      <trkpt lat="39.8740765" lon="116.6718669">
        <ele>24.84818</ele>
        <time>2026-08-29T22:54:36.937000Z</time>
      </trkpt>
      <trkpt lat="39.874103" lon="116.6717447">
        <ele>24.57459</ele>
        <time>2026-08-29T22:54:41.913000Z</time>
      </trkpt>
      <trkpt lat="39.8741171" lon="116.6716163">
        <ele>24.2685</ele>
        <time>2026-08-29T22:54:46.889000Z</time>
      </trkpt>
      <trkpt lat="39.8742003" lon="116.671537">
        <ele>24.03246</ele>
        <time>2026-08-29T22:54:52.860000Z</time>
      </trkpt>
      <trkpt lat="39.8742973" lon="116.6715848">
        <ele>23.91936</ele>
        <time>2026-08-29T22:54:56.840000Z</time>
      </trkpt>
      <trkpt lat="39.8743754" lon="116.6716675">
        <ele>23.78028</ele>
        <time>2026-08-29T22:55:00.821000Z</time>
      </trkpt>
      <trkpt lat="39.8744369" lon="116.6717612">
        <ele>23.58797</ele>
        <time>2026-08-29T22:55:04.802000Z</time>
      </trkpt>
      <trkpt lat="39.8744888" lon="116.6718631">
        <ele>23.53978</ele>
        <time>2026-08-29T22:55:12Z</time>
      </trkpt>
      <trkpt lat="39.8744667" lon="116.6720045">
        <ele>23.95612</ele>
        <time>2026-08-29T22:55:16.744000Z</time>
      </trkpt>
      <trkpt lat="39.8744166" lon="116.6721285">
        <ele>24.3772</ele>
        <time>2026-08-29T22:55:20.725000Z</time>
      </trkpt>
      <trkpt lat="39.8743522" lon="116.6722338">
        <ele>24.75196</ele>
        <time>2026-08-29T22:55:24.706000Z</time>
      </trkpt>
      <trkpt lat="39.8742794" lon="116.6723357">
        <ele>25.03678</ele>
        <time>2026-08-29T22:55:28.686000Z</time>
      </trkpt>
      <trkpt lat="39.8742095" lon="116.6724344">
        <ele>25.2549</ele>
        <time>2026-08-29T22:55:32.667000Z</time>
      </trkpt>
      <trkpt lat="39.874142" lon="116.6725328">
        <ele>25.39903</ele>
        <time>2026-08-29T22:55:36.648000Z</time>
      </trkpt>
      <trkpt lat="39.874072" lon="116.672626">
        <ele>25.47306</ele>
        <time>2026-08-29T22:55:40.629000Z</time>
      </trkpt>
      <trkpt lat="39.8740004" lon="116.6727119">
        <ele>25.51998</ele>
        <time>2026-08-29T22:55:44.609000Z</time>
      </trkpt>
      <trkpt lat="39.8739293" lon="116.6728051">
        <ele>25.54313</ele>
        <time>2026-08-29T22:55:48.590000Z</time>
      </trkpt>
      <trkpt lat="39.8738566" lon="116.672901">
        <ele>25.51012</ele>
        <time>2026-08-29T22:55:52.571000Z</time>
      </trkpt>
      <trkpt lat="39.873785" lon="116.672997">
        <ele>25.41752</ele>
        <time>2026-08-29T22:55:56.552000Z</time>
      </trkpt>
      <trkpt lat="39.8737142" lon="116.6730974">
        <ele>25.31833</ele>
        <time>2026-08-29T22:56:00.532000Z</time>
      </trkpt>
      <trkpt lat="39.8736458" lon="116.6731987">
        <ele>25.2543</ele>
        <time>2026-08-29T22:56:04.513000Z</time>
      </trkpt>
      <trkpt lat="39.8735891" lon="116.6733105">
        <ele>25.2144</ele>
        <time>2026-08-29T22:56:08.494000Z</time>
      </trkpt>
      <trkpt lat="39.8735727" lon="116.6734387">
        <ele>25.1824</ele>
        <time>2026-08-29T22:56:12.475000Z</time>
      </trkpt>
      <trkpt lat="39.8735968" lon="116.6735663">
        <ele>25.15426</ele>
        <time>2026-08-29T22:56:16.455000Z</time>
      </trkpt>
      <trkpt lat="39.8736237" lon="116.6736918">
        <ele>25.14477</ele>
        <time>2026-08-29T22:56:20.436000Z</time>
      </trkpt>
      <trkpt lat="39.8736151" lon="116.6738181">
        <ele>25.17493</ele>
        <time>2026-08-29T22:56:24.417000Z</time>
      </trkpt>
      <trkpt lat="39.8735605" lon="116.6739303">
        <ele>25.23573</ele>
        <time>2026-08-29T22:56:28.398000Z</time>
      </trkpt>
      <trkpt lat="39.8734947" lon="116.6740344">
        <ele>25.32064</ele>
        <time>2026-08-29T22:56:32.379000Z</time>
      </trkpt>
      <trkpt lat="39.8734253" lon="116.6741359">
        <ele>25.40473</ele>
        <time>2026-08-29T22:56:36.359000Z</time>
      </trkpt>
      <trkpt lat="39.8733556" lon="116.6742346">
        <ele>25.46288</ele>
        <time>2026-08-29T22:56:40.340000Z</time>
      </trkpt>
      <trkpt lat="39.8732823" lon="116.6743295">
        <ele>25.49516</ele>
        <time>2026-08-29T22:56:44.321000Z</time>
      </trkpt>
      <trkpt lat="39.873209" lon="116.6744237">
        <ele>25.48032</ele>
        <time>2026-08-29T22:56:48.302000Z</time>
      </trkpt>
      <trkpt lat="39.8731406" lon="116.6745201">
        <ele>25.43565</ele>
        <time>2026-08-29T22:56:52.283000Z</time>
      </trkpt>
      <trkpt lat="39.8730703" lon="116.6746167">
        <ele>25.37074</ele>
        <time>2026-08-29T22:56:56.263000Z</time>
      </trkpt>
      <trkpt lat="39.8730015" lon="116.674713">
        <ele>25.25016</ele>
        <time>2026-08-29T22:57:00.244000Z</time>
      </trkpt>
      <trkpt lat="39.8729223" lon="116.6747965">
        <ele>25.00434</ele>
        <time>2026-08-29T22:57:04.225000Z</time>
      </trkpt>
      <trkpt lat="39.872821" lon="116.6748215">
        <ele>24.61174</ele>
        <time>2026-08-29T22:57:08.206000Z</time>
      </trkpt>
      <trkpt lat="39.8727234" lon="116.6748187">
        <ele>24.24407</ele>
        <time>2026-08-29T22:57:12Z</time>
      </trkpt>
      <trkpt lat="39.8726066" lon="116.6748142">
        <ele>24.01709</ele>
        <time>2026-08-29T22:57:16.168000Z</time>
      </trkpt>
      <trkpt lat="39.8725001" lon="116.6748151">
        <ele>23.71823</ele>
        <time>2026-08-29T22:57:20Z</time>
      </trkpt>
      <trkpt lat="39.87239" lon="116.6748156">
        <ele>23.45557</ele>
        <time>2026-08-29T22:57:24Z</time>
      </trkpt>
      <trkpt lat="39.8722799" lon="116.6748108">
        <ele>23.34789</ele>
        <time>2026-08-29T22:57:28Z</time>
      </trkpt>
      <trkpt lat="39.8721719" lon="116.6748074">
        <ele>23.37037</ele>
        <time>2026-08-29T22:57:32Z</time>
      </trkpt>
      <trkpt lat="39.872063" lon="116.6748115">
        <ele>23.48182</ele>
        <time>2026-08-29T22:57:36.072000Z</time>
      </trkpt>
      <trkpt lat="39.8719601" lon="116.674817">
        <ele>23.56356</ele>
        <time>2026-08-29T22:57:40.053000Z</time>
      </trkpt>
      <trkpt lat="39.8718561" lon="116.6748253">
        <ele>23.5124</ele>
        <time>2026-08-29T22:57:44.034000Z</time>
      </trkpt>
      <trkpt lat="39.8717499" lon="116.6748271">
        <ele>23.42203</ele>
        <time>2026-08-29T22:57:48Z</time>
      </trkpt>
      <trkpt lat="39.8716449" lon="116.6748304">
        <ele>23.52071</ele>
        <time>2026-08-29T22:57:51.995000Z</time>
      </trkpt>
      <trkpt lat="39.8715427" lon="116.6748306">
        <ele>23.72663</ele>
        <time>2026-08-29T22:57:55.976000Z</time>
      </trkpt>
      <trkpt lat="39.8714399" lon="116.674825">
        <ele>23.84224</ele>
        <time>2026-08-29T22:57:59.957000Z</time>
      </trkpt>
      <trkpt lat="39.8713346" lon="116.6748242">
        <ele>23.83979</ele>
        <time>2026-08-29T22:58:03.938000Z</time>
      </trkpt>
      <trkpt lat="39.8712249" lon="116.6748252">
        <ele>23.72603</ele>
        <time>2026-08-29T22:58:07.919000Z</time>
      </trkpt>
      <trkpt lat="39.8711164" lon="116.6748211">
        <ele>23.54021</ele>
        <time>2026-08-29T22:58:11.900000Z</time>
      </trkpt>
      <trkpt lat="39.8710106" lon="116.6748157">
        <ele>23.32833</ele>
        <time>2026-08-29T22:58:15.881000Z</time>
      </trkpt>
      <trkpt lat="39.8709042" lon="116.6748071">
        <ele>23.1287</ele>
        <time>2026-08-29T22:58:19.862000Z</time>
      </trkpt>
      <trkpt lat="39.8707993" lon="116.67481">
        <ele>22.96854</ele>
        <time>2026-08-29T22:58:23.842000Z</time>
      </trkpt>
      <trkpt lat="39.8706938" lon="116.6748123">
        <ele>22.85664</ele>
        <time>2026-08-29T22:58:27.823000Z</time>
      </trkpt>
      <trkpt lat="39.8705884" lon="116.6748207">
        <ele>22.76853</ele>
        <time>2026-08-29T22:58:31.804000Z</time>
      </trkpt>
      <trkpt lat="39.8704822" lon="116.6748285">
        <ele>22.66328</ele>
        <time>2026-08-29T22:58:35.785000Z</time>
      </trkpt>
      <trkpt lat="39.8703733" lon="116.6748345">
        <ele>22.5325</ele>
        <time>2026-08-29T22:58:39.766000Z</time>
      </trkpt>
      <trkpt lat="39.870266" lon="116.6748388">
        <ele>22.40642</ele>
        <time>2026-08-29T22:58:43.747000Z</time>
      </trkpt>
      <trkpt lat="39.8701576" lon="116.6748426">
        <ele>22.29512</ele>
        <time>2026-08-29T22:58:47.728000Z</time>
      </trkpt>
      <trkpt lat="39.8700501" lon="116.6748498">
        <ele>22.20722</ele>
        <time>2026-08-29T22:58:51.708000Z</time>
      </trkpt>
      <trkpt lat="39.8699434" lon="116.6748485">
        <ele>22.14707</ele>
        <time>2026-08-29T22:58:55.689000Z</time>
      </trkpt>
      <trkpt lat="39.8698328" lon="116.6748464">
        <ele>22.1048</ele>
        <time>2026-08-29T22:58:59.670000Z</time>
      </trkpt>
      <trkpt lat="39.8697245" lon="116.6748516">
        <ele>22.06945</ele>
        <time>2026-08-29T22:59:03.651000Z</time>
      </trkpt>
      <trkpt lat="39.8696181" lon="116.6748579">
        <ele>22.04589</ele>
        <time>2026-08-29T22:59:07.632000Z</time>
      </trkpt>
      <trkpt lat="39.8695105" lon="116.6748598">
        <ele>22.0626</ele>
        <time>2026-08-29T22:59:11.613000Z</time>
      </trkpt>
      <trkpt lat="39.8694032" lon="116.6748625">
        <ele>22.10189</ele>
        <time>2026-08-29T22:59:15.594000Z</time>
      </trkpt>
      <trkpt lat="39.8692955" lon="116.6748607">
        <ele>22.13628</ele>
        <time>2026-08-29T22:59:19.575000Z</time>
      </trkpt>
      <trkpt lat="39.8691875" lon="116.6748645">
        <ele>22.16376</ele>
        <time>2026-08-29T22:59:23.555000Z</time>
      </trkpt>
      <trkpt lat="39.8690748" lon="116.6748693">
        <ele>22.19478</ele>
        <time>2026-08-29T22:59:27.536000Z</time>
      </trkpt>
      <trkpt lat="39.8689622" lon="116.6748822">
        <ele>22.24724</ele>
        <time>2026-08-29T22:59:31.517000Z</time>
      </trkpt>
      <trkpt lat="39.8688504" lon="116.6748968">
        <ele>22.31465</ele>
        <time>2026-08-29T22:59:35.498000Z</time>
      </trkpt>
      <trkpt lat="39.8687368" lon="116.6749017">
        <ele>22.35153</ele>
        <time>2026-08-29T22:59:39.479000Z</time>
      </trkpt>
      <trkpt lat="39.8686202" lon="116.6749051">
        <ele>22.36627</ele>
        <time>2026-08-29T22:59:43.460000Z</time>
      </trkpt>
      <trkpt lat="39.8685079" lon="116.6749135">
        <ele>22.3738</ele>
        <time>2026-08-29T22:59:47.441000Z</time>
      </trkpt>
      <trkpt lat="39.8684" lon="116.6749238">
        <ele>22.38557</ele>
        <time>2026-08-29T22:59:51.422000Z</time>
      </trkpt>
      <trkpt lat="39.8682951" lon="116.6749297">
        <ele>22.41512</ele>
        <time>2026-08-29T22:59:55.402000Z</time>
      </trkpt>
      <trkpt lat="39.8681983" lon="116.6748966">
        <ele>22.48677</ele>
        <time>2026-08-29T22:59:59.383000Z</time>
      </trkpt>
      <trkpt lat="39.8681488" lon="116.674792">
        <ele>22.59748</ele>
        <time>2026-08-29T23:00:03.364000Z</time>
      </trkpt>
      <trkpt lat="39.868135" lon="116.6746608">
        <ele>22.71729</ele>
        <time>2026-08-29T23:00:07.345000Z</time>
      </trkpt>
      <trkpt lat="39.8681257" lon="116.6745215">
        <ele>22.80427</ele>
        <time>2026-08-29T23:00:11.326000Z</time>
      </trkpt>
      <trkpt lat="39.8681187" lon="116.6743815">
        <ele>22.88032</ele>
        <time>2026-08-29T23:00:15.307000Z</time>
      </trkpt>
      <trkpt lat="39.8681182" lon="116.6742409">
        <ele>22.97379</ele>
        <time>2026-08-29T23:00:19.288000Z</time>
      </trkpt>
      <trkpt lat="39.8681188" lon="116.6741014">
        <ele>23.07377</ele>
        <time>2026-08-29T23:00:23.269000Z</time>
      </trkpt>
      <trkpt lat="39.868117" lon="116.6739661">
        <ele>23.14136</ele>
        <time>2026-08-29T23:00:27.249000Z</time>
      </trkpt>
      <trkpt lat="39.8681066" lon="116.6738362">
        <ele>23.1584</ele>
        <time>2026-08-29T23:00:31.230000Z</time>
      </trkpt>
      <trkpt lat="39.8681053" lon="116.6737072">
        <ele>23.12458</ele>
        <time>2026-08-29T23:00:35.211000Z</time>
      </trkpt>
      <trkpt lat="39.8681077" lon="116.6735704">
        <ele>23.04609</ele>
        <time>2026-08-29T23:00:39.192000Z</time>
      </trkpt>
      <trkpt lat="39.8681078" lon="116.6734337">
        <ele>22.93595</ele>
        <time>2026-08-29T23:00:43.173000Z</time>
      </trkpt>
      <trkpt lat="39.8681071" lon="116.6732963">
        <ele>22.79524</ele>
        <time>2026-08-29T23:00:47.154000Z</time>
      </trkpt>
      <trkpt lat="39.8681062" lon="116.6731594">
        <ele>22.61301</ele>
        <time>2026-08-29T23:00:51.135000Z</time>
      </trkpt>
      <trkpt lat="39.8681045" lon="116.6730269">
        <ele>22.44029</ele>
        <time>2026-08-29T23:00:55Z</time>
      </trkpt>
      <trkpt lat="39.8681032" lon="116.6728907">
        <ele>22.35884</ele>
        <time>2026-08-29T23:00:59Z</time>
      </trkpt>
      <trkpt lat="39.8681051" lon="116.6727533">
        <ele>22.35329</ele>
        <time>2026-08-29T23:01:03Z</time>
      </trkpt>
      <trkpt lat="39.8681109" lon="116.6726171">
        <ele>22.39084</ele>
        <time>2026-08-29T23:01:07Z</time>
      </trkpt>
      <trkpt lat="39.8681178" lon="116.6724772">
        <ele>22.43391</ele>
        <time>2026-08-29T23:01:11Z</time>
      </trkpt>
      <trkpt lat="39.8681258" lon="116.6723384">
        <ele>22.47688</ele>
        <time>2026-08-29T23:01:15Z</time>
      </trkpt>
      <trkpt lat="39.8681352" lon="116.6721961">
        <ele>22.58251</ele>
        <time>2026-08-29T23:01:19Z</time>
      </trkpt>
      <trkpt lat="39.8681403" lon="116.6720573">
        <ele>22.77875</ele>
        <time>2026-08-29T23:01:22.982000Z</time>
      </trkpt>
      <trkpt lat="39.8681402" lon="116.6719168">
        <ele>22.98249</ele>
        <time>2026-08-29T23:01:26.963000Z</time>
      </trkpt>
      <trkpt lat="39.8681402" lon="116.6717785">
        <ele>23.13929</ele>
        <time>2026-08-29T23:01:30.944000Z</time>
      </trkpt>
      <trkpt lat="39.8681398" lon="116.6716422">
        <ele>23.2129</ele>
        <time>2026-08-29T23:01:34.924000Z</time>
      </trkpt>
      <trkpt lat="39.8681432" lon="116.6715044">
        <ele>23.21225</ele>
        <time>2026-08-29T23:01:38.905000Z</time>
      </trkpt>
      <trkpt lat="39.8681444" lon="116.6713657">
        <ele>23.18073</ele>
        <time>2026-08-29T23:01:42.886000Z</time>
      </trkpt>
      <trkpt lat="39.8681468" lon="116.671226">
        <ele>23.15577</ele>
        <time>2026-08-29T23:01:46.867000Z</time>
      </trkpt>
      <trkpt lat="39.8681422" lon="116.6710841">
        <ele>23.14344</ele>
        <time>2026-08-29T23:01:50.848000Z</time>
      </trkpt>
      <trkpt lat="39.8681387" lon="116.6709391">
        <ele>23.12056</ele>
        <time>2026-08-29T23:01:54.829000Z</time>
      </trkpt>
      <trkpt lat="39.8681387" lon="116.6707923">
        <ele>23.08524</ele>
        <time>2026-08-29T23:01:58.810000Z</time>
      </trkpt>
      <trkpt lat="39.8681444" lon="116.6706488">
        <ele>23.04028</ele>
        <time>2026-08-29T23:02:02.791000Z</time>
      </trkpt>
      <trkpt lat="39.8681493" lon="116.670506">
        <ele>23.00526</ele>
        <time>2026-08-29T23:02:06.771000Z</time>
      </trkpt>
      <trkpt lat="39.8681562" lon="116.6703677">
        <ele>22.9881</ele>
        <time>2026-08-29T23:02:10.752000Z</time>
      </trkpt>
      <trkpt lat="39.8681551" lon="116.6702383">
        <ele>22.97474</ele>
        <time>2026-08-29T23:02:14.733000Z</time>
      </trkpt>
      <trkpt lat="39.8681521" lon="116.6701081">
        <ele>22.95924</ele>
        <time>2026-08-29T23:02:18.714000Z</time>
      </trkpt>
      <trkpt lat="39.8681502" lon="116.6699729">
        <ele>22.93008</ele>
        <time>2026-08-29T23:02:22.695000Z</time>
      </trkpt>
      <trkpt lat="39.8681478" lon="116.6698428">
        <ele>22.87726</ele>
        <time>2026-08-29T23:02:26.676000Z</time>
      </trkpt>
      <trkpt lat="39.8681395" lon="116.6697107">
        <ele>22.80094</ele>
        <time>2026-08-29T23:02:30.657000Z</time>
      </trkpt>
      <trkpt lat="39.8681285" lon="116.6695754">
        <ele>22.71228</ele>
        <time>2026-08-29T23:02:34.638000Z</time>
      </trkpt>
      <trkpt lat="39.8681163" lon="116.6694448">
        <ele>22.64616</ele>
        <time>2026-08-29T23:02:38.619000Z</time>
      </trkpt>
      <trkpt lat="39.8681014" lon="116.6693136">
        <ele>22.60377</ele>
        <time>2026-08-29T23:02:42.599000Z</time>
      </trkpt>
      <trkpt lat="39.8680904" lon="116.6691821">
        <ele>22.56977</ele>
        <time>2026-08-29T23:02:46.580000Z</time>
      </trkpt>
      <trkpt lat="39.8681052" lon="116.6690632">
        <ele>22.55832</ele>
        <time>2026-08-29T23:02:50.561000Z</time>
      </trkpt>
      <trkpt lat="39.8681866" lon="116.6690077">
        <ele>22.58129</ele>
        <time>2026-08-29T23:02:54.542000Z</time>
      </trkpt>
      <trkpt lat="39.868294" lon="116.6689963">
        <ele>22.62009</ele>
        <time>2026-08-29T23:02:58.523000Z</time>
      </trkpt>
      <trkpt lat="39.8684026" lon="116.6689924">
        <ele>22.67198</ele>
        <time>2026-08-29T23:03:02.504000Z</time>
      </trkpt>
      <trkpt lat="39.8685087" lon="116.6689913">
        <ele>22.75182</ele>
        <time>2026-08-29T23:03:06.485000Z</time>
      </trkpt>
      <trkpt lat="39.8686124" lon="116.6689941">
        <ele>22.84933</ele>
        <time>2026-08-29T23:03:10.466000Z</time>
      </trkpt>
      <trkpt lat="39.8687179" lon="116.6689972">
        <ele>22.93669</ele>
        <time>2026-08-29T23:03:14.447000Z</time>
      </trkpt>
      <trkpt lat="39.8688217" lon="116.6689988">
        <ele>22.99818</ele>
        <time>2026-08-29T23:03:18.427000Z</time>
      </trkpt>
      <trkpt lat="39.868925" lon="116.6689991">
        <ele>23.01675</ele>
        <time>2026-08-29T23:03:22.408000Z</time>
      </trkpt>
      <trkpt lat="39.8690283" lon="116.6689992">
        <ele>23.0058</ele>
        <time>2026-08-29T23:03:26.389000Z</time>
      </trkpt>
      <trkpt lat="39.8691276" lon="116.6689751">
        <ele>22.95757</ele>
        <time>2026-08-29T23:03:30.370000Z</time>
      </trkpt>
      <trkpt lat="39.8692091" lon="116.6689021">
        <ele>22.86622</ele>
        <time>2026-08-29T23:03:34.351000Z</time>
      </trkpt>
      <trkpt lat="39.8692478" lon="116.6687818">
        <ele>22.74773</ele>
        <time>2026-08-29T23:03:38.332000Z</time>
      </trkpt>
      <trkpt lat="39.8692484" lon="116.6686444">
        <ele>22.6368</ele>
        <time>2026-08-29T23:03:42.313000Z</time>
      </trkpt>
      <trkpt lat="39.8692455" lon="116.6685053">
        <ele>22.55917</ele>
        <time>2026-08-29T23:03:46.294000Z</time>
      </trkpt>
      <trkpt lat="39.8692455" lon="116.6683667">
        <ele>22.51924</ele>
        <time>2026-08-29T23:03:50.274000Z</time>
      </trkpt>
      <trkpt lat="39.8692491" lon="116.6682269">
        <ele>22.51024</ele>
        <time>2026-08-29T23:03:54.255000Z</time>
      </trkpt>
      <trkpt lat="39.8692487" lon="116.66809">
        <ele>22.53583</ele>
        <time>2026-08-29T23:03:58.236000Z</time>
      </trkpt>
      <trkpt lat="39.8692494" lon="116.667954">
        <ele>22.59873</ele>
        <time>2026-08-29T23:04:02.217000Z</time>
      </trkpt>
      <trkpt lat="39.8692546" lon="116.66782">
        <ele>22.69437</ele>
        <time>2026-08-29T23:04:06.198000Z</time>
      </trkpt>
      <trkpt lat="39.8692656" lon="116.6676914">
        <ele>22.7607</ele>
        <time>2026-08-29T23:04:10.001000Z</time>
      </trkpt>
      <trkpt lat="39.8692736" lon="116.6675579">
        <ele>22.75206</ele>
        <time>2026-08-29T23:04:14.001000Z</time>
      </trkpt>
      <trkpt lat="39.8692806" lon="116.6674212">
        <ele>22.70789</ele>
        <time>2026-08-29T23:04:18.001000Z</time>
      </trkpt>
      <trkpt lat="39.8692835" lon="116.6672826">
        <ele>22.66352</ele>
        <time>2026-08-29T23:04:22.121000Z</time>
      </trkpt>
      <trkpt lat="39.8692855" lon="116.6671454">
        <ele>22.6431</ele>
        <time>2026-08-29T23:04:26.102000Z</time>
      </trkpt>
      <trkpt lat="39.8692893" lon="116.6670113">
        <ele>22.66655</ele>
        <time>2026-08-29T23:04:30.001000Z</time>
      </trkpt>
      <trkpt lat="39.8692935" lon="116.6668715">
        <ele>22.73626</ele>
        <time>2026-08-29T23:04:34.001000Z</time>
      </trkpt>
      <trkpt lat="39.869297" lon="116.666738">
        <ele>22.80035</ele>
        <time>2026-08-29T23:04:38.001000Z</time>
      </trkpt>
      <trkpt lat="39.8692978" lon="116.6666016">
        <ele>22.81475</ele>
        <time>2026-08-29T23:04:42.001000Z</time>
      </trkpt>
      <trkpt lat="39.8692992" lon="116.6664605">
        <ele>22.83162</ele>
        <time>2026-08-29T23:04:46.001000Z</time>
      </trkpt>
      <trkpt lat="39.8692995" lon="116.6663209">
        <ele>22.90611</ele>
        <time>2026-08-29T23:04:49.988000Z</time>
      </trkpt>
      <trkpt lat="39.869298" lon="116.6661821">
        <ele>22.96454</ele>
        <time>2026-08-29T23:04:53.968000Z</time>
      </trkpt>
      <trkpt lat="39.869301" lon="116.6660435">
        <ele>22.98447</ele>
        <time>2026-08-29T23:04:57.949000Z</time>
      </trkpt>
      <trkpt lat="39.8693076" lon="116.6659026">
        <ele>23.0011</ele>
        <time>2026-08-29T23:05:01.930000Z</time>
      </trkpt>
      <trkpt lat="39.869315" lon="116.665763">
        <ele>23.0254</ele>
        <time>2026-08-29T23:05:05.911000Z</time>
      </trkpt>
      <trkpt lat="39.8693204" lon="116.6656306">
        <ele>23.04893</ele>
        <time>2026-08-29T23:05:09.892000Z</time>
      </trkpt>
      <trkpt lat="39.8693232" lon="116.6654991">
        <ele>23.05431</ele>
        <time>2026-08-29T23:05:13.873000Z</time>
      </trkpt>
      <trkpt lat="39.8693208" lon="116.665366">
        <ele>23.04614</ele>
        <time>2026-08-29T23:05:17.854000Z</time>
      </trkpt>
      <trkpt lat="39.8693219" lon="116.6652317">
        <ele>23.03629</ele>
        <time>2026-08-29T23:05:21.835000Z</time>
      </trkpt>
      <trkpt lat="39.8693204" lon="116.6650984">
        <ele>23.03135</ele>
        <time>2026-08-29T23:05:25.815000Z</time>
      </trkpt>
      <trkpt lat="39.8693146" lon="116.6649613">
        <ele>23.03655</ele>
        <time>2026-08-29T23:05:29.796000Z</time>
      </trkpt>
      <trkpt lat="39.8693138" lon="116.6648236">
        <ele>23.03213</ele>
        <time>2026-08-29T23:05:33.777000Z</time>
      </trkpt>
      <trkpt lat="39.8693317" lon="116.6646924">
        <ele>23.00036</ele>
        <time>2026-08-29T23:05:37.758000Z</time>
      </trkpt>
      <trkpt lat="39.8693492" lon="116.6645625">
        <ele>22.94634</ele>
        <time>2026-08-29T23:05:41.739000Z</time>
      </trkpt>
      <trkpt lat="39.8693629" lon="116.6644304">
        <ele>22.91261</ele>
        <time>2026-08-29T23:05:45.720000Z</time>
      </trkpt>
      <trkpt lat="39.8693736" lon="116.6642976">
        <ele>22.93663</ele>
        <time>2026-08-29T23:05:49.701000Z</time>
      </trkpt>
      <trkpt lat="39.8693796" lon="116.6641645">
        <ele>23.01935</ele>
        <time>2026-08-29T23:05:53.681000Z</time>
      </trkpt>
      <trkpt lat="39.8693841" lon="116.6640319">
        <ele>23.14058</ele>
        <time>2026-08-29T23:05:57.662000Z</time>
      </trkpt>
      <trkpt lat="39.8693821" lon="116.6638996">
        <ele>23.30138</ele>
        <time>2026-08-29T23:06:01.643000Z</time>
      </trkpt>
      <trkpt lat="39.8693809" lon="116.663764">
        <ele>23.47401</ele>
        <time>2026-08-29T23:06:05.624000Z</time>
      </trkpt>
      <trkpt lat="39.8693885" lon="116.6636296">
        <ele>23.62077</ele>
        <time>2026-08-29T23:06:09.605000Z</time>
      </trkpt>
      <trkpt lat="39.8693955" lon="116.6634931">
        <ele>23.75665</ele>
        <time>2026-08-29T23:06:13.586000Z</time>
      </trkpt>
      <trkpt lat="39.8694012" lon="116.6633555">
        <ele>23.88977</ele>
        <time>2026-08-29T23:06:17.567000Z</time>
      </trkpt>
      <trkpt lat="39.8694055" lon="116.663219">
        <ele>24.00077</ele>
        <time>2026-08-29T23:06:21.548000Z</time>
      </trkpt>
      <trkpt lat="39.8694063" lon="116.6630829">
        <ele>24.08505</ele>
        <time>2026-08-29T23:06:25.528000Z</time>
      </trkpt>
      <trkpt lat="39.8694075" lon="116.6629456">
        <ele>24.14984</ele>
        <time>2026-08-29T23:06:29.509000Z</time>
      </trkpt>
      <trkpt lat="39.8694127" lon="116.6628117">
        <ele>24.18527</ele>
        <time>2026-08-29T23:06:33.490000Z</time>
      </trkpt>
      <trkpt lat="39.8694184" lon="116.6626803">
        <ele>24.20801</ele>
        <time>2026-08-29T23:06:37.471000Z</time>
      </trkpt>
      <trkpt lat="39.8694256" lon="116.6625509">
        <ele>24.23323</ele>
        <time>2026-08-29T23:06:41.452000Z</time>
      </trkpt>
      <trkpt lat="39.8694352" lon="116.6624225">
        <ele>24.26292</ele>
        <time>2026-08-29T23:06:45.433000Z</time>
      </trkpt>
      <trkpt lat="39.8694343" lon="116.662293">
        <ele>24.28958</ele>
        <time>2026-08-29T23:06:49.414000Z</time>
      </trkpt>
      <trkpt lat="39.8694377" lon="116.6621558">
        <ele>24.33154</ele>
        <time>2026-08-29T23:06:53.395000Z</time>
      </trkpt>
      <trkpt lat="39.8694419" lon="116.6620129">
        <ele>24.39465</ele>
        <time>2026-08-29T23:06:57.376000Z</time>
      </trkpt>
      <trkpt lat="39.8694515" lon="116.66187">
        <ele>24.47977</ele>
        <time>2026-08-29T23:07:01.356000Z</time>
      </trkpt>
      <trkpt lat="39.8694656" lon="116.6617276">
        <ele>24.58147</ele>
        <time>2026-08-29T23:07:05.337000Z</time>
      </trkpt>
      <trkpt lat="39.869481" lon="116.6615883">
        <ele>24.67561</ele>
        <time>2026-08-29T23:07:09.318000Z</time>
      </trkpt>
      <trkpt lat="39.8694923" lon="116.6614536">
        <ele>24.75935</ele>
        <time>2026-08-29T23:07:13.299000Z</time>
      </trkpt>
      <trkpt lat="39.8695005" lon="116.6613253">
        <ele>24.86424</ele>
        <time>2026-08-29T23:07:17.280000Z</time>
      </trkpt>
      <trkpt lat="39.869514" lon="116.6611829">
        <ele>25.06528</ele>
        <time>2026-08-29T23:07:22.266000Z</time>
      </trkpt>
      <trkpt lat="39.8695297" lon="116.6610379">
        <ele>25.2743</ele>
        <time>2026-08-29T23:07:26.266000Z</time>
      </trkpt>
      <trkpt lat="39.8695458" lon="116.6608943">
        <ele>25.50009</ele>
        <time>2026-08-29T23:07:30.266000Z</time>
      </trkpt>
      <trkpt lat="39.8695617" lon="116.660754">
        <ele>25.73709</ele>
        <time>2026-08-29T23:07:34.266000Z</time>
      </trkpt>
      <trkpt lat="39.8695777" lon="116.6606149">
        <ele>25.9735</ele>
        <time>2026-08-29T23:07:38.266000Z</time>
      </trkpt>
      <trkpt lat="39.8695938" lon="116.6604755">
        <ele>26.1754</ele>
        <time>2026-08-29T23:07:42.266000Z</time>
      </trkpt>
    </trkseg>
  </trk>
</gpx>