<?xml version="1.0" encoding="UTF-8"?>
<gpx xmlns="http://www.topografix.com/GPX/1/1" xmlns:gpxtpx="http://www.garmin.com/xmlschemas/TrackPointExtension/v1" xmlns:xsi="http://www.w3.org/2001/XMLSchema-instance" xsi:schemaLocation="http://www.topografix.com/GPX/1/1 http://www.topografix.com/GPX/1/1/gpx.xsd" version="1.1" creator="gpx.py -- https://github.com/tkrajina/gpxpy">
  <trk>
    <name>gpx from codoon</name>
    <type>Run</type>
    <trkseg>
      <trkpt lat="39.8752034" lon="116.6678423">
        <ele>22.69422</ele>
        <time>2026-08-29T12:25:27Z</time>
      </trkpt>
      <trkpt lat="39.8751373" lon="116.6677397">
        <ele>22.69006</ele>
        <time>2026-08-29T12:25:32.419000Z</time>
      </trkpt>
      <trkpt lat="39.875054" lon="116.6676526">
        <ele>22.57116</ele>
        <time>2026-08-29T12:25:37.396000Z</time>
      </trkpt>
      <trkpt lat="39.8749578" lon="116.6675984">
        <ele>22.38238</ele>
        <time>2026-08-29T12:25:42.372000Z</time>
      </trkpt>
      <trkpt lat="39.8748693" lon="116.6675767">
        <ele>22.23505</ele>
        <time>2026-08-29T12:25:46.354000Z</time>
      </trkpt>
      <trkpt lat="39.8747797" lon="116.6675607">
        <ele>22.11389</ele>
        <time>2026-08-29T12:25:50.335000Z</time>
      </trkpt>
      <trkpt lat="39.8746705" lon="116.6675374">
        <ele>21.98687</ele>
        <time>2026-08-29T12:25:55.312000Z</time>
      </trkpt>
      <trkpt lat="39.8745585" lon="116.6675228">
        <ele>21.8733</ele>
        <time>2026-08-29T12:26:00.288000Z</time>
      </trkpt>
      <trkpt lat="39.8744672" lon="116.6675362">
        <ele>21.84551</ele>
        <time>2026-08-29T12:26:04.270000Z</time>
      </trkpt>
      <trkpt lat="39.8743615" lon="116.6675777">
        <ele>21.94431</ele>
        <time>2026-08-29T12:26:09.246000Z</time>
      </trkpt>
      <trkpt lat="39.8742636" lon="116.6676371">
        <ele>22.1889</ele>
        <time>2026-08-29T12:26:14.223000Z</time>
      </trkpt>
      <trkpt lat="39.8741729" lon="116.6677044">
        <ele>22.53121</ele>
        <time>2026-08-29T12:26:19.199000Z</time>
      </trkpt>
      <trkpt lat="39.8740836" lon="116.6677671">
        <ele>22.7119</ele>
        <time>2026-08-29T12:26:24Z</time>
      </trkpt>
      <trkpt lat="39.8739863" lon="116.6678161">
        <ele>22.67864</ele>
        <time>2026-08-29T12:26:29Z</time>
      </trkpt>
      <trkpt lat="39.8738749" lon="116.6678381">
        <ele>22.61918</ele>
        <time>2026-08-29T12:26:34Z</time>
      </trkpt>
      <trkpt lat="39.8737843" lon="116.6678394">
        <ele>22.61091</ele>
        <time>2026-08-29T12:26:38Z</time>
      </trkpt>
      <trkpt lat="39.8736737" lon="116.6678348">
        <ele>22.62436</ele>
        <time>2026-08-29T12:26:43Z</time>
      </trkpt>
      <trkpt lat="39.8735638" lon="116.6678141">
        <ele>22.57593</ele>
        <time>2026-08-29T12:26:48Z</time>
      </trkpt>
      <trkpt lat="39.8734572" lon="116.6677941">
        <ele>22.34109</ele>
        <time>2026-08-29T12:26:53.040000Z</time>
      </trkpt>
      <trkpt lat="39.8733522" lon="116.6678132">
        <ele>21.98188</ele>
        <time>2026-08-29T12:26:58.017000Z</time>
      </trkpt>
      <trkpt lat="39.8732534" lon="116.6678656">
        <ele>21.66182</ele>
        <time>2026-08-29T12:27:02.993000Z</time>
      </trkpt>
      <trkpt lat="39.873156" lon="116.6679136">
        <ele>21.40649</ele>
        <time>2026-08-29T12:27:07.980000Z</time>
      </trkpt>
      <trkpt lat="39.8730531" lon="116.6679313">
        <ele>21.25595</ele>
        <time>2026-08-29T12:27:12.956000Z</time>
      </trkpt>
      <trkpt lat="39.8729447" lon="116.6679147">
        <ele>21.23495</ele>
        <time>2026-08-29T12:27:17.933000Z</time>
      </trkpt>
      <trkpt lat="39.8728412" lon="116.667871">
        <ele>21.28514</ele>
        <time>2026-08-29T12:27:22.909000Z</time>
      </trkpt>
      <trkpt lat="39.8727415" lon="116.6678176">
        <ele>21.36735</ele>
        <time>2026-08-29T12:27:27.886000Z</time>
      </trkpt>
      <trkpt lat="39.8726338" lon="116.6677939">
        <ele>21.48877</ele>
        <time>2026-08-29T12:27:32.862000Z</time>
      </trkpt>
      <trkpt lat="39.8725256" lon="116.6677862">
        <ele>21.61263</ele>
        <time>2026-08-29T12:27:37.839000Z</time>
      </trkpt>
      <trkpt lat="39.8724214" lon="116.6677778">
        <ele>21.63132</ele>
        <time>2026-08-29T12:27:42.815000Z</time>
      </trkpt>
      <trkpt lat="39.8723207" lon="116.6678019">
        <ele>21.47668</ele>
        <time>2026-08-29T12:27:47.792000Z</time>
      </trkpt>
      <trkpt lat="39.8722094" lon="116.6678205">
        <ele>21.1816</ele>
        <time>2026-08-29T12:27:52.768000Z</time>
      </trkpt>
      <trkpt lat="39.8721004" lon="116.6678071">
        <ele>20.8149</ele>
        <time>2026-08-29T12:27:57.745000Z</time>
      </trkpt>
      <trkpt lat="39.8720112" lon="116.6677802">
        <ele>20.53086</ele>
        <time>2026-08-29T12:28:01.726000Z</time>
      </trkpt>
      <trkpt lat="39.8719207" lon="116.6677385">
        <ele>20.27773</ele>
        <time>2026-08-29T12:28:05.707000Z</time>
      </trkpt>
      <trkpt lat="39.8718333" lon="116.6676918">
        <ele>20.0628</ele>
        <time>2026-08-29T12:28:09.688000Z</time>
      </trkpt>
      <trkpt lat="39.8717479" lon="116.6676511">
        <ele>19.91479</ele>
        <time>2026-08-29T12:28:13.670000Z</time>
      </trkpt>
      <trkpt lat="39.8716578" lon="116.6676215">
        <ele>19.85939</ele>
        <time>2026-08-29T12:28:17.651000Z</time>
      </trkpt>
      <trkpt lat="39.8715682" lon="116.6676068">
        <ele>19.89043</ele>
        <time>2026-08-29T12:28:21.632000Z</time>
      </trkpt>
      <trkpt lat="39.8714571" lon="116.667606">
        <ele>19.95984</ele>
        <time>2026-08-29T12:28:26.608000Z</time>
      </trkpt>
      <trkpt lat="39.8713529" lon="116.66761">
        <ele>19.94806</ele>
        <time>2026-08-29T12:28:31.585000Z</time>
      </trkpt>
      <trkpt lat="39.8712476" lon="116.6676223">
        <ele>19.80973</ele>
        <time>2026-08-29T12:28:36.561000Z</time>
      </trkpt>
      <trkpt lat="39.8711411" lon="116.6676336">
        <ele>19.61703</ele>
        <time>2026-08-29T12:28:41.538000Z</time>
      </trkpt>
      <trkpt lat="39.8710485" lon="116.6676828">
        <ele>19.51828</ele>
        <time>2026-08-29T12:28:46.514000Z</time>
      </trkpt>
      <trkpt lat="39.8709956" lon="116.6677993">
        <ele>19.63301</ele>
        <time>2026-08-29T12:28:51.491000Z</time>
      </trkpt>
      <trkpt lat="39.8709385" lon="116.6679226">
        <ele>19.96778</ele>
        <time>2026-08-29T12:28:56.467000Z</time>
      </trkpt>
      <trkpt lat="39.8708409" lon="116.667975">
        <ele>20.36821</ele>
        <time>2026-08-29T12:29:01.444000Z</time>
      </trkpt>
      <trkpt lat="39.8707296" lon="116.6679773">
        <ele>20.69308</ele>
        <time>2026-08-29T12:29:06.420000Z</time>
      </trkpt>
      <trkpt lat="39.8706227" lon="116.667969">
        <ele>20.89114</ele>
        <time>2026-08-29T12:29:11.396000Z</time>
      </trkpt>
      <trkpt lat="39.8705173" lon="116.667954">
        <ele>20.9666</ele>
        <time>2026-08-29T12:29:16.373000Z</time>
      </trkpt>
      <trkpt lat="39.8704112" lon="116.6679433">
        <ele>20.99566</ele>
        <time>2026-08-29T12:29:21.349000Z</time>
      </trkpt>
      <trkpt lat="39.870314" lon="116.6678895">
        <ele>21.04681</ele>
        <time>2026-08-29T12:29:26.326000Z</time>
      </trkpt>
      <trkpt lat="39.8702214" lon="116.6678432">
        <ele>21.11464</ele>
        <time>2026-08-29T12:29:31.302000Z</time>
      </trkpt>
      <trkpt lat="39.8701224" lon="116.6678541">
        <ele>21.17971</ele>
        <time>2026-08-29T12:29:36.279000Z</time>
      </trkpt>
      <trkpt lat="39.8700196" lon="116.6678546">
        <ele>21.24787</ele>
        <time>2026-08-29T12:29:41.255000Z</time>
      </trkpt>
      <trkpt lat="39.8699143" lon="116.6678329">
        <ele>21.40288</ele>
        <time>2026-08-29T12:29:46.231000Z</time>
      </trkpt>
      <trkpt lat="39.8698124" lon="116.6677965">
        <ele>21.74432</ele>
        <time>2026-08-29T12:29:51.208000Z</time>
      </trkpt>
      <trkpt lat="39.8697118" lon="116.6677805">
        <ele>22.10812</ele>
        <time>2026-08-29T12:29:56.184000Z</time>
      </trkpt>
      <trkpt lat="39.8696196" lon="116.6677945">
        <ele>22.17075</ele>
        <time>2026-08-29T12:30:01Z</time>
      </trkpt>
      <trkpt lat="39.869536" lon="116.6678427">
        <ele>22.10079</ele>
        <time>2026-08-29T12:30:06Z</time>
      </trkpt>
      <trkpt lat="39.8694782" lon="116.6679348">
        <ele>22.0093</ele>
        <time>2026-08-29T12:30:11Z</time>
      </trkpt>
      <trkpt lat="39.8694591" lon="116.668055">
        <ele>21.89595</ele>
        <time>2026-08-29T12:30:16Z</time>
      </trkpt>
      <trkpt lat="39.8694793" lon="116.6681793">
        <ele>21.78969</ele>
        <time>2026-08-29T12:30:21Z</time>
      </trkpt>
      <trkpt lat="39.8695305" lon="116.6682904">
        <ele>21.67437</ele>
        <time>2026-08-29T12:30:26Z</time>
      </trkpt>
      <trkpt lat="39.8696116" lon="116.6683661">
        <ele>21.55847</ele>
        <time>2026-08-29T12:30:31Z</time>
      </trkpt>
      <trkpt lat="39.8697082" lon="116.6683732">
        <ele>21.35562</ele>
        <time>2026-08-29T12:30:35.995000Z</time>
      </trkpt>
      <trkpt lat="39.8698007" lon="116.668338">
        <ele>21.09694</ele>
        <time>2026-08-29T12:30:40.972000Z</time>
      </trkpt>
      <trkpt lat="39.8698961" lon="116.6682983">
        <ele>20.95192</ele>
        <time>2026-08-29T12:30:45.948000Z</time>
      </trkpt>
      <trkpt lat="39.8699982" lon="116.6683015">
        <ele>20.92284</ele>
        <time>2026-08-29T12:30:50.924000Z</time>
      </trkpt>
      <trkpt lat="39.8701014" lon="116.6683116">
        <ele>20.87068</ele>
        <time>2026-08-29T12:30:55.901000Z</time>
      </trkpt>
      <trkpt lat="39.8702006" lon="116.6682846">
        <ele>20.72058</ele>
        <time>2026-08-29T12:31:00.877000Z</time>
      </trkpt>
      <trkpt lat="39.8702916" lon="116.66823">
        <ele>20.45998</ele>
        <time>2026-08-29T12:31:05.854000Z</time>
      </trkpt>
      <trkpt lat="39.8703799" lon="116.668169">
        <ele>20.14568</ele>
        <time>2026-08-29T12:31:10.830000Z</time>
      </trkpt>
      <trkpt lat="39.8704735" lon="116.6681166">
        <ele>19.92323</ele>
        <time>2026-08-29T12:31:15.806000Z</time>
      </trkpt>
      <trkpt lat="39.8705726" lon="116.6680925">
        <ele>19.85723</ele>
        <time>2026-08-29T12:31:20.783000Z</time>
      </trkpt>
      <trkpt lat="39.8706723" lon="116.6680989">
        <ele>19.95565</ele>
        <time>2026-08-29T12:31:25.759000Z</time>
      </trkpt>
      <trkpt lat="39.8707733" lon="116.6681218">
        <ele>20.16596</ele>
        <time>2026-08-29T12:31:30.735000Z</time>
      </trkpt>
      <trkpt lat="39.8708794" lon="116.6681256">
        <ele>20.40161</ele>
        <time>2026-08-29T12:31:35.712000Z</time>
      </trkpt>
      <trkpt lat="39.8709843" lon="116.6681053">
        <ele>20.59551</ele>
        <time>2026-08-29T12:31:40.688000Z</time>
      </trkpt>
      <trkpt lat="39.8710788" lon="116.6680557">
        <ele>20.71722</ele>
        <time>2026-08-29T12:31:45.664000Z</time>
      </trkpt>
      <trkpt lat="39.8711663" lon="116.6679912">
        <ele>20.76204</ele>
        <time>2026-08-29T12:31:50.641000Z</time>
      </trkpt>
      <trkpt lat="39.8712542" lon="116.6679349">
        <ele>20.75294</ele>
        <time>2026-08-29T12:31:55.617000Z</time>
      </trkpt>
      <trkpt lat="39.8713515" lon="116.6679003">
        <ele>20.73113</ele>
        <time>2026-08-29T12:32:00.593000Z</time>
      </trkpt>
      <trkpt lat="39.8714534" lon="116.6678943">
        <ele>20.74339</ele>
        <time>2026-08-29T12:32:05.570000Z</time>
      </trkpt>
      <trkpt lat="39.8715597" lon="116.6679139">
        <ele>20.75076</ele>
        <time>2026-08-29T12:32:10.546000Z</time>
      </trkpt>
      <trkpt lat="39.871657" lon="116.6679603">
        <ele>20.70541</ele>
        <time>2026-08-29T12:32:15.522000Z</time>
      </trkpt>
      <trkpt lat="39.8717509" lon="116.6680277">
        <ele>20.64893</ele>
        <time>2026-08-29T12:32:20.499000Z</time>
      </trkpt>
      <trkpt lat="39.8718499" lon="116.668093">
        <ele>20.65449</ele>
        <time>2026-08-29T12:32:25.475000Z</time>
      </trkpt>
      <trkpt lat="39.8719544" lon="116.6681437">
        <ele>20.72783</ele>
        <time>2026-08-29T12:32:30.451000Z</time>
      </trkpt>
      <trkpt lat="39.8720588" lon="116.6681679">
        <ele>20.82351</ele>
        <time>2026-08-29T12:32:35.428000Z</time>
      </trkpt>
      <trkpt lat="39.8721628" lon="116.6681739">
        <ele>20.91506</ele>
        <time>2026-08-29T12:32:40.404000Z</time>
      </trkpt>
      <trkpt lat="39.8722668" lon="116.6681917">
        <ele>20.97508</ele>
        <time>2026-08-29T12:32:45.380000Z</time>
      </trkpt>
      <trkpt lat="39.8723659" lon="116.6682512">
        <ele>21.01427</ele>
        <time>2026-08-29T12:32:50.357000Z</time>
      </trkpt>
      <trkpt lat="39.8724519" lon="116.6683369">
        <ele>21.07498</ele>
        <time>2026-08-29T12:32:55.333000Z</time>
      </trkpt>
      <trkpt lat="39.8725251" lon="116.6684453">
        <ele>21.12627</ele>
        <time>2026-08-29T12:33:00.309000Z</time>
      </trkpt>
      <trkpt lat="39.8725811" lon="116.6685708">
        <ele>21.1707</ele>
        <time>2026-08-29T12:33:05.286000Z</time>
      </trkpt>
      <trkpt lat="39.8726176" lon="116.6687072">
        <ele>21.21129</ele>
        <time>2026-08-29T12:33:10.262000Z</time>
      </trkpt>
      <trkpt lat="39.8726289" lon="116.6688487">
        <ele>21.26304</ele>
        <time>2026-08-29T12:33:15.238000Z</time>
      </trkpt>
      <trkpt lat="39.8726166" lon="116.6689855">
        <ele>21.35656</ele>
        <time>2026-08-29T12:33:20.215000Z</time>
      </trkpt>
      <trkpt lat="39.872582" lon="116.6691053">
        <ele>21.47974</ele>
        <time>2026-08-29T12:33:25Z</time>
      </trkpt>
      <trkpt lat="39.8725372" lon="116.6692316">
        <ele>21.56502</ele>
        <time>2026-08-29T12:33:30Z</time>
      </trkpt>
      <trkpt lat="39.8725045" lon="116.669359">
        <ele>21.5872</ele>
        <time>2026-08-29T12:33:35Z</time>
      </trkpt>
      <trkpt lat="39.8724877" lon="116.6694882">
        <ele>21.56608</ele>
        <time>2026-08-29T12:33:40Z</time>
      </trkpt>
      <trkpt lat="39.8724921" lon="116.6696194">
        <ele>21.53472</ele>
        <time>2026-08-29T12:33:45Z</time>
      </trkpt>
      <trkpt lat="39.8725175" lon="116.6697462">
        <ele>21.4934</ele>
        <time>2026-08-29T12:33:50Z</time>
      </trkpt>
      <trkpt lat="39.8725632" lon="116.6698628">
        <ele>21.45075</ele>
        <time>2026-08-29T12:33:55Z</time>
      </trkpt>
      <trkpt lat="39.8726331" lon="116.6699556">
        <ele>21.41775</ele>
        <time>2026-08-29T12:34:00Z</time>
      </trkpt>
      <trkpt lat="39.8727139" lon="116.6700281">
        <ele>21.37719</ele>
        <time>2026-08-29T12:34:05Z</time>
      </trkpt>
      <trkpt lat="39.8728027" lon="116.6700764">
        <ele>21.29613</ele>
        <time>2026-08-29T12:34:09.978000Z</time>
      </trkpt>
      <trkpt lat="39.8728961" lon="116.6701054">
        <ele>21.18394</ele>
        <time>2026-08-29T12:34:14.954000Z</time>
      </trkpt>
      <trkpt lat="39.8729928" lon="116.6701176">
        <ele>21.07919</ele>
        <time>2026-08-29T12:34:19.931000Z</time>
      </trkpt>
      <trkpt lat="39.8730897" lon="116.6701163">
        <ele>21.01029</ele>
        <time>2026-08-29T12:34:24.907000Z</time>
      </trkpt>
      <trkpt lat="39.8731847" lon="116.6701049">
        <ele>20.97725</ele>
        <time>2026-08-29T12:34:29.883000Z</time>
      </trkpt>
      <trkpt lat="39.8732785" lon="116.6700847">
        <ele>20.94964</ele>
        <time>2026-08-29T12:34:34.860000Z</time>
      </trkpt>
      <trkpt lat="39.8733696" lon="116.670049">
        <ele>20.87072</ele>
        <time>2026-08-29T12:34:39.836000Z</time>
      </trkpt>
      <trkpt lat="39.8734537" lon="116.6699961">
        <ele>20.73654</ele>
        <time>2026-08-29T12:34:44.812000Z</time>
      </trkpt>
      <trkpt lat="39.8735386" lon="116.6699261">
        <ele>20.59358</ele>
        <time>2026-08-29T12:34:49.789000Z</time>
      </trkpt>
      <trkpt lat="39.8736267" lon="116.6698551">
        <ele>20.48603</ele>
        <time>2026-08-29T12:34:54.765000Z</time>
      </trkpt>
      <trkpt lat="39.8737209" lon="116.6697981">
        <ele>20.43636</ele>
        <time>2026-08-29T12:34:59.741000Z</time>
      </trkpt>
      <trkpt lat="39.8738228" lon="116.6697785">
        <ele>20.46438</ele>
        <time>2026-08-29T12:35:04.718000Z</time>
      </trkpt>
      <trkpt lat="39.8739227" lon="116.6697959">
        <ele>20.54878</ele>
        <time>2026-08-29T12:35:09.694000Z</time>
      </trkpt>
      <trkpt lat="39.8740235" lon="116.6698208">
        <ele>20.62456</ele>
        <time>2026-08-29T12:35:14.670000Z</time>
      </trkpt>
      <trkpt lat="39.8741286" lon="116.669825">
        <ele>20.6609</ele>
        <time>2026-08-29T12:35:19.647000Z</time>
      </trkpt>
      <trkpt lat="39.8742278" lon="116.6698068">
        <ele>20.65497</ele>
        <time>2026-08-29T12:35:24.623000Z</time>
      </trkpt>
      <trkpt lat="39.8743165" lon="116.6697486">
        <ele>20.64965</ele>
        <time>2026-08-29T12:35:29.599000Z</time>
      </trkpt>
      <trkpt lat="39.8743867" lon="116.6696588">
        <ele>20.67685</ele>
        <time>2026-08-29T12:35:34.576000Z</time>
      </trkpt>
      <trkpt lat="39.8744578" lon="116.6695625">
        <ele>20.7929</ele>
        <time>2026-08-29T12:35:39.552000Z</time>
      </trkpt>
      <trkpt lat="39.8745451" lon="116.6694836">
        <ele>21.01183</ele>
        <time>2026-08-29T12:35:44.529000Z</time>
      </trkpt>
      <trkpt lat="39.874648" lon="116.6694499">
        <ele>21.30451</ele>
        <time>2026-08-29T12:35:49.505000Z</time>
      </trkpt>
      <trkpt lat="39.8747506" lon="116.6694638">
        <ele>21.63057</ele>
        <time>2026-08-29T12:35:54.481000Z</time>
      </trkpt>
      <trkpt lat="39.8748521" lon="116.6695116">
        <ele>21.91419</ele>
        <time>2026-08-29T12:35:59.458000Z</time>
      </trkpt>
      <trkpt lat="39.8749451" lon="116.6695757">
        <ele>22.13505</ele>
        <time>2026-08-29T12:36:04.434000Z</time>
      </trkpt>
      <trkpt lat="39.8750389" lon="116.6696414">
        <ele>22.30608</ele>
        <time>2026-08-29T12:36:09.410000Z</time>
      </trkpt>
      <trkpt lat="39.8751331" lon="116.6696512">
        <ele>22.39114</ele>
        <time>2026-08-29T12:36:14.385000Z</time>
      </trkpt>
      <trkpt lat="39.8752099" lon="116.6695814">
        <ele>22.40283</ele>
        <time>2026-08-29T12:36:19.361000Z</time>
      </trkpt>
      <trkpt lat="39.8752853" lon="116.6695066">
        <ele>22.46505</ele>
        <time>2026-08-29T12:36:24.337000Z</time>
      </trkpt>
      <trkpt lat="39.8753773" lon="116.669479">
        <ele>22.56417</ele>
        <time>2026-08-29T12:36:29.313000Z</time>
      </trkpt>
      <trkpt lat="39.8754789" lon="116.6694585">
        <ele>22.58453</ele>
        <time>2026-08-29T12:36:34.289000Z</time>
      </trkpt>
      <trkpt lat="39.8755684" lon="116.6693951">
        <ele>22.52457</ele>
        <time>2026-08-29T12:36:39.265000Z</time>
      </trkpt>
      <trkpt lat="39.8756322" lon="116.6693033">
        <ele>22.48303</ele>
        <time>2026-08-29T12:36:44.242000Z</time>
      </trkpt>
      <trkpt lat="39.8756604" lon="116.6691738">
        <ele>22.58653</ele>
        <time>2026-08-29T12:36:50.213000Z</time>
      </trkpt>
      <trkpt lat="39.8756477" lon="116.6690484">
        <ele>22.75342</ele>
        <time>2026-08-29T12:36:55.996000Z</time>
      </trkpt>
      <trkpt lat="39.8756135" lon="116.6689399">
        <ele>22.83157</ele>
        <time>2026-08-29T12:37:00.996000Z</time>
      </trkpt>
      <trkpt lat="39.8755542" lon="116.6688425">
        <ele>22.84136</ele>
        <time>2026-08-29T12:37:05.996000Z</time>
      </trkpt>
      <trkpt lat="39.8754798" lon="116.6687523">
        <ele>22.76152</ele>
        <time>2026-08-29T12:37:10.996000Z</time>
      </trkpt>
      <trkpt lat="39.8754018" lon="116.6686598">
        <ele>22.61627</ele>
        <time>2026-08-29T12:37:15.996000Z</time>
      </trkpt>
      <trkpt lat="39.8753434" lon="116.6685469">
        <ele>22.48667</ele>
        <time>2026-08-29T12:37:20.996000Z</time>
      </trkpt>
      <trkpt lat="39.8753088" lon="116.6684181">
        <ele>22.34757</ele>
        <time>2026-08-29T12:37:25.996000Z</time>
      </trkpt>
      <trkpt lat="39.8752814" lon="116.6682899">
        <ele>22.17124</ele>
        <time>2026-08-29T12:37:31.020000Z</time>
      </trkpt>
      <trkpt lat="39.8752588" lon="116.6681624">
        <ele>21.99851</ele>
        <time>2026-08-29T12:37:35.996000Z</time>
      </trkpt>
      <trkpt lat="39.8752331" lon="116.6680371">
        <ele>21.78949</ele>
        <time>2026-08-29T12:37:40.972000Z</time>
      </trkpt>
      <trkpt lat="39.8751911" lon="116.6679148">
        <ele>21.59353</ele>
        <time>2026-08-29T12:37:45.949000Z</time>
      </trkpt>
      <trkpt lat="39.8751348" lon="116.6678003">
        <ele>21.46879</ele>
        <time>2026-08-29T12:37:50.925000Z</time>
      </trkpt>
      <trkpt lat="39.8750594" lon="116.6677012">
        <ele>21.37165</ele>
        <time>2026-08-29T12:37:55.902000Z</time>
      </trkpt>
      <trkpt lat="39.8749697" lon="116.6676268">
        <ele>21.29666</ele>
        <time>2026-08-29T12:38:00.878000Z</time>
      </trkpt>
      <trkpt lat="39.87487" lon="116.6675874">
        <ele>21.30532</ele>
        <time>2026-08-29T12:38:05.856000Z</time>
      </trkpt>
      <trkpt lat="39.8747716" lon="116.6675619">
        <ele>21.4104</ele>
        <time>2026-08-29T12:38:10.833000Z</time>
      </trkpt>
      <trkpt lat="39.8746715" lon="116.667541">
        <ele>21.54768</ele>
        <time>2026-08-29T12:38:15.808000Z</time>
      </trkpt>
      <trkpt lat="39.8745699" lon="116.6675286">
        <ele>21.64985</ele>
        <time>2026-08-29T12:38:20.783000Z</time>
      </trkpt>
      <trkpt lat="39.8744681" lon="116.6675396">
        <ele>21.66163</ele>
        <time>2026-08-29T12:38:25.758000Z</time>
      </trkpt>
      <trkpt lat="39.8743731" lon="116.6675763">
        <ele>21.57992</ele>
        <time>2026-08-29T12:38:30.734000Z</time>
      </trkpt>
      <trkpt lat="39.8742789" lon="116.6676185">
        <ele>21.44929</ele>
        <time>2026-08-29T12:38:35.710000Z</time>
      </trkpt>
      <trkpt lat="39.8741902" lon="116.6676773">
        <ele>21.31951</ele>
        <time>2026-08-29T12:38:40.686000Z</time>
      </trkpt>
      <trkpt lat="39.8741045" lon="116.6677426">
        <ele>21.18105</ele>
        <time>2026-08-29T12:38:45.662000Z</time>
      </trkpt>
      <trkpt lat="39.8740137" lon="116.6677924">
        <ele>21.06451</ele>
        <time>2026-08-29T12:38:50.638000Z</time>
      </trkpt>
      <trkpt lat="39.873918" lon="116.6678243">
        <ele>21.0184</ele>
        <time>2026-08-29T12:38:55.614000Z</time>
      </trkpt>
      <trkpt lat="39.8738174" lon="116.6678231">
        <ele>21.043</ele>
        <time>2026-08-29T12:39:00.591000Z</time>
      </trkpt>
      <trkpt lat="39.8737162" lon="116.6677937">
        <ele>21.13992</ele>
        <time>2026-08-29T12:39:05.567000Z</time>
      </trkpt>
      <trkpt lat="39.8736103" lon="116.6677664">
        <ele>21.29347</ele>
        <time>2026-08-29T12:39:10.544000Z</time>
      </trkpt>
      <trkpt lat="39.8735044" lon="116.6677412">
        <ele>21.45532</ele>
        <time>2026-08-29T12:39:15.520000Z</time>
      </trkpt>
      <trkpt lat="39.8733996" lon="116.6677358">
        <ele>21.60488</ele>
        <time>2026-08-29T12:39:20.496000Z</time>
      </trkpt>
      <trkpt lat="39.8732965" lon="116.6677617">
        <ele>21.71036</ele>
        <time>2026-08-29T12:39:25.473000Z</time>
      </trkpt>
      <trkpt lat="39.8732011" lon="116.667813">
        <ele>21.74185</ele>
        <time>2026-08-29T12:39:30.449000Z</time>
      </trkpt>
      <trkpt lat="39.8731065" lon="116.6678605">
        <ele>21.71211</ele>
        <time>2026-08-29T12:39:35.426000Z</time>
      </trkpt>
      <trkpt lat="39.8730015" lon="116.667885">
        <ele>21.62475</ele>
        <time>2026-08-29T12:39:40.402000Z</time>
      </trkpt>
      <trkpt lat="39.872896" lon="116.6678738">
        <ele>21.48209</ele>
        <time>2026-08-29T12:39:45.379000Z</time>
      </trkpt>
      <trkpt lat="39.8727936" lon="116.6678332">
        <ele>21.28272</ele>
        <time>2026-08-29T12:39:50.355000Z</time>
      </trkpt>
      <trkpt lat="39.8726922" lon="116.6677945">
        <ele>21.10762</ele>
        <time>2026-08-29T12:39:55.331000Z</time>
      </trkpt>
      <trkpt lat="39.8725876" lon="116.6677691">
        <ele>21.0548</ele>
        <time>2026-08-29T12:40:00.308000Z</time>
      </trkpt>
      <trkpt lat="39.8724824" lon="116.6677676">
        <ele>21.13028</ele>
        <time>2026-08-29T12:40:05.284000Z</time>
      </trkpt>
      <trkpt lat="39.8723791" lon="116.6677827">
        <ele>21.22919</ele>
        <time>2026-08-29T12:40:10.263000Z</time>
      </trkpt>
      <trkpt lat="39.8722765" lon="116.6677891">
        <ele>21.23858</ele>
        <time>2026-08-29T12:40:15.241000Z</time>
      </trkpt>
      <trkpt lat="39.8721704" lon="116.6677912">
        <ele>21.14565</ele>
        <time>2026-08-29T12:40:20.219000Z</time>
      </trkpt>
      <trkpt lat="39.8720633" lon="116.6677817">
        <ele>20.98882</ele>
        <time>2026-08-29T12:40:25.196000Z</time>
      </trkpt>
      <trkpt lat="39.8719622" lon="116.6677519">
        <ele>20.85928</ele>
        <time>2026-08-29T12:40:29.998000Z</time>
      </trkpt>
      <trkpt lat="39.871857" lon="116.6677031">
        <ele>20.77823</ele>
        <time>2026-08-29T12:40:34.999000Z</time>
      </trkpt>
      <trkpt lat="39.8717536" lon="116.6676488">
        <ele>20.69879</ele>
        <time>2026-08-29T12:40:39.999000Z</time>
      </trkpt>
      <trkpt lat="39.8716487" lon="116.6676025">
        <ele>20.59905</ele>
        <time>2026-08-29T12:40:44.999000Z</time>
      </trkpt>
      <trkpt lat="39.8715445" lon="116.6675631">
        <ele>20.48088</ele>
        <time>2026-08-29T12:40:50Z</time>
      </trkpt>
      <trkpt lat="39.8714392" lon="116.6675411">
        <ele>20.36144</ele>
        <time>2026-08-29T12:40:55Z</time>
      </trkpt>
      <trkpt lat="39.8713385" lon="116.6675417">
        <ele>20.2613</ele>
        <time>2026-08-29T12:41:00Z</time>
      </trkpt>
      <trkpt lat="39.8712387" lon="116.6675585">
        <ele>20.11948</ele>
        <time>2026-08-29T12:41:05.010000Z</time>
      </trkpt>
      <trkpt lat="39.8711435" lon="116.6675777">
        <ele>19.87778</ele>
        <time>2026-08-29T12:41:09.987000Z</time>
      </trkpt>
      <trkpt lat="39.8710583" lon="116.6676198">
        <ele>19.6468</ele>
        <time>2026-08-29T12:41:14.963000Z</time>
      </trkpt>
      <trkpt lat="39.8710118" lon="116.6677232">
        <ele>19.56089</ele>
        <time>2026-08-29T12:41:19.940000Z</time>
      </trkpt>
      <trkpt lat="39.8709684" lon="116.6678426">
        <ele>19.64365</ele>
        <time>2026-08-29T12:41:24.916000Z</time>
      </trkpt>
      <trkpt lat="39.87088" lon="116.6678991">
        <ele>19.80192</ele>
        <time>2026-08-29T12:41:29.893000Z</time>
      </trkpt>
      <trkpt lat="39.8707736" lon="116.6679009">
        <ele>19.95303</ele>
        <time>2026-08-29T12:41:34.869000Z</time>
      </trkpt>
      <trkpt lat="39.8706657" lon="116.6679009">
        <ele>20.05348</ele>
        <time>2026-08-29T12:41:39.846000Z</time>
      </trkpt>
      <trkpt lat="39.8705633" lon="116.6679026">
        <ele>20.11547</ele>
        <time>2026-08-29T12:41:44.822000Z</time>
      </trkpt>
      <trkpt lat="39.8704575" lon="116.6679016">
        <ele>20.20971</ele>
        <time>2026-08-29T12:41:49.798000Z</time>
      </trkpt>
      <trkpt lat="39.8703524" lon="116.6678732">
        <ele>20.36259</ele>
        <time>2026-08-29T12:41:54.775000Z</time>
      </trkpt>
      <trkpt lat="39.8702581" lon="116.6678197">
        <ele>20.54131</ele>
        <time>2026-08-29T12:41:59.751000Z</time>
      </trkpt>
      <trkpt lat="39.8701582" lon="116.6678174">
        <ele>20.66791</ele>
        <time>2026-08-29T12:42:04.728000Z</time>
      </trkpt>
      <trkpt lat="39.8700596" lon="116.6678239">
        <ele>20.69259</ele>
        <time>2026-08-29T12:42:09.704000Z</time>
      </trkpt>
      <trkpt lat="39.8699547" lon="116.6677979">
        <ele>20.65055</ele>
        <time>2026-08-29T12:42:14.681000Z</time>
      </trkpt>
      <trkpt lat="39.8698462" lon="116.6677681">
        <ele>20.62243</ele>
        <time>2026-08-29T12:42:19.657000Z</time>
      </trkpt>
      <trkpt lat="39.8697389" lon="116.6677549">
        <ele>20.65548</ele>
        <time>2026-08-29T12:42:24.634000Z</time>
      </trkpt>
      <trkpt lat="39.8696362" lon="116.6677765">
        <ele>20.70895</ele>
        <time>2026-08-29T12:42:29.610000Z</time>
      </trkpt>
      <trkpt lat="39.8695506" lon="116.6678475">
        <ele>20.76745</ele>
        <time>2026-08-29T12:42:34.586000Z</time>
      </trkpt>
      <trkpt lat="39.869498" lon="116.6679568">
        <ele>20.8764</ele>
        <time>2026-08-29T12:42:39.563000Z</time>
      </trkpt>
      <trkpt lat="39.8694828" lon="116.668082">
        <ele>21.02811</ele>
        <time>2026-08-29T12:42:44.539000Z</time>
      </trkpt>
      <trkpt lat="39.8694992" lon="116.6682067">
        <ele>21.14319</ele>
        <time>2026-08-29T12:42:49.516000Z</time>
      </trkpt>
      <trkpt lat="39.8695551" lon="116.6683139">
        <ele>21.14618</ele>
        <time>2026-08-29T12:42:54.492000Z</time>
      </trkpt>
      <trkpt lat="39.8696386" lon="116.6683726">
        <ele>21.03653</ele>
        <time>2026-08-29T12:42:59.469000Z</time>
      </trkpt>
      <trkpt lat="39.8697313" lon="116.6683641">
        <ele>20.89015</ele>
        <time>2026-08-29T12:43:04.445000Z</time>
      </trkpt>
      <trkpt lat="39.8698223" lon="116.6683207">
        <ele>20.77848</ele>
        <time>2026-08-29T12:43:09.422000Z</time>
      </trkpt>
      <trkpt lat="39.8699173" lon="116.6683083">
        <ele>20.69171</ele>
        <time>2026-08-29T12:43:14.398000Z</time>
      </trkpt>
      <trkpt lat="39.8700141" lon="116.6683367">
        <ele>20.57812</ele>
        <time>2026-08-29T12:43:19.375000Z</time>
      </trkpt>
      <trkpt lat="39.8701139" lon="116.6683381">
        <ele>20.42491</ele>
        <time>2026-08-29T12:43:24.351000Z</time>
      </trkpt>
      <trkpt lat="39.870214" lon="116.6683089">
        <ele>20.27238</ele>
        <time>2026-08-29T12:43:29.328000Z</time>
      </trkpt>
      <trkpt lat="39.8703094" lon="116.6682567">
        <ele>20.12848</ele>
        <time>2026-08-29T12:43:34.304000Z</time>
      </trkpt>
      <trkpt lat="39.8704003" lon="116.6681854">
        <ele>19.9943</ele>
        <time>2026-08-29T12:43:39.280000Z</time>
      </trkpt>
      <trkpt lat="39.8704949" lon="116.6681235">
        <ele>19.89643</ele>
        <time>2026-08-29T12:43:44.257000Z</time>
      </trkpt>
      <trkpt lat="39.870598" lon="116.6681022">
        <ele>19.90144</ele>
        <time>2026-08-29T12:43:49.233000Z</time>
      </trkpt>
      <trkpt lat="39.8707009" lon="116.6681182">
        <ele>20.07125</ele>
        <time>2026-08-29T12:43:54.210000Z</time>
      </trkpt>
      <trkpt lat="39.8708038" lon="116.6681443">
        <ele>20.321</ele>
        <time>2026-08-29T12:43:59.186000Z</time>
      </trkpt>
      <trkpt lat="39.87091" lon="116.66815">
        <ele>20.52859</ele>
        <time>2026-08-29T12:44:04.163000Z</time>
      </trkpt>
      <trkpt lat="39.8710153" lon="116.6681256">
        <ele>20.64871</ele>
        <time>2026-08-29T12:44:09.139000Z</time>
      </trkpt>
      <trkpt lat="39.8711172" lon="116.6680727">
        <ele>20.67316</ele>
        <time>2026-08-29T12:44:14.116000Z</time>
      </trkpt>
      <trkpt lat="39.8712132" lon="116.6680099">
        <ele>20.56183</ele>
        <time>2026-08-29T12:44:19.092000Z</time>
      </trkpt>
      <trkpt lat="39.8713116" lon="116.6679594">
        <ele>20.31046</ele>
        <time>2026-08-29T12:44:24.068000Z</time>
      </trkpt>
      <trkpt lat="39.8714136" lon="116.6679363">
        <ele>20.02097</ele>
        <time>2026-08-29T12:44:29.045000Z</time>
      </trkpt>
      <trkpt lat="39.8715139" lon="116.667957">
        <ele>19.92564</ele>
        <time>2026-08-29T12:44:34Z</time>
      </trkpt>
      <trkpt lat="39.8716136" lon="116.6679818">
        <ele>20.04989</ele>
        <time>2026-08-29T12:44:38.998000Z</time>
      </trkpt>
      <trkpt lat="39.87171" lon="116.668041">
        <ele>20.24111</ele>
        <time>2026-08-29T12:44:43.975000Z</time>
      </trkpt>
      <trkpt lat="39.8718062" lon="116.6681167">
        <ele>20.42643</ele>
        <time>2026-08-29T12:44:48.951000Z</time>
      </trkpt>
      <trkpt lat="39.8718917" lon="116.6681548">
        <ele>20.58936</ele>
        <time>2026-08-29T12:44:52.932000Z</time>
      </trkpt>
      <trkpt lat="39.8719992" lon="116.6681883">
        <ele>20.818</ele>
        <time>2026-08-29T12:44:57.909000Z</time>
      </trkpt>
      <trkpt lat="39.8721065" lon="116.6682095">
        <ele>21.01241</ele>
        <time>2026-08-29T12:45:02.885000Z</time>
      </trkpt>
      <trkpt lat="39.8722104" lon="116.6681932">
        <ele>21.06344</ele>
        <time>2026-08-29T12:45:07.862000Z</time>
      </trkpt>
      <trkpt lat="39.8723107" lon="116.6682026">
        <ele>21.02063</ele>
        <time>2026-08-29T12:45:12.838000Z</time>
      </trkpt>
      <trkpt lat="39.8724067" lon="116.6682706">
        <ele>20.99106</ele>
        <time>2026-08-29T12:45:17.815000Z</time>
      </trkpt>
      <trkpt lat="39.872476" lon="116.6683483">
        <ele>21.00429</ele>
        <time>2026-08-29T12:45:21.796000Z</time>
      </trkpt>
      <trkpt lat="39.8725365" lon="116.6684385">
        <ele>21.0314</ele>
        <time>2026-08-29T12:45:25.777000Z</time>
      </trkpt>
      <trkpt lat="39.8725949" lon="116.6685621">
        <ele>21.07252</ele>
        <time>2026-08-29T12:45:30.754000Z</time>
      </trkpt>
      <trkpt lat="39.8726293" lon="116.6686705">
        <ele>21.1053</ele>
        <time>2026-08-29T12:45:34.735000Z</time>
      </trkpt>
      <trkpt lat="39.8726453" lon="116.668809">
        <ele>21.14877</ele>
        <time>2026-08-29T12:45:39.711000Z</time>
      </trkpt>
      <trkpt lat="39.8726288" lon="116.6689528">
        <ele>21.2015</ele>
        <time>2026-08-29T12:45:44.688000Z</time>
      </trkpt>
      <trkpt lat="39.8726013" lon="116.6690644">
        <ele>21.24082</ele>
        <time>2026-08-29T12:45:48.669000Z</time>
      </trkpt>
      <trkpt lat="39.8725703" lon="116.6692017">
        <ele>21.28336</ele>
        <time>2026-08-29T12:45:53.646000Z</time>
      </trkpt>
      <trkpt lat="39.8725374" lon="116.6693325">
        <ele>21.33169</ele>
        <time>2026-08-29T12:45:58.622000Z</time>
      </trkpt>
      <trkpt lat="39.8725234" lon="116.6694654">
        <ele>21.38495</ele>
        <time>2026-08-29T12:46:03.599000Z</time>
      </trkpt>
      <trkpt lat="39.8725302" lon="116.6695967">
        <ele>21.40129</ele>
        <time>2026-08-29T12:46:08.575000Z</time>
      </trkpt>
      <trkpt lat="39.8725488" lon="116.6697224">
        <ele>21.35601</ele>
        <time>2026-08-29T12:46:13.552000Z</time>
      </trkpt>
      <trkpt lat="39.8725836" lon="116.6698434">
        <ele>21.28566</ele>
        <time>2026-08-29T12:46:18.528000Z</time>
      </trkpt>
      <trkpt lat="39.872647" lon="116.6699415">
        <ele>21.22545</ele>
        <time>2026-08-29T12:46:23.505000Z</time>
      </trkpt>
      <trkpt lat="39.8727295" lon="116.6700112">
        <ele>21.15562</ele>
        <time>2026-08-29T12:46:28.481000Z</time>
      </trkpt>
      <trkpt lat="39.8728178" lon="116.6700552">
        <ele>21.04328</ele>
        <time>2026-08-29T12:46:33.457000Z</time>
      </trkpt>
      <trkpt lat="39.8729091" lon="116.6700854">
        <ele>20.90095</ele>
        <time>2026-08-29T12:46:38.434000Z</time>
      </trkpt>
      <trkpt lat="39.8730075" lon="116.6701013">
        <ele>20.76317</ele>
        <time>2026-08-29T12:46:43.410000Z</time>
      </trkpt>
      <trkpt lat="39.8731105" lon="116.6700929">
        <ele>20.63368</ele>
        <time>2026-08-29T12:46:48.387000Z</time>
      </trkpt>
      <trkpt lat="39.8732161" lon="116.6700779">
        <ele>20.51494</ele>
        <time>2026-08-29T12:46:53.363000Z</time>
      </trkpt>
      <trkpt lat="39.8733213" lon="116.670053">
        <ele>20.41819</ele>
        <time>2026-08-29T12:46:58.340000Z</time>
      </trkpt>
      <trkpt lat="39.8734196" lon="116.6700018">
        <ele>20.36164</ele>
        <time>2026-08-29T12:47:03.316000Z</time>
      </trkpt>
      <trkpt lat="39.87351" lon="116.6699252">
        <ele>20.34536</ele>
        <time>2026-08-29T12:47:08.293000Z</time>
      </trkpt>
      <trkpt lat="39.8735965" lon="116.6698358">
        <ele>20.36931</ele>
        <time>2026-08-29T12:47:13.269000Z</time>
      </trkpt>
      <trkpt lat="39.8736914" lon="116.6697652">
        <ele>20.40431</ele>
        <time>2026-08-29T12:47:18.246000Z</time>
      </trkpt>
      <trkpt lat="39.8738011" lon="116.6697449">
        <ele>20.42598</ele>
        <time>2026-08-29T12:47:23.222000Z</time>
      </trkpt>
      <trkpt lat="39.8738912" lon="116.6697599">
        <ele>20.43439</ele>
        <time>2026-08-29T12:47:27.204000Z</time>
      </trkpt>
      <trkpt lat="39.8740001" lon="116.6697951">
        <ele>20.439</ele>
        <time>2026-08-29T12:47:32Z</time>
      </trkpt>
      <trkpt lat="39.8741111" lon="116.6698126">
        <ele>20.43126</ele>
        <time>2026-08-29T12:47:37Z</time>
      </trkpt>
      <trkpt lat="39.8742166" lon="116.6698017">
        <ele>20.41385</ele>
        <time>2026-08-29T12:47:42Z</time>
      </trkpt>
      <trkpt lat="39.8743093" lon="116.6697441">
        <ele>20.42442</ele>
        <time>2026-08-29T12:47:47Z</time>
      </trkpt>
      <trkpt lat="39.8743872" lon="116.669655">
        <ele>20.44632</ele>
        <time>2026-08-29T12:47:52Z</time>
      </trkpt>
      <trkpt lat="39.8744606" lon="116.6695616">
        <ele>20.46521</ele>
        <time>2026-08-29T12:47:57Z</time>
      </trkpt>
      <trkpt lat="39.8745511" lon="116.6694924">
        <ele>20.52989</ele>
        <time>2026-08-29T12:48:02Z</time>
      </trkpt>
      <trkpt lat="39.8746565" lon="116.6694711">
        <ele>20.67506</ele>
        <time>2026-08-29T12:48:07Z</time>
      </trkpt>
      <trkpt lat="39.8747638" lon="116.6694909">
        <ele>21.06016</ele>
        <time>2026-08-29T12:48:11.992000Z</time>
      </trkpt>
      <trkpt lat="39.8748672" lon="116.6695293">
        <ele>21.58099</ele>
        <time>2026-08-29T12:48:16.968000Z</time>
      </trkpt>
      <trkpt lat="39.8749654" lon="116.669584">
        <ele>22.00557</ele>
        <time>2026-08-29T12:48:21.945000Z</time>
      </trkpt>
      <trkpt lat="39.8750624" lon="116.6696411">
        <ele>22.26977</ele>
        <time>2026-08-29T12:48:26.921000Z</time>
      </trkpt>
      <trkpt lat="39.8751621" lon="116.669635">
        <ele>22.39053</ele>
        <time>2026-08-29T12:48:31.898000Z</time>
      </trkpt>
      <trkpt lat="39.8752443" lon="116.6695654">
        <ele>22.45033</ele>
        <time>2026-08-29T12:48:36.874000Z</time>
      </trkpt>
      <trkpt lat="39.8753245" lon="116.6695024">
        <ele>22.54041</ele>
        <time>2026-08-29T12:48:41.851000Z</time>
      </trkpt>
      <trkpt lat="39.8754219" lon="116.6694904">
        <ele>22.67673</ele>
        <time>2026-08-29T12:48:46.827000Z</time>
      </trkpt>
      <trkpt lat="39.8755215" lon="116.6694707">
        <ele>22.80491</ele>
        <time>2026-08-29T12:48:51.804000Z</time>
      </trkpt>
      <trkpt lat="39.8756083" lon="116.6693925">
        <ele>22.88635</ele>
        <time>2026-08-29T12:48:56.780000Z</time>
      </trkpt>
      <trkpt lat="39.8756596" lon="116.6692846">
        <ele>22.90118</ele>
        <time>2026-08-29T12:49:01.757000Z</time>
      </trkpt>
      <trkpt lat="39.8756728" lon="116.6691647">
        <ele>22.85167</ele>
        <time>2026-08-29T12:49:06.733000Z</time>
      </trkpt>
      <trkpt lat="39.875653" lon="116.6690281">
        <ele>22.70119</ele>
        <time>2026-08-29T12:49:12.705000Z</time>
      </trkpt>
      <trkpt lat="39.8756099" lon="116.668924">
        <ele>22.54554</ele>
        <time>2026-08-29T12:49:17.682000Z</time>
      </trkpt>
      <trkpt lat="39.8755504" lon="116.6688323">
        <ele>22.45931</ele>
        <time>2026-08-29T12:49:22.658000Z</time>
      </trkpt>
      <trkpt lat="39.8754698" lon="116.6687604">
        <ele>22.37922</ele>
        <time>2026-08-29T12:49:27.635000Z</time>
      </trkpt>
      <trkpt lat="39.8753917" lon="116.6686778">
        <ele>22.25503</ele>
        <time>2026-08-29T12:49:32.611000Z</time>
      </trkpt>
      <trkpt lat="39.8753423" lon="116.6685536">
        <ele>22.0938</ele>
        <time>2026-08-29T12:49:37.588000Z</time>
      </trkpt>
      <trkpt lat="39.8753167" lon="116.6684397">
        <ele>21.95081</ele>
        <time>2026-08-29T12:49:41.569000Z</time>
      </trkpt>
      <trkpt lat="39.8752886" lon="116.6683011">
        <ele>21.86031</ele>
        <time>2026-08-29T12:49:46.545000Z</time>
      </trkpt>
      <trkpt lat="39.8752594" lon="116.668162">
        <ele>21.88028</ele>
        <time>2026-08-29T12:49:51.522000Z</time>
      </trkpt>
      <trkpt lat="39.875216" lon="116.6680326">
        <ele>21.94945</ele>
        <time>2026-08-29T12:49:56.498000Z</time>
      </trkpt>
      <trkpt lat="39.8751634" lon="116.6679121">
        <ele>22.01566</ele>
        <time>2026-08-29T12:50:01.475000Z</time>
      </trkpt>
      <trkpt lat="39.875102" lon="116.6678031">
        <ele>22.02042</ele>
        <time>2026-08-29T12:50:06.451000Z</time>
      </trkpt>
      <trkpt lat="39.8750279" lon="116.6677129">
        <ele>21.91705</ele>
        <time>2026-08-29T12:50:11.428000Z</time>
      </trkpt>
      <trkpt lat="39.8749388" lon="116.6676495">
        <ele>21.75162</ele>
        <time>2026-08-29T12:50:16.404000Z</time>
      </trkpt>
      <trkpt lat="39.8748412" lon="116.667614">
        <ele>21.62436</ele>
        <time>2026-08-29T12:50:21.381000Z</time>
      </trkpt>
      <trkpt lat="39.8747373" lon="116.6675786">
        <ele>21.57999</ele>
        <time>2026-08-29T12:50:26.357000Z</time>
      </trkpt>
      <trkpt lat="39.874632" lon="116.6675513">
        <ele>21.5858</ele>
        <time>2026-08-29T12:50:31.334000Z</time>
      </trkpt>
      <trkpt lat="39.874527" lon="116.6675466">
        <ele>21.60357</ele>
        <time>2026-08-29T12:50:36.310000Z</time>
      </trkpt>
      <trkpt lat="39.8744231" lon="116.667563">
        <ele>21.5926</ele>
        <time>2026-08-29T12:50:41.287000Z</time>
      </trkpt>
      <trkpt lat="39.8743186" lon="116.6675961">
        <ele>21.5203</ele>
        <time>2026-08-29T12:50:46.263000Z</time>
      </trkpt>
      <trkpt lat="39.8742294" lon="116.6676571">
        <ele>21.36919</ele>
        <time>2026-08-29T12:50:51.240000Z</time>
      </trkpt>
      <trkpt lat="39.8741421" lon="116.6677244">
        <ele>21.15506</ele>
        <time>2026-08-29T12:50:56.216000Z</time>
      </trkpt>
      <trkpt lat="39.8740483" lon="116.6677786">
        <ele>20.98141</ele>
        <time>2026-08-29T12:51:01Z</time>
      </trkpt>
      <trkpt lat="39.873945" lon="116.6678254">
        <ele>20.89344</ele>
        <time>2026-08-29T12:51:06.169000Z</time>
      </trkpt>
      <trkpt lat="39.8738364" lon="116.6678256">
        <ele>20.84201</ele>
        <time>2026-08-29T12:51:11.146000Z</time>
      </trkpt>
      <trkpt lat="39.8737293" lon="116.6678131">
        <ele>20.79103</ele>
        <time>2026-08-29T12:51:16Z</time>
      </trkpt>
      <trkpt lat="39.8736194" lon="116.6677939">
        <ele>20.75601</ele>
        <time>2026-08-29T12:51:21Z</time>
      </trkpt>
      <trkpt lat="39.8735094" lon="116.6677784">
        <ele>20.71712</ele>
        <time>2026-08-29T12:51:26Z</time>
      </trkpt>
      <trkpt lat="39.8733993" lon="116.6677773">
        <ele>20.63889</ele>
        <time>2026-08-29T12:51:31Z</time>
      </trkpt>
      <trkpt lat="39.8732913" lon="116.6678076">
        <ele>20.54372</ele>
        <time>2026-08-29T12:51:36Z</time>
      </trkpt>
      <trkpt lat="39.8731863" lon="116.6678592">
        <ele>20.59657</ele>
        <time>2026-08-29T12:51:41Z</time>
      </trkpt>
      <trkpt lat="39.873079" lon="116.6678898">
        <ele>20.86772</ele>
        <time>2026-08-29T12:51:45.981000Z</time>
      </trkpt>
      <trkpt lat="39.8729674" lon="116.6678852">
        <ele>21.06362</ele>
        <time>2026-08-29T12:51:50.958000Z</time>
      </trkpt>
      <trkpt lat="39.8728794" lon="116.6678593">
        <ele>21.1491</ele>
        <time>2026-08-29T12:51:54.939000Z</time>
      </trkpt>
      <trkpt lat="39.8727733" lon="116.6678145">
        <ele>21.23079</ele>
        <time>2026-08-29T12:51:59.916000Z</time>
      </trkpt>
      <trkpt lat="39.8726685" lon="116.6677697">
        <ele>21.33775</ele>
        <time>2026-08-29T12:52:04.892000Z</time>
      </trkpt>
      <trkpt lat="39.8725597" lon="116.6677478">
        <ele>21.50028</ele>
        <time>2026-08-29T12:52:09.869000Z</time>
      </trkpt>
      <trkpt lat="39.8724509" lon="116.6677541">
        <ele>21.63648</ele>
        <time>2026-08-29T12:52:14.845000Z</time>
      </trkpt>
      <trkpt lat="39.872346" lon="116.667775">
        <ele>21.60652</ele>
        <time>2026-08-29T12:52:19.822000Z</time>
      </trkpt>
      <trkpt lat="39.872241" lon="116.6677944">
        <ele>21.39212</ele>
        <time>2026-08-29T12:52:24.798000Z</time>
      </trkpt>
      <trkpt lat="39.8721316" lon="116.6677915">
        <ele>21.11592</ele>
        <time>2026-08-29T12:52:29.775000Z</time>
      </trkpt>
      <trkpt lat="39.8720427" lon="116.667768">
        <ele>20.91637</ele>
        <time>2026-08-29T12:52:33.756000Z</time>
      </trkpt>
      <trkpt lat="39.8719359" lon="116.6677248">
        <ele>20.67053</ele>
        <time>2026-08-29T12:52:38.733000Z</time>
      </trkpt>
      <trkpt lat="39.8718321" lon="116.6676718">
        <ele>20.4199</ele>
        <time>2026-08-29T12:52:43.709000Z</time>
      </trkpt>
      <trkpt lat="39.8717292" lon="116.6676202">
        <ele>20.17479</ele>
        <time>2026-08-29T12:52:48.686000Z</time>
      </trkpt>
      <trkpt lat="39.8716232" lon="116.6675782">
        <ele>19.97267</ele>
        <time>2026-08-29T12:52:53.662000Z</time>
      </trkpt>
      <trkpt lat="39.8715151" lon="116.667547">
        <ele>19.83643</ele>
        <time>2026-08-29T12:52:58.639000Z</time>
      </trkpt>
      <trkpt lat="39.8714237" lon="116.6675352">
        <ele>19.74</ele>
        <time>2026-08-29T12:53:02.620000Z</time>
      </trkpt>
      <trkpt lat="39.8713319" lon="116.6675366">
        <ele>19.64906</ele>
        <time>2026-08-29T12:53:06.601000Z</time>
      </trkpt>
      <trkpt lat="39.8712227" lon="116.6675509">
        <ele>19.58704</ele>
        <time>2026-08-29T12:53:11.578000Z</time>
      </trkpt>
      <trkpt lat="39.8711214" lon="116.6675725">
        <ele>19.61019</ele>
        <time>2026-08-29T12:53:16.554000Z</time>
      </trkpt>
      <trkpt lat="39.8710437" lon="116.6676364">
        <ele>19.71689</ele>
        <time>2026-08-29T12:53:21.531000Z</time>
      </trkpt>
      <trkpt lat="39.8709987" lon="116.6677605">
        <ele>19.88039</ele>
        <time>2026-08-29T12:53:26.507000Z</time>
      </trkpt>
      <trkpt lat="39.8709254" lon="116.6678576">
        <ele>20.06243</ele>
        <time>2026-08-29T12:53:31.484000Z</time>
      </trkpt>
      <trkpt lat="39.8708299" lon="116.6678713">
        <ele>20.16167</ele>
        <time>2026-08-29T12:53:35.465000Z</time>
      </trkpt>
      <trkpt lat="39.8707305" lon="116.6678692">
        <ele>20.23677</ele>
        <time>2026-08-29T12:53:39.446000Z</time>
      </trkpt>
      <trkpt lat="39.8706321" lon="116.6678707">
        <ele>20.34048</ele>
        <time>2026-08-29T12:53:43.427000Z</time>
      </trkpt>
      <trkpt lat="39.870539" lon="116.6678707">
        <ele>20.46951</ele>
        <time>2026-08-29T12:53:47.409000Z</time>
      </trkpt>
      <trkpt lat="39.8704454" lon="116.6678688">
        <ele>20.5852</ele>
        <time>2026-08-29T12:53:51.390000Z</time>
      </trkpt>
      <trkpt lat="39.8703526" lon="116.6678448">
        <ele>20.67145</ele>
        <time>2026-08-29T12:53:55.371000Z</time>
      </trkpt>
      <trkpt lat="39.8702699" lon="116.6677959">
        <ele>20.71898</ele>
        <time>2026-08-29T12:53:59.352000Z</time>
      </trkpt>
      <trkpt lat="39.8701592" lon="116.6677808">
        <ele>20.72612</ele>
        <time>2026-08-29T12:54:04.329000Z</time>
      </trkpt>
      <trkpt lat="39.870047" lon="116.6677952">
        <ele>20.64052</ele>
        <time>2026-08-29T12:54:09.305000Z</time>
      </trkpt>
      <trkpt lat="39.869955" lon="116.6677957">
        <ele>20.52796</ele>
        <time>2026-08-29T12:54:13.286000Z</time>
      </trkpt>
      <trkpt lat="39.8698641" lon="116.6677817">
        <ele>20.44196</ele>
        <time>2026-08-29T12:54:17.268000Z</time>
      </trkpt>
      <trkpt lat="39.8697743" lon="116.6677622">
        <ele>20.40701</ele>
        <time>2026-08-29T12:54:21.249000Z</time>
      </trkpt>
      <trkpt lat="39.8696633" lon="116.6677601">
        <ele>20.39498</ele>
        <time>2026-08-29T12:54:26.225000Z</time>
      </trkpt>
      <trkpt lat="39.8695622" lon="116.6678082">
        <ele>20.37078</ele>
        <time>2026-08-29T12:54:31.202000Z</time>
      </trkpt>
      <trkpt lat="39.8694955" lon="116.6679014">
        <ele>20.32412</ele>
        <time>2026-08-29T12:54:36Z</time>
      </trkpt>
      <trkpt lat="39.8694717" lon="116.6680307">
        <ele>20.25796</ele>
        <time>2026-08-29T12:54:41Z</time>
      </trkpt>
      <trkpt lat="39.8694895" lon="116.6681667">
        <ele>20.17556</ele>
        <time>2026-08-29T12:54:46Z</time>
      </trkpt>
      <trkpt lat="39.8695336" lon="116.668269">
        <ele>20.1008</ele>
        <time>2026-08-29T12:54:50Z</time>
      </trkpt>
      <trkpt lat="39.8696195" lon="116.668352">
        <ele>20.00139</ele>
        <time>2026-08-29T12:54:55Z</time>
      </trkpt>
      <trkpt lat="39.8697228" lon="116.6683562">
        <ele>19.91977</ele>
        <time>2026-08-29T12:55:00Z</time>
      </trkpt>
      <trkpt lat="39.8698242" lon="116.6683115">
        <ele>19.88505</ele>
        <time>2026-08-29T12:55:05Z</time>
      </trkpt>
      <trkpt lat="39.8699122" lon="116.6682854">
        <ele>19.8814</ele>
        <time>2026-08-29T12:55:09Z</time>
      </trkpt>
      <trkpt lat="39.870003" lon="116.6682841">
        <ele>19.91461</ele>
        <time>2026-08-29T12:55:13Z</time>
      </trkpt>
      <trkpt lat="39.870098" lon="116.6682797">
        <ele>19.98831</ele>
        <time>2026-08-29T12:55:16.986000Z</time>
      </trkpt>
      <trkpt lat="39.8701899" lon="116.6682508">
        <ele>20.01395</ele>
        <time>2026-08-29T12:55:20.967000Z</time>
      </trkpt>
      <trkpt lat="39.8702761" lon="116.6682046">
        <ele>19.98337</ele>
        <time>2026-08-29T12:55:24.948000Z</time>
      </trkpt>
      <trkpt lat="39.8703571" lon="116.6681475">
        <ele>19.96548</ele>
        <time>2026-08-29T12:55:28.930000Z</time>
      </trkpt>
      <trkpt lat="39.8704346" lon="116.6680874">
        <ele>20.02604</ele>
        <time>2026-08-29T12:55:32.911000Z</time>
      </trkpt>
      <trkpt lat="39.8705465" lon="116.668069">
        <ele>20.23091</ele>
        <time>2026-08-29T12:55:37.887000Z</time>
      </trkpt>
      <trkpt lat="39.8706439" lon="116.668082">
        <ele>20.44597</ele>
        <time>2026-08-29T12:55:41.869000Z</time>
      </trkpt>
      <trkpt lat="39.8707383" lon="116.6681037">
        <ele>20.65814</ele>
        <time>2026-08-29T12:55:45.850000Z</time>
      </trkpt>
      <trkpt lat="39.8708364" lon="116.6681191">
        <ele>20.83659</ele>
        <time>2026-08-29T12:55:49.831000Z</time>
      </trkpt>
      <trkpt lat="39.870937" lon="116.668108">
        <ele>20.98423</ele>
        <time>2026-08-29T12:55:53.812000Z</time>
      </trkpt>
      <trkpt lat="39.8710315" lon="116.6680775">
        <ele>21.11626</ele>
        <time>2026-08-29T12:55:57.793000Z</time>
      </trkpt>
      <trkpt lat="39.8711236" lon="116.6680284">
        <ele>21.20554</ele>
        <time>2026-08-29T12:56:01.775000Z</time>
      </trkpt>
      <trkpt lat="39.8712148" lon="116.6679771">
        <ele>21.20027</ele>
        <time>2026-08-29T12:56:05.756000Z</time>
      </trkpt>
      <trkpt lat="39.8713087" lon="116.6679453">
        <ele>21.08684</ele>
        <time>2026-08-29T12:56:09.737000Z</time>
      </trkpt>
      <trkpt lat="39.8714104" lon="116.6679317">
        <ele>20.95641</ele>
        <time>2026-08-29T12:56:13.718000Z</time>
      </trkpt>
      <trkpt lat="39.8715109" lon="116.6679461">
        <ele>20.88523</ele>
        <time>2026-08-29T12:56:17.699000Z</time>
      </trkpt>
      <trkpt lat="39.8716116" lon="116.6679829">
        <ele>20.83465</ele>
        <time>2026-08-29T12:56:21.681000Z</time>
      </trkpt>
      <trkpt lat="39.8717039" lon="116.6680383">
        <ele>20.78745</ele>
        <time>2026-08-29T12:56:25.662000Z</time>
      </trkpt>
      <trkpt lat="39.8717933" lon="116.6680992">
        <ele>20.76804</ele>
        <time>2026-08-29T12:56:29.643000Z</time>
      </trkpt>
      <trkpt lat="39.8718885" lon="116.6681512">
        <ele>20.7723</ele>
        <time>2026-08-29T12:56:33.624000Z</time>
      </trkpt>
      <trkpt lat="39.8719886" lon="116.6681852">
        <ele>20.80639</ele>
        <time>2026-08-29T12:56:37.605000Z</time>
      </trkpt>
      <trkpt lat="39.8720885" lon="116.6682013">
        <ele>20.84933</ele>
        <time>2026-08-29T12:56:41.587000Z</time>
      </trkpt>
      <trkpt lat="39.8721885" lon="116.6682082">
        <ele>20.87979</ele>
        <time>2026-08-29T12:56:45.568000Z</time>
      </trkpt>
      <trkpt lat="39.8722884" lon="116.6682218">
        <ele>20.89435</ele>
        <time>2026-08-29T12:56:49.549000Z</time>
      </trkpt>
      <trkpt lat="39.8723816" lon="116.6682618">
        <ele>20.91571</ele>
        <time>2026-08-29T12:56:53.530000Z</time>
      </trkpt>
      <trkpt lat="39.872462" lon="116.6683437">
        <ele>20.95972</ele>
        <time>2026-08-29T12:56:57.511000Z</time>
      </trkpt>
      <trkpt lat="39.8725275" lon="116.6684468">
        <ele>21.01623</ele>
        <time>2026-08-29T12:57:01.493000Z</time>
      </trkpt>
      <trkpt lat="39.8725756" lon="116.6685608">
        <ele>21.08102</ele>
        <time>2026-08-29T12:57:05.474000Z</time>
      </trkpt>
      <trkpt lat="39.8726028" lon="116.6686838">
        <ele>21.14543</ele>
        <time>2026-08-29T12:57:09.455000Z</time>
      </trkpt>
      <trkpt lat="39.8726106" lon="116.6688089">
        <ele>21.18768</ele>
        <time>2026-08-29T12:57:13.436000Z</time>
      </trkpt>
      <trkpt lat="39.8726066" lon="116.6689384">
        <ele>21.20887</ele>
        <time>2026-08-29T12:57:17.417000Z</time>
      </trkpt>
      <trkpt lat="39.8725847" lon="116.6690621">
        <ele>21.2346</ele>
        <time>2026-08-29T12:57:21.399000Z</time>
      </trkpt>
      <trkpt lat="39.872555" lon="116.6691802">
        <ele>21.25635</ele>
        <time>2026-08-29T12:57:25.380000Z</time>
      </trkpt>
      <trkpt lat="39.8725277" lon="116.6692925">
        <ele>21.27195</ele>
        <time>2026-08-29T12:57:29.361000Z</time>
      </trkpt>
      <trkpt lat="39.8725097" lon="116.6694104">
        <ele>21.29069</ele>
        <time>2026-08-29T12:57:33.342000Z</time>
      </trkpt>
      <trkpt lat="39.8725074" lon="116.6695342">
        <ele>21.30947</ele>
        <time>2026-08-29T12:57:37.323000Z</time>
      </trkpt>
      <trkpt lat="39.8725181" lon="116.6696583">
        <ele>21.31731</ele>
        <time>2026-08-29T12:57:41.305000Z</time>
      </trkpt>
      <trkpt lat="39.8725436" lon="116.6697779">
        <ele>21.29712</ele>
        <time>2026-08-29T12:57:45.286000Z</time>
      </trkpt>
      <trkpt lat="39.8725887" lon="116.6698878">
        <ele>21.24363</ele>
        <time>2026-08-29T12:57:49.267000Z</time>
      </trkpt>
      <trkpt lat="39.8726524" lon="116.6699751">
        <ele>21.15772</ele>
        <time>2026-08-29T12:57:53.248000Z</time>
      </trkpt>
      <trkpt lat="39.8727342" lon="116.6700395">
        <ele>21.02166</ele>
        <time>2026-08-29T12:57:57.229000Z</time>
      </trkpt>
      <trkpt lat="39.8728244" lon="116.6700861">
        <ele>20.82351</ele>
        <time>2026-08-29T12:58:01.210000Z</time>
      </trkpt>
      <trkpt lat="39.8729185" lon="116.6701158">
        <ele>20.58034</ele>
        <time>2026-08-29T12:58:05.192000Z</time>
      </trkpt>
      <trkpt lat="39.8730089" lon="116.6701309">
        <ele>20.39045</ele>
        <time>2026-08-29T12:58:09Z</time>
      </trkpt>
      <trkpt lat="39.8731027" lon="116.6701304">
        <ele>20.31942</ele>
        <time>2026-08-29T12:58:13Z</time>
      </trkpt>
      <trkpt lat="39.8732015" lon="116.6701107">
        <ele>20.31274</ele>
        <time>2026-08-29T12:58:17.135000Z</time>
      </trkpt>
      <trkpt lat="39.8732917" lon="116.6700772">
        <ele>20.31527</ele>
        <time>2026-08-29T12:58:21Z</time>
      </trkpt>
      <trkpt lat="39.8733811" lon="116.6700298">
        <ele>20.32396</ele>
        <time>2026-08-29T12:58:25Z</time>
      </trkpt>
      <trkpt lat="39.8734655" lon="116.6699647">
        <ele>20.33434</ele>
        <time>2026-08-29T12:58:29Z</time>
      </trkpt>
      <trkpt lat="39.8735443" lon="116.6698903">
        <ele>20.33175</ele>
        <time>2026-08-29T12:58:33Z</time>
      </trkpt>
      <trkpt lat="39.8736259" lon="116.6698186">
        <ele>20.35468</ele>
        <time>2026-08-29T12:58:37Z</time>
      </trkpt>
      <trkpt lat="39.8737159" lon="116.6697739">
        <ele>20.47588</ele>
        <time>2026-08-29T12:58:41.022000Z</time>
      </trkpt>
      <trkpt lat="39.8738127" lon="116.6697638">
        <ele>20.65456</ele>
        <time>2026-08-29T12:58:45.004000Z</time>
      </trkpt>
      <trkpt lat="39.8739084" lon="116.6697746">
        <ele>20.82233</ele>
        <time>2026-08-29T12:58:48.985000Z</time>
      </trkpt>
      <trkpt lat="39.874005" lon="116.6697878">
        <ele>20.93989</ele>
        <time>2026-08-29T12:58:52.966000Z</time>
      </trkpt>
      <trkpt lat="39.8741154" lon="116.6697667">
        <ele>20.99477</ele>
        <time>2026-08-29T12:58:57.942000Z</time>
      </trkpt>
      <trkpt lat="39.874214" lon="116.6697325">
        <ele>21.00407</ele>
        <time>2026-08-29T12:59:01.924000Z</time>
      </trkpt>
      <trkpt lat="39.874304" lon="116.6696686">
        <ele>21.02273</ele>
        <time>2026-08-29T12:59:05.905000Z</time>
      </trkpt>
      <trkpt lat="39.8743834" lon="116.6695811">
        <ele>21.06807</ele>
        <time>2026-08-29T12:59:09.886000Z</time>
      </trkpt>
      <trkpt lat="39.8744601" lon="116.6694908">
        <ele>21.14019</ele>
        <time>2026-08-29T12:59:13.867000Z</time>
      </trkpt>
      <trkpt lat="39.8745454" lon="116.6694249">
        <ele>21.23103</ele>
        <time>2026-08-29T12:59:17.848000Z</time>
      </trkpt>
      <trkpt lat="39.8746387" lon="116.6693911">
        <ele>21.33146</ele>
        <time>2026-08-29T12:59:21.829000Z</time>
      </trkpt>
      <trkpt lat="39.874746" lon="116.6694191">
        <ele>21.47734</ele>
        <time>2026-08-29T12:59:26.806000Z</time>
      </trkpt>
      <trkpt lat="39.8748372" lon="116.669495">
        <ele>21.61109</ele>
        <time>2026-08-29T12:59:30.787000Z</time>
      </trkpt>
      <trkpt lat="39.874923" lon="116.6695558">
        <ele>21.73628</ele>
        <time>2026-08-29T12:59:34.768000Z</time>
      </trkpt>
      <trkpt lat="39.8750105" lon="116.6696137">
        <ele>21.83516</ele>
        <time>2026-08-29T12:59:38.749000Z</time>
      </trkpt>
      <trkpt lat="39.8750991" lon="116.669642">
        <ele>21.89585</ele>
        <time>2026-08-29T12:59:42.731000Z</time>
      </trkpt>
    </trkseg>
  </trk>
</gpx>