<?xml version="1.0" encoding="UTF-8"?>
<gpx xmlns="http://www.topografix.com/GPX/1/1" xmlns:gpxtpx="http://www.garmin.com/xmlschemas/TrackPointExtension/v1" xmlns:xsi="http://www.w3.org/2001/XMLSchema-instance" xsi:schemaLocation="http://www.topografix.com/GPX/1/1 http://www.topografix.com/GPX/1/1/gpx.xsd" version="1.1" creator="gpx.py -- https://github.com/tkrajina/gpxpy">
  <trk>
    <name>gpx from codoon</name>
    <type>Run</type>
    <trkseg>
      <trkpt lat="39.8731456" lon="116.6656167">
        <ele>22.52507</ele>
        <time>2026-09-01T22:34:13.035000Z</time>
      </trkpt>
      <trkpt lat="39.8732278" lon="116.6657129">
        <ele>22.65186</ele>
        <time>2026-09-01T22:34:18.457000Z</time>
      </trkpt>
      <trkpt lat="39.8732988" lon="116.6657971">
        <ele>22.62695</ele>
        <time>2026-09-01T22:34:22.438000Z</time>
      </trkpt>
      <trkpt lat="39.873399" lon="116.6658495">
        <ele>22.50543</ele>
        <time>2026-09-01T22:34:27.415000Z</time>
      </trkpt>
      <trkpt lat="39.8735117" lon="116.6658606">
        <ele>22.41648</ele>
        <time>2026-09-01T22:34:32.392000Z</time>
      </trkpt>
      <trkpt lat="39.8736054" lon="116.6658289">
        <ele>22.43149</ele>
        <time>2026-09-01T22:34:36.373000Z</time>
      </trkpt>
      <trkpt lat="39.8736979" lon="116.6657782">
        <ele>22.54727</ele>
        <time>2026-09-01T22:34:40.354000Z</time>
      </trkpt>
      <trkpt lat="39.8737898" lon="116.6657185">
        <ele>22.74627</ele>
        <time>2026-09-01T22:34:44.336000Z</time>
      </trkpt>
      <trkpt lat="39.8738829" lon="116.6656546">
        <ele>22.98056</ele>
        <time>2026-09-01T22:34:48.317000Z</time>
      </trkpt>
      <trkpt lat="39.8739743" lon="116.6655897">
        <ele>23.19808</ele>
        <time>2026-09-01T22:34:52.299000Z</time>
      </trkpt>
      <trkpt lat="39.8740705" lon="116.6655327">
        <ele>23.39673</ele>
        <time>2026-09-01T22:34:56.280000Z</time>
      </trkpt>
      <trkpt lat="39.87417" lon="116.6654958">
        <ele>23.56244</ele>
        <time>2026-09-01T22:35:00.261000Z</time>
      </trkpt>
      <trkpt lat="39.8742727" lon="116.6654639">
        <ele>23.64866</ele>
        <time>2026-09-01T22:35:04.242000Z</time>
      </trkpt>
      <trkpt lat="39.8743775" lon="116.665427">
        <ele>23.63895</ele>
        <time>2026-09-01T22:35:08.224000Z</time>
      </trkpt>
      <trkpt lat="39.8744711" lon="116.6654566">
        <ele>23.59361</ele>
        <time>2026-09-01T22:35:12.205000Z</time>
      </trkpt>
      <trkpt lat="39.8745303" lon="116.6655643">
        <ele>23.57552</ele>
        <time>2026-09-01T22:35:16Z</time>
      </trkpt>
      <trkpt lat="39.8745846" lon="116.6656938">
        <ele>23.56622</ele>
        <time>2026-09-01T22:35:20Z</time>
      </trkpt>
      <trkpt lat="39.874639" lon="116.6658255">
        <ele>23.55945</ele>
        <time>2026-09-01T22:35:24Z</time>
      </trkpt>
      <trkpt lat="39.8746931" lon="116.6659524">
        <ele>23.56908</ele>
        <time>2026-09-01T22:35:28Z</time>
      </trkpt>
      <trkpt lat="39.8747438" lon="116.6660751">
        <ele>23.6046</ele>
        <time>2026-09-01T22:35:32Z</time>
      </trkpt>
      <trkpt lat="39.8747973" lon="116.6661938">
        <ele>23.649</ele>
        <time>2026-09-01T22:35:36Z</time>
      </trkpt>
      <trkpt lat="39.8748582" lon="116.6663093">
        <ele>23.74169</ele>
        <time>2026-09-01T22:35:40Z</time>
      </trkpt>
      <trkpt lat="39.8749238" lon="116.666421">
        <ele>23.90652</ele>
        <time>2026-09-01T22:35:44Z</time>
      </trkpt>
      <trkpt lat="39.8749911" lon="116.6665322">
        <ele>24.03592</ele>
        <time>2026-09-01T22:35:48Z</time>
      </trkpt>
      <trkpt lat="39.8750576" lon="116.6666441">
        <ele>23.95988</ele>
        <time>2026-09-01T22:35:52Z</time>
      </trkpt>
      <trkpt lat="39.8751255" lon="116.6667557">
        <ele>23.60614</ele>
        <time>2026-09-01T22:35:55.999000Z</time>
      </trkpt>
      <trkpt lat="39.8751952" lon="116.6668673">
        <ele>23.20333</ele>
        <time>2026-09-01T22:35:59.980000Z</time>
      </trkpt>
      <trkpt lat="39.8752667" lon="116.6669758">
        <ele>22.93329</ele>
        <time>2026-09-01T22:36:03.961000Z</time>
      </trkpt>
      <trkpt lat="39.87534" lon="116.6670775">
        <ele>22.79378</ele>
        <time>2026-09-01T22:36:07.943000Z</time>
      </trkpt>
      <trkpt lat="39.8754185" lon="116.6671692">
        <ele>22.75006</ele>
        <time>2026-09-01T22:36:11.924000Z</time>
      </trkpt>
      <trkpt lat="39.8755019" lon="116.6672535">
        <ele>22.77792</ele>
        <time>2026-09-01T22:36:15.905000Z</time>
      </trkpt>
      <trkpt lat="39.8755767" lon="116.667346">
        <ele>22.8508</ele>
        <time>2026-09-01T22:36:19.886000Z</time>
      </trkpt>
      <trkpt lat="39.8756491" lon="116.6674523">
        <ele>22.95516</ele>
        <time>2026-09-01T22:36:23.867000Z</time>
      </trkpt>
      <trkpt lat="39.8757106" lon="116.6675673">
        <ele>23.09158</ele>
        <time>2026-09-01T22:36:27.849000Z</time>
      </trkpt>
      <trkpt lat="39.8757666" lon="116.6676897">
        <ele>23.25868</ele>
        <time>2026-09-01T22:36:31.830000Z</time>
      </trkpt>
      <trkpt lat="39.875787" lon="116.6678062">
        <ele>23.45227</ele>
        <time>2026-09-01T22:36:35.811000Z</time>
      </trkpt>
      <trkpt lat="39.8757105" lon="116.6679039">
        <ele>23.66359</ele>
        <time>2026-09-01T22:36:40.787000Z</time>
      </trkpt>
      <trkpt lat="39.8756676" lon="116.6680069">
        <ele>23.73656</ele>
        <time>2026-09-01T22:36:44.769000Z</time>
      </trkpt>
      <trkpt lat="39.875592" lon="116.6681102">
        <ele>23.70435</ele>
        <time>2026-09-01T22:36:49.745000Z</time>
      </trkpt>
      <trkpt lat="39.875494" lon="116.6680963">
        <ele>23.61249</ele>
        <time>2026-09-01T22:36:53.726000Z</time>
      </trkpt>
      <trkpt lat="39.8753953" lon="116.6680479">
        <ele>23.51755</ele>
        <time>2026-09-01T22:36:57.707000Z</time>
      </trkpt>
      <trkpt lat="39.8752999" lon="116.6679871">
        <ele>23.43156</ele>
        <time>2026-09-01T22:37:01.689000Z</time>
      </trkpt>
      <trkpt lat="39.8752176" lon="116.6679029">
        <ele>23.31363</ele>
        <time>2026-09-01T22:37:05.670000Z</time>
      </trkpt>
      <trkpt lat="39.8751416" lon="116.6677995">
        <ele>23.16016</ele>
        <time>2026-09-01T22:37:09.651000Z</time>
      </trkpt>
      <trkpt lat="39.8750625" lon="116.6676982">
        <ele>22.98928</ele>
        <time>2026-09-01T22:37:13.632000Z</time>
      </trkpt>
      <trkpt lat="39.8749698" lon="116.6676178">
        <ele>22.81548</ele>
        <time>2026-09-01T22:37:17.613000Z</time>
      </trkpt>
      <trkpt lat="39.8748657" lon="116.6675619">
        <ele>22.65607</ele>
        <time>2026-09-01T22:37:21.594000Z</time>
      </trkpt>
      <trkpt lat="39.8747617" lon="116.6675205">
        <ele>22.52273</ele>
        <time>2026-09-01T22:37:25.575000Z</time>
      </trkpt>
      <trkpt lat="39.8746569" lon="116.6674886">
        <ele>22.40622</ele>
        <time>2026-09-01T22:37:29.556000Z</time>
      </trkpt>
      <trkpt lat="39.8745516" lon="116.6674756">
        <ele>22.30123</ele>
        <time>2026-09-01T22:37:33.538000Z</time>
      </trkpt>
      <trkpt lat="39.8744457" lon="116.6674865">
        <ele>22.19635</ele>
        <time>2026-09-01T22:37:37.519000Z</time>
      </trkpt>
      <trkpt lat="39.8743413" lon="116.6675223">
        <ele>22.06433</ele>
        <time>2026-09-01T22:37:41.500000Z</time>
      </trkpt>
      <trkpt lat="39.8742417" lon="116.6675763">
        <ele>21.89554</ele>
        <time>2026-09-01T22:37:45.481000Z</time>
      </trkpt>
      <trkpt lat="39.8741489" lon="116.6676409">
        <ele>21.73545</ele>
        <time>2026-09-01T22:37:49.462000Z</time>
      </trkpt>
      <trkpt lat="39.8740522" lon="116.6677052">
        <ele>21.62828</ele>
        <time>2026-09-01T22:37:53.443000Z</time>
      </trkpt>
      <trkpt lat="39.8739508" lon="116.667747">
        <ele>21.59283</ele>
        <time>2026-09-01T22:37:57.424000Z</time>
      </trkpt>
      <trkpt lat="39.8738459" lon="116.6677686">
        <ele>21.6179</ele>
        <time>2026-09-01T22:38:01.405000Z</time>
      </trkpt>
      <trkpt lat="39.8737412" lon="116.6677698">
        <ele>21.67674</ele>
        <time>2026-09-01T22:38:05.386000Z</time>
      </trkpt>
      <trkpt lat="39.8736389" lon="116.6677523">
        <ele>21.74506</ele>
        <time>2026-09-01T22:38:09.367000Z</time>
      </trkpt>
      <trkpt lat="39.8735391" lon="116.6677368">
        <ele>21.82301</ele>
        <time>2026-09-01T22:38:13.349000Z</time>
      </trkpt>
      <trkpt lat="39.8734425" lon="116.6677282">
        <ele>21.90693</ele>
        <time>2026-09-01T22:38:17.330000Z</time>
      </trkpt>
      <trkpt lat="39.873343" lon="116.667741">
        <ele>21.97298</ele>
        <time>2026-09-01T22:38:21.311000Z</time>
      </trkpt>
      <trkpt lat="39.8732433" lon="116.6677903">
        <ele>22.01372</ele>
        <time>2026-09-01T22:38:25.292000Z</time>
      </trkpt>
      <trkpt lat="39.8731447" lon="116.6678461">
        <ele>22.03373</ele>
        <time>2026-09-01T22:38:29.273000Z</time>
      </trkpt>
      <trkpt lat="39.8730379" lon="116.6678638">
        <ele>22.01887</ele>
        <time>2026-09-01T22:38:33.254000Z</time>
      </trkpt>
      <trkpt lat="39.8729291" lon="116.6678427">
        <ele>21.99108</ele>
        <time>2026-09-01T22:38:37.235000Z</time>
      </trkpt>
      <trkpt lat="39.872824" lon="116.6678008">
        <ele>21.99823</ele>
        <time>2026-09-01T22:38:41.216000Z</time>
      </trkpt>
      <trkpt lat="39.8727165" lon="116.6677607">
        <ele>22.05998</ele>
        <time>2026-09-01T22:38:45.197000Z</time>
      </trkpt>
      <trkpt lat="39.8726095" lon="116.6677331">
        <ele>22.13552</ele>
        <time>2026-09-01T22:38:49.001000Z</time>
      </trkpt>
      <trkpt lat="39.8724938" lon="116.6677185">
        <ele>22.16406</ele>
        <time>2026-09-01T22:38:53.001000Z</time>
      </trkpt>
      <trkpt lat="39.8723765" lon="116.667721">
        <ele>22.11838</ele>
        <time>2026-09-01T22:38:57.001000Z</time>
      </trkpt>
      <trkpt lat="39.8722602" lon="116.6677313">
        <ele>22.01655</ele>
        <time>2026-09-01T22:39:01.001000Z</time>
      </trkpt>
      <trkpt lat="39.8721433" lon="116.6677286">
        <ele>21.88742</ele>
        <time>2026-09-01T22:39:05.001000Z</time>
      </trkpt>
      <trkpt lat="39.8720285" lon="116.6677019">
        <ele>21.75509</ele>
        <time>2026-09-01T22:39:09.001000Z</time>
      </trkpt>
      <trkpt lat="39.8719158" lon="116.6676566">
        <ele>21.62291</ele>
        <time>2026-09-01T22:39:13.001000Z</time>
      </trkpt>
      <trkpt lat="39.8718314" lon="116.6676156">
        <ele>21.52913</ele>
        <time>2026-09-01T22:39:16.050000Z</time>
      </trkpt>
      <trkpt lat="39.8717189" lon="116.6675613">
        <ele>21.40222</ele>
        <time>2026-09-01T22:39:20.031000Z</time>
      </trkpt>
      <trkpt lat="39.8716312" lon="116.6675259">
        <ele>21.31331</ele>
        <time>2026-09-01T22:39:23.017000Z</time>
      </trkpt>
      <trkpt lat="39.8715421" lon="116.6675041">
        <ele>21.21389</ele>
        <time>2026-09-01T22:39:26.001000Z</time>
      </trkpt>
      <trkpt lat="39.8714257" lon="116.6674953">
        <ele>21.00124</ele>
        <time>2026-09-01T22:39:29.984000Z</time>
      </trkpt>
      <trkpt lat="39.8713148" lon="116.6675073">
        <ele>20.789</ele>
        <time>2026-09-01T22:39:33.965000Z</time>
      </trkpt>
      <trkpt lat="39.8712049" lon="116.6675293">
        <ele>20.61918</ele>
        <time>2026-09-01T22:39:37.946000Z</time>
      </trkpt>
      <trkpt lat="39.8711012" lon="116.6675695">
        <ele>20.51332</ele>
        <time>2026-09-01T22:39:41.927000Z</time>
      </trkpt>
      <trkpt lat="39.8710313" lon="116.6676711">
        <ele>20.51243</ele>
        <time>2026-09-01T22:39:45.908000Z</time>
      </trkpt>
      <trkpt lat="39.8709775" lon="116.667795">
        <ele>20.64417</ele>
        <time>2026-09-01T22:39:49.889000Z</time>
      </trkpt>
      <trkpt lat="39.8708895" lon="116.6678652">
        <ele>20.83352</ele>
        <time>2026-09-01T22:39:53.870000Z</time>
      </trkpt>
      <trkpt lat="39.8707811" lon="116.6678864">
        <ele>21.01686</ele>
        <time>2026-09-01T22:39:57.851000Z</time>
      </trkpt>
      <trkpt lat="39.8706764" lon="116.667906">
        <ele>21.17067</ele>
        <time>2026-09-01T22:40:01.832000Z</time>
      </trkpt>
      <trkpt lat="39.8705683" lon="116.6679078">
        <ele>21.29258</ele>
        <time>2026-09-01T22:40:05.813000Z</time>
      </trkpt>
      <trkpt lat="39.870463" lon="116.6678826">
        <ele>21.38614</ele>
        <time>2026-09-01T22:40:09.794000Z</time>
      </trkpt>
      <trkpt lat="39.8703611" lon="116.6678299">
        <ele>21.43229</ele>
        <time>2026-09-01T22:40:13.775000Z</time>
      </trkpt>
      <trkpt lat="39.8702631" lon="116.6677753">
        <ele>21.4067</ele>
        <time>2026-09-01T22:40:17.756000Z</time>
      </trkpt>
      <trkpt lat="39.8701534" lon="116.6677714">
        <ele>21.32244</ele>
        <time>2026-09-01T22:40:21.737000Z</time>
      </trkpt>
      <trkpt lat="39.870044" lon="116.6677744">
        <ele>21.21299</ele>
        <time>2026-09-01T22:40:25.718000Z</time>
      </trkpt>
      <trkpt lat="39.8699327" lon="116.6677611">
        <ele>21.10034</ele>
        <time>2026-09-01T22:40:29.699000Z</time>
      </trkpt>
      <trkpt lat="39.869823" lon="116.6677347">
        <ele>20.99427</ele>
        <time>2026-09-01T22:40:33.680000Z</time>
      </trkpt>
      <trkpt lat="39.8697181" lon="116.667718">
        <ele>20.88286</ele>
        <time>2026-09-01T22:40:37.661000Z</time>
      </trkpt>
      <trkpt lat="39.8696186" lon="116.6677336">
        <ele>20.78139</ele>
        <time>2026-09-01T22:40:41.642000Z</time>
      </trkpt>
      <trkpt lat="39.869533" lon="116.6678043">
        <ele>20.74089</ele>
        <time>2026-09-01T22:40:45.623000Z</time>
      </trkpt>
      <trkpt lat="39.8694865" lon="116.667918">
        <ele>20.80391</ele>
        <time>2026-09-01T22:40:49.604000Z</time>
      </trkpt>
      <trkpt lat="39.8694782" lon="116.6680489">
        <ele>20.98978</ele>
        <time>2026-09-01T22:40:53.585000Z</time>
      </trkpt>
      <trkpt lat="39.8694885" lon="116.6681816">
        <ele>21.29774</ele>
        <time>2026-09-01T22:40:57.566000Z</time>
      </trkpt>
      <trkpt lat="39.869464" lon="116.6683111">
        <ele>21.78477</ele>
        <time>2026-09-01T22:41:02.542000Z</time>
      </trkpt>
      <trkpt lat="39.8693699" lon="116.6683537">
        <ele>22.13122</ele>
        <time>2026-09-01T22:41:07.518000Z</time>
      </trkpt>
      <trkpt lat="39.8693515" lon="116.6683677">
        <ele>22.15744</ele>
        <time>2026-09-01T22:41:10.504000Z</time>
      </trkpt>
      <trkpt lat="39.8694531" lon="116.6683327">
        <ele>21.9053</ele>
        <time>2026-09-01T22:41:16.476000Z</time>
      </trkpt>
      <trkpt lat="39.8695597" lon="116.6683515">
        <ele>21.63643</ele>
        <time>2026-09-01T22:41:21.452000Z</time>
      </trkpt>
      <trkpt lat="39.8696587" lon="116.668395">
        <ele>21.43587</ele>
        <time>2026-09-01T22:41:25.433000Z</time>
      </trkpt>
      <trkpt lat="39.8697688" lon="116.668384">
        <ele>21.22942</ele>
        <time>2026-09-01T22:41:29.414000Z</time>
      </trkpt>
      <trkpt lat="39.8698722" lon="116.668351">
        <ele>21.03669</ele>
        <time>2026-09-01T22:41:33.395000Z</time>
      </trkpt>
      <trkpt lat="39.8699801" lon="116.6683367">
        <ele>20.92103</ele>
        <time>2026-09-01T22:41:37.376000Z</time>
      </trkpt>
      <trkpt lat="39.8700852" lon="116.6683268">
        <ele>20.85517</ele>
        <time>2026-09-01T22:41:41.357000Z</time>
      </trkpt>
      <trkpt lat="39.870185" lon="116.6682993">
        <ele>20.77559</ele>
        <time>2026-09-01T22:41:45.337000Z</time>
      </trkpt>
      <trkpt lat="39.8702796" lon="116.668253">
        <ele>20.69037</ele>
        <time>2026-09-01T22:41:49.318000Z</time>
      </trkpt>
      <trkpt lat="39.8703706" lon="116.6681891">
        <ele>20.61479</ele>
        <time>2026-09-01T22:41:53.299000Z</time>
      </trkpt>
      <trkpt lat="39.8704679" lon="116.6681312">
        <ele>20.545</ele>
        <time>2026-09-01T22:41:57.280000Z</time>
      </trkpt>
      <trkpt lat="39.8705752" lon="116.6681141">
        <ele>20.51167</ele>
        <time>2026-09-01T22:42:01.261000Z</time>
      </trkpt>
      <trkpt lat="39.8706806" lon="116.6681389">
        <ele>20.51751</ele>
        <time>2026-09-01T22:42:05.242000Z</time>
      </trkpt>
      <trkpt lat="39.8707853" lon="116.6681753">
        <ele>20.53724</ele>
        <time>2026-09-01T22:42:09.223000Z</time>
      </trkpt>
      <trkpt lat="39.8708931" lon="116.668186">
        <ele>20.53066</ele>
        <time>2026-09-01T22:42:13.204000Z</time>
      </trkpt>
      <trkpt lat="39.8709895" lon="116.6681561">
        <ele>20.49605</ele>
        <time>2026-09-01T22:42:17Z</time>
      </trkpt>
      <trkpt lat="39.8710852" lon="116.6681023">
        <ele>20.47981</ele>
        <time>2026-09-01T22:42:21Z</time>
      </trkpt>
      <trkpt lat="39.8711755" lon="116.668033">
        <ele>20.55227</ele>
        <time>2026-09-01T22:42:25Z</time>
      </trkpt>
      <trkpt lat="39.8712672" lon="116.6679767">
        <ele>20.67447</ele>
        <time>2026-09-01T22:42:29Z</time>
      </trkpt>
      <trkpt lat="39.8713685" lon="116.6679441">
        <ele>20.81975</ele>
        <time>2026-09-01T22:42:33.109000Z</time>
      </trkpt>
      <trkpt lat="39.8714695" lon="116.6679387">
        <ele>20.97456</ele>
        <time>2026-09-01T22:42:37.089000Z</time>
      </trkpt>
      <trkpt lat="39.8715699" lon="116.6679644">
        <ele>21.13197</ele>
        <time>2026-09-01T22:42:41Z</time>
      </trkpt>
      <trkpt lat="39.8716689" lon="116.6680149">
        <ele>21.2632</ele>
        <time>2026-09-01T22:42:44.999000Z</time>
      </trkpt>
      <trkpt lat="39.8717606" lon="116.6680757">
        <ele>21.34198</ele>
        <time>2026-09-01T22:42:49Z</time>
      </trkpt>
      <trkpt lat="39.8718539" lon="116.6681351">
        <ele>21.36751</ele>
        <time>2026-09-01T22:42:53Z</time>
      </trkpt>
      <trkpt lat="39.8719511" lon="116.6681721">
        <ele>21.31128</ele>
        <time>2026-09-01T22:42:56.994000Z</time>
      </trkpt>
      <trkpt lat="39.8720506" lon="116.6681876">
        <ele>21.19831</ele>
        <time>2026-09-01T22:43:00.975000Z</time>
      </trkpt>
      <trkpt lat="39.8721528" lon="116.6681855">
        <ele>21.10189</ele>
        <time>2026-09-01T22:43:04.956000Z</time>
      </trkpt>
      <trkpt lat="39.8722587" lon="116.6681921">
        <ele>21.03468</ele>
        <time>2026-09-01T22:43:08.936000Z</time>
      </trkpt>
      <trkpt lat="39.8723594" lon="116.6682384">
        <ele>20.98958</ele>
        <time>2026-09-01T22:43:12.917000Z</time>
      </trkpt>
      <trkpt lat="39.872451" lon="116.6683166">
        <ele>20.95013</ele>
        <time>2026-09-01T22:43:16.898000Z</time>
      </trkpt>
      <trkpt lat="39.8725267" lon="116.668416">
        <ele>20.91638</ele>
        <time>2026-09-01T22:43:20.879000Z</time>
      </trkpt>
      <trkpt lat="39.8725762" lon="116.6685308">
        <ele>20.91373</ele>
        <time>2026-09-01T22:43:24.860000Z</time>
      </trkpt>
      <trkpt lat="39.8725973" lon="116.6686552">
        <ele>20.9594</ele>
        <time>2026-09-01T22:43:28.841000Z</time>
      </trkpt>
      <trkpt lat="39.8726099" lon="116.6687888">
        <ele>21.04754</ele>
        <time>2026-09-01T22:43:32.822000Z</time>
      </trkpt>
      <trkpt lat="39.8726078" lon="116.668921">
        <ele>21.15611</ele>
        <time>2026-09-01T22:43:36.803000Z</time>
      </trkpt>
      <trkpt lat="39.8725891" lon="116.6690485">
        <ele>21.26739</ele>
        <time>2026-09-01T22:43:40.783000Z</time>
      </trkpt>
      <trkpt lat="39.8725623" lon="116.6691713">
        <ele>21.37469</ele>
        <time>2026-09-01T22:43:44.764000Z</time>
      </trkpt>
      <trkpt lat="39.872534" lon="116.6692934">
        <ele>21.48774</ele>
        <time>2026-09-01T22:43:48.745000Z</time>
      </trkpt>
      <trkpt lat="39.872515" lon="116.669416">
        <ele>21.6094</ele>
        <time>2026-09-01T22:43:52.726000Z</time>
      </trkpt>
      <trkpt lat="39.8725083" lon="116.6695407">
        <ele>21.72702</ele>
        <time>2026-09-01T22:43:56.707000Z</time>
      </trkpt>
      <trkpt lat="39.8725139" lon="116.6696661">
        <ele>21.80333</ele>
        <time>2026-09-01T22:44:00.688000Z</time>
      </trkpt>
      <trkpt lat="39.8725399" lon="116.6697894">
        <ele>21.80786</ele>
        <time>2026-09-01T22:44:04.669000Z</time>
      </trkpt>
      <trkpt lat="39.872582" lon="116.6699026">
        <ele>21.75304</ele>
        <time>2026-09-01T22:44:08.649000Z</time>
      </trkpt>
      <trkpt lat="39.8726418" lon="116.6699956">
        <ele>21.69561</ele>
        <time>2026-09-01T22:44:12.630000Z</time>
      </trkpt>
      <trkpt lat="39.8727172" lon="116.6700662">
        <ele>21.66188</ele>
        <time>2026-09-01T22:44:16.611000Z</time>
      </trkpt>
      <trkpt lat="39.8728058" lon="116.6701186">
        <ele>21.6142</ele>
        <time>2026-09-01T22:44:20.592000Z</time>
      </trkpt>
      <trkpt lat="39.8729021" lon="116.6701572">
        <ele>21.53327</ele>
        <time>2026-09-01T22:44:24.573000Z</time>
      </trkpt>
      <trkpt lat="39.8729992" lon="116.6701775">
        <ele>21.4417</ele>
        <time>2026-09-01T22:44:28.554000Z</time>
      </trkpt>
      <trkpt lat="39.8730958" lon="116.6701812">
        <ele>21.35179</ele>
        <time>2026-09-01T22:44:32.534000Z</time>
      </trkpt>
      <trkpt lat="39.8731903" lon="116.6701566">
        <ele>21.26705</ele>
        <time>2026-09-01T22:44:36.515000Z</time>
      </trkpt>
      <trkpt lat="39.8732798" lon="116.6701142">
        <ele>21.18806</ele>
        <time>2026-09-01T22:44:40.496000Z</time>
      </trkpt>
      <trkpt lat="39.8733695" lon="116.6700724">
        <ele>21.10974</ele>
        <time>2026-09-01T22:44:44.477000Z</time>
      </trkpt>
      <trkpt lat="39.8734539" lon="116.6700044">
        <ele>21.03376</ele>
        <time>2026-09-01T22:44:48.458000Z</time>
      </trkpt>
      <trkpt lat="39.8735336" lon="116.6699211">
        <ele>20.9821</ele>
        <time>2026-09-01T22:44:52.439000Z</time>
      </trkpt>
      <trkpt lat="39.8736118" lon="116.6698355">
        <ele>20.96683</ele>
        <time>2026-09-01T22:44:56.419000Z</time>
      </trkpt>
      <trkpt lat="39.8737011" lon="116.6697783">
        <ele>20.9717</ele>
        <time>2026-09-01T22:45:00.400000Z</time>
      </trkpt>
      <trkpt lat="39.8737981" lon="116.6697603">
        <ele>20.96856</ele>
        <time>2026-09-01T22:45:04.381000Z</time>
      </trkpt>
      <trkpt lat="39.873896" lon="116.6697719">
        <ele>20.94184</ele>
        <time>2026-09-01T22:45:08.362000Z</time>
      </trkpt>
      <trkpt lat="39.8739998" lon="116.6697951">
        <ele>20.90282</ele>
        <time>2026-09-01T22:45:12.343000Z</time>
      </trkpt>
      <trkpt lat="39.8741054" lon="116.6698084">
        <ele>20.88368</ele>
        <time>2026-09-01T22:45:16.323000Z</time>
      </trkpt>
      <trkpt lat="39.8742077" lon="116.669794">
        <ele>20.88479</ele>
        <time>2026-09-01T22:45:20.304000Z</time>
      </trkpt>
      <trkpt lat="39.8742983" lon="116.6697417">
        <ele>20.93063</ele>
        <time>2026-09-01T22:45:24.285000Z</time>
      </trkpt>
      <trkpt lat="39.8743735" lon="116.6696533">
        <ele>21.04608</ele>
        <time>2026-09-01T22:45:28.266000Z</time>
      </trkpt>
      <trkpt lat="39.8744492" lon="116.669558">
        <ele>21.22575</ele>
        <time>2026-09-01T22:45:32.247000Z</time>
      </trkpt>
      <trkpt lat="39.8745364" lon="116.6694845">
        <ele>21.42724</ele>
        <time>2026-09-01T22:45:36.227000Z</time>
      </trkpt>
      <trkpt lat="39.8746392" lon="116.6694639">
        <ele>21.62014</ele>
        <time>2026-09-01T22:45:40.218000Z</time>
      </trkpt>
      <trkpt lat="39.8747453" lon="116.6694856">
        <ele>21.79818</ele>
        <time>2026-09-01T22:45:44.199000Z</time>
      </trkpt>
      <trkpt lat="39.8748451" lon="116.6695281">
        <ele>21.96134</ele>
        <time>2026-09-01T22:45:48Z</time>
      </trkpt>
      <trkpt lat="39.8749408" lon="116.6695913">
        <ele>22.18177</ele>
        <time>2026-09-01T22:45:52Z</time>
      </trkpt>
      <trkpt lat="39.8750321" lon="116.6696535">
        <ele>22.46059</ele>
        <time>2026-09-01T22:45:56Z</time>
      </trkpt>
      <trkpt lat="39.8751279" lon="116.6696691">
        <ele>22.74221</ele>
        <time>2026-09-01T22:46:00Z</time>
      </trkpt>
      <trkpt lat="39.8752112" lon="116.6696211">
        <ele>22.95847</ele>
        <time>2026-09-01T22:46:04Z</time>
      </trkpt>
      <trkpt lat="39.8752887" lon="116.669546">
        <ele>23.09697</ele>
        <time>2026-09-01T22:46:08Z</time>
      </trkpt>
      <trkpt lat="39.8753794" lon="116.6695021">
        <ele>23.15895</ele>
        <time>2026-09-01T22:46:12Z</time>
      </trkpt>
      <trkpt lat="39.8754766" lon="116.669472">
        <ele>23.16556</ele>
        <time>2026-09-01T22:46:16.045000Z</time>
      </trkpt>
      <trkpt lat="39.8755676" lon="116.669426">
        <ele>23.17515</ele>
        <time>2026-09-01T22:46:20.026000Z</time>
      </trkpt>
      <trkpt lat="39.8756395" lon="116.6693481">
        <ele>23.21229</ele>
        <time>2026-09-01T22:46:24.007000Z</time>
      </trkpt>
      <trkpt lat="39.8756761" lon="116.6692352">
        <ele>23.23229</ele>
        <time>2026-09-01T22:46:27.988000Z</time>
      </trkpt>
      <trkpt lat="39.8756791" lon="116.6691168">
        <ele>23.20583</ele>
        <time>2026-09-01T22:46:31.968000Z</time>
      </trkpt>
      <trkpt lat="39.8756624" lon="116.668997">
        <ele>23.13969</ele>
        <time>2026-09-01T22:46:35.949000Z</time>
      </trkpt>
      <trkpt lat="39.8756251" lon="116.6688782">
        <ele>23.06018</ele>
        <time>2026-09-01T22:46:39.930000Z</time>
      </trkpt>
      <trkpt lat="39.8755644" lon="116.6687813">
        <ele>22.99601</ele>
        <time>2026-09-01T22:46:43.911000Z</time>
      </trkpt>
      <trkpt lat="39.8754889" lon="116.6686962">
        <ele>22.95307</ele>
        <time>2026-09-01T22:46:47.892000Z</time>
      </trkpt>
      <trkpt lat="39.8754181" lon="116.6686042">
        <ele>22.92016</ele>
        <time>2026-09-01T22:46:51.872000Z</time>
      </trkpt>
      <trkpt lat="39.8753643" lon="116.6684935">
        <ele>22.89605</ele>
        <time>2026-09-01T22:46:55.853000Z</time>
      </trkpt>
      <trkpt lat="39.8753324" lon="116.6683695">
        <ele>22.88059</ele>
        <time>2026-09-01T22:46:59.834000Z</time>
      </trkpt>
      <trkpt lat="39.8753097" lon="116.6682418">
        <ele>22.89088</ele>
        <time>2026-09-01T22:47:03.815000Z</time>
      </trkpt>
      <trkpt lat="39.8752863" lon="116.6681238">
        <ele>22.93873</ele>
        <time>2026-09-01T22:47:07.795000Z</time>
      </trkpt>
      <trkpt lat="39.8752483" lon="116.6680043">
        <ele>22.98922</ele>
        <time>2026-09-01T22:47:11.776000Z</time>
      </trkpt>
      <trkpt lat="39.8751987" lon="116.6678834">
        <ele>22.98722</ele>
        <time>2026-09-01T22:47:15.757000Z</time>
      </trkpt>
      <trkpt lat="39.875136" lon="116.6677692">
        <ele>22.90651</ele>
        <time>2026-09-01T22:47:19.738000Z</time>
      </trkpt>
      <trkpt lat="39.8750549" lon="116.6676746">
        <ele>22.77908</ele>
        <time>2026-09-01T22:47:23.718000Z</time>
      </trkpt>
      <trkpt lat="39.8749601" lon="116.6676007">
        <ele>22.65373</ele>
        <time>2026-09-01T22:47:27.699000Z</time>
      </trkpt>
      <trkpt lat="39.8748567" lon="116.667555">
        <ele>22.55821</ele>
        <time>2026-09-01T22:47:31.680000Z</time>
      </trkpt>
      <trkpt lat="39.8747497" lon="116.6675253">
        <ele>22.47604</ele>
        <time>2026-09-01T22:47:35.661000Z</time>
      </trkpt>
      <trkpt lat="39.8746388" lon="116.6675047">
        <ele>22.39568</ele>
        <time>2026-09-01T22:47:39.642000Z</time>
      </trkpt>
      <trkpt lat="39.8745279" lon="116.6674967">
        <ele>22.31383</ele>
        <time>2026-09-01T22:47:43.622000Z</time>
      </trkpt>
      <trkpt lat="39.8744214" lon="116.6675162">
        <ele>22.20958</ele>
        <time>2026-09-01T22:47:47.603000Z</time>
      </trkpt>
      <trkpt lat="39.8743183" lon="116.6675603">
        <ele>22.08565</ele>
        <time>2026-09-01T22:47:51.584000Z</time>
      </trkpt>
      <trkpt lat="39.8742202" lon="116.6676226">
        <ele>21.95292</ele>
        <time>2026-09-01T22:47:55.565000Z</time>
      </trkpt>
      <trkpt lat="39.8741221" lon="116.6676892">
        <ele>21.82667</ele>
        <time>2026-09-01T22:47:59.546000Z</time>
      </trkpt>
      <trkpt lat="39.874022" lon="116.6677469">
        <ele>21.71004</ele>
        <time>2026-09-01T22:48:03.526000Z</time>
      </trkpt>
      <trkpt lat="39.8739147" lon="116.6677808">
        <ele>21.61414</ele>
        <time>2026-09-01T22:48:07.507000Z</time>
      </trkpt>
      <trkpt lat="39.8738043" lon="116.6677934">
        <ele>21.56618</ele>
        <time>2026-09-01T22:48:11.488000Z</time>
      </trkpt>
      <trkpt lat="39.873694" lon="116.6677891">
        <ele>21.58761</ele>
        <time>2026-09-01T22:48:15.469000Z</time>
      </trkpt>
      <trkpt lat="39.873584" lon="116.6677572">
        <ele>21.67208</ele>
        <time>2026-09-01T22:48:19.449000Z</time>
      </trkpt>
      <trkpt lat="39.8734764" lon="116.6677197">
        <ele>21.80311</ele>
        <time>2026-09-01T22:48:23.430000Z</time>
      </trkpt>
      <trkpt lat="39.873369" lon="116.6677199">
        <ele>21.94164</ele>
        <time>2026-09-01T22:48:27.411000Z</time>
      </trkpt>
      <trkpt lat="39.8732665" lon="116.6677629">
        <ele>22.04873</ele>
        <time>2026-09-01T22:48:31.392000Z</time>
      </trkpt>
      <trkpt lat="39.8731685" lon="116.6678195">
        <ele>22.08236</ele>
        <time>2026-09-01T22:48:35.373000Z</time>
      </trkpt>
      <trkpt lat="39.873066" lon="116.6678494">
        <ele>22.04263</ele>
        <time>2026-09-01T22:48:39.353000Z</time>
      </trkpt>
      <trkpt lat="39.8729615" lon="116.6678378">
        <ele>21.96756</ele>
        <time>2026-09-01T22:48:43.334000Z</time>
      </trkpt>
      <trkpt lat="39.8728544" lon="116.6677984">
        <ele>21.86536</ele>
        <time>2026-09-01T22:48:47.315000Z</time>
      </trkpt>
      <trkpt lat="39.872747" lon="116.6677562">
        <ele>21.77222</ele>
        <time>2026-09-01T22:48:51.296000Z</time>
      </trkpt>
      <trkpt lat="39.8726409" lon="116.6677193">
        <ele>21.74116</ele>
        <time>2026-09-01T22:48:55.277000Z</time>
      </trkpt>
      <trkpt lat="39.8725351" lon="116.6676998">
        <ele>21.7759</ele>
        <time>2026-09-01T22:48:59.257000Z</time>
      </trkpt>
      <trkpt lat="39.872431" lon="116.6677027">
        <ele>21.80716</ele>
        <time>2026-09-01T22:49:03.238000Z</time>
      </trkpt>
      <trkpt lat="39.872328" lon="116.6677181">
        <ele>21.77204</ele>
        <time>2026-09-01T22:49:07.219000Z</time>
      </trkpt>
      <trkpt lat="39.872226" lon="116.6677328">
        <ele>21.6812</ele>
        <time>2026-09-01T22:49:11.200000Z</time>
      </trkpt>
      <trkpt lat="39.8721238" lon="116.6677328">
        <ele>21.55172</ele>
        <time>2026-09-01T22:49:15.181000Z</time>
      </trkpt>
      <trkpt lat="39.8720221" lon="116.6677264">
        <ele>21.37925</ele>
        <time>2026-09-01T22:49:19.162000Z</time>
      </trkpt>
      <trkpt lat="39.8719221" lon="116.6677161">
        <ele>21.19021</ele>
        <time>2026-09-01T22:49:23.142000Z</time>
      </trkpt>
      <trkpt lat="39.8718275" lon="116.6676677">
        <ele>21.01986</ele>
        <time>2026-09-01T22:49:27.123000Z</time>
      </trkpt>
      <trkpt lat="39.8717325" lon="116.6676099">
        <ele>20.88312</ele>
        <time>2026-09-01T22:49:31.104000Z</time>
      </trkpt>
      <trkpt lat="39.8716322" lon="116.667561">
        <ele>20.81927</ele>
        <time>2026-09-01T22:49:35.085000Z</time>
      </trkpt>
      <trkpt lat="39.8715289" lon="116.6675274">
        <ele>20.82838</ele>
        <time>2026-09-01T22:49:39.066000Z</time>
      </trkpt>
      <trkpt lat="39.8714237" lon="116.6675125">
        <ele>20.86646</ele>
        <time>2026-09-01T22:49:43.046000Z</time>
      </trkpt>
      <trkpt lat="39.8713207" lon="116.6675112">
        <ele>20.88511</ele>
        <time>2026-09-01T22:49:47.027000Z</time>
      </trkpt>
      <trkpt lat="39.8712219" lon="116.6675209">
        <ele>20.86488</ele>
        <time>2026-09-01T22:49:51.008000Z</time>
      </trkpt>
      <trkpt lat="39.8711267" lon="116.6675397">
        <ele>20.79277</ele>
        <time>2026-09-01T22:49:54.989000Z</time>
      </trkpt>
      <trkpt lat="39.8710301" lon="116.667612">
        <ele>20.65408</ele>
        <time>2026-09-01T22:49:59.965000Z</time>
      </trkpt>
      <trkpt lat="39.8709858" lon="116.6677211">
        <ele>20.60795</ele>
        <time>2026-09-01T22:50:03.946000Z</time>
      </trkpt>
      <trkpt lat="39.8709376" lon="116.6678261">
        <ele>20.6764</ele>
        <time>2026-09-01T22:50:07.927000Z</time>
      </trkpt>
      <trkpt lat="39.8708536" lon="116.6678787">
        <ele>20.81589</ele>
        <time>2026-09-01T22:50:11.907000Z</time>
      </trkpt>
      <trkpt lat="39.8707528" lon="116.6678836">
        <ele>20.9778</ele>
        <time>2026-09-01T22:50:15.888000Z</time>
      </trkpt>
      <trkpt lat="39.8706485" lon="116.6678747">
        <ele>21.13749</ele>
        <time>2026-09-01T22:50:19.869000Z</time>
      </trkpt>
      <trkpt lat="39.8705454" lon="116.6678645">
        <ele>21.28246</ele>
        <time>2026-09-01T22:50:23.850000Z</time>
      </trkpt>
      <trkpt lat="39.8704469" lon="116.6678553">
        <ele>21.39171</ele>
        <time>2026-09-01T22:50:27.831000Z</time>
      </trkpt>
      <trkpt lat="39.8703503" lon="116.6678203">
        <ele>21.43702</ele>
        <time>2026-09-01T22:50:31.812000Z</time>
      </trkpt>
      <trkpt lat="39.8702641" lon="116.667763">
        <ele>21.39977</ele>
        <time>2026-09-01T22:50:35.793000Z</time>
      </trkpt>
      <trkpt lat="39.8701661" lon="116.667752">
        <ele>21.31036</ele>
        <time>2026-09-01T22:50:39.773000Z</time>
      </trkpt>
      <trkpt lat="39.8700634" lon="116.6677632">
        <ele>21.23423</ele>
        <time>2026-09-01T22:50:43.754000Z</time>
      </trkpt>
      <trkpt lat="39.8699602" lon="116.6677628">
        <ele>21.21545</ele>
        <time>2026-09-01T22:50:47.735000Z</time>
      </trkpt>
      <trkpt lat="39.8698564" lon="116.6677477">
        <ele>21.22642</ele>
        <time>2026-09-01T22:50:51.716000Z</time>
      </trkpt>
      <trkpt lat="39.8697541" lon="116.6677217">
        <ele>21.22541</ele>
        <time>2026-09-01T22:50:55.697000Z</time>
      </trkpt>
      <trkpt lat="39.8696538" lon="116.6677196">
        <ele>21.20394</ele>
        <time>2026-09-01T22:50:59.678000Z</time>
      </trkpt>
      <trkpt lat="39.8695626" lon="116.6677597">
        <ele>21.18359</ele>
        <time>2026-09-01T22:51:03.659000Z</time>
      </trkpt>
      <trkpt lat="39.8694968" lon="116.6678459">
        <ele>21.18871</ele>
        <time>2026-09-01T22:51:07.639000Z</time>
      </trkpt>
      <trkpt lat="39.8694691" lon="116.6679652">
        <ele>21.2248</ele>
        <time>2026-09-01T22:51:11.620000Z</time>
      </trkpt>
      <trkpt lat="39.8694762" lon="116.6680918">
        <ele>21.26624</ele>
        <time>2026-09-01T22:51:15.601000Z</time>
      </trkpt>
      <trkpt lat="39.8695157" lon="116.6682136">
        <ele>21.26551</ele>
        <time>2026-09-01T22:51:19.582000Z</time>
      </trkpt>
      <trkpt lat="39.8695665" lon="116.6683299">
        <ele>21.20258</ele>
        <time>2026-09-01T22:51:24.558000Z</time>
      </trkpt>
      <trkpt lat="39.8696721" lon="116.6683752">
        <ele>21.12957</ele>
        <time>2026-09-01T22:51:29.534000Z</time>
      </trkpt>
      <trkpt lat="39.8697788" lon="116.6683535">
        <ele>21.10915</ele>
        <time>2026-09-01T22:51:33.515000Z</time>
      </trkpt>
      <trkpt lat="39.8698765" lon="116.6683031">
        <ele>21.11715</ele>
        <time>2026-09-01T22:51:37.496000Z</time>
      </trkpt>
      <trkpt lat="39.8699736" lon="116.6682852">
        <ele>21.11782</ele>
        <time>2026-09-01T22:51:41.477000Z</time>
      </trkpt>
      <trkpt lat="39.870076" lon="116.6682808">
        <ele>21.07711</ele>
        <time>2026-09-01T22:51:45.458000Z</time>
      </trkpt>
      <trkpt lat="39.8701789" lon="116.6682519">
        <ele>20.98617</ele>
        <time>2026-09-01T22:51:49.439000Z</time>
      </trkpt>
      <trkpt lat="39.8702771" lon="116.6682048">
        <ele>20.85215</ele>
        <time>2026-09-01T22:51:53.420000Z</time>
      </trkpt>
      <trkpt lat="39.8703724" lon="116.6681413">
        <ele>20.68064</ele>
        <time>2026-09-01T22:51:57.400000Z</time>
      </trkpt>
      <trkpt lat="39.8704732" lon="116.6680946">
        <ele>20.49047</ele>
        <time>2026-09-01T22:52:01.381000Z</time>
      </trkpt>
      <trkpt lat="39.8705812" lon="116.6680959">
        <ele>20.33174</ele>
        <time>2026-09-01T22:52:05.362000Z</time>
      </trkpt>
      <trkpt lat="39.8706878" lon="116.6681267">
        <ele>20.25371</ele>
        <time>2026-09-01T22:52:09.343000Z</time>
      </trkpt>
      <trkpt lat="39.87079" lon="116.6681582">
        <ele>20.25464</ele>
        <time>2026-09-01T22:52:13.324000Z</time>
      </trkpt>
      <trkpt lat="39.8708912" lon="116.6681666">
        <ele>20.31233</ele>
        <time>2026-09-01T22:52:17.305000Z</time>
      </trkpt>
      <trkpt lat="39.8709956" lon="116.6681451">
        <ele>20.37834</ele>
        <time>2026-09-01T22:52:21.286000Z</time>
      </trkpt>
      <trkpt lat="39.8710944" lon="116.6680996">
        <ele>20.43461</ele>
        <time>2026-09-01T22:52:25.267000Z</time>
      </trkpt>
      <trkpt lat="39.8711873" lon="116.6680382">
        <ele>20.47342</ele>
        <time>2026-09-01T22:52:29.248000Z</time>
      </trkpt>
      <trkpt lat="39.8712817" lon="116.6679816">
        <ele>20.50273</ele>
        <time>2026-09-01T22:52:33.228000Z</time>
      </trkpt>
      <trkpt lat="39.8713811" lon="116.6679503">
        <ele>20.53623</ele>
        <time>2026-09-01T22:52:37.209000Z</time>
      </trkpt>
      <trkpt lat="39.8714772" lon="116.6679539">
        <ele>20.58039</ele>
        <time>2026-09-01T22:52:41Z</time>
      </trkpt>
      <trkpt lat="39.8715776" lon="116.6679812">
        <ele>20.65745</ele>
        <time>2026-09-01T22:52:45Z</time>
      </trkpt>
      <trkpt lat="39.8716735" lon="116.6680277">
        <ele>20.74874</ele>
        <time>2026-09-01T22:52:49Z</time>
      </trkpt>
      <trkpt lat="39.8717625" lon="116.6680854">
        <ele>20.83171</ele>
        <time>2026-09-01T22:52:53Z</time>
      </trkpt>
      <trkpt lat="39.8718582" lon="116.6681433">
        <ele>20.8983</ele>
        <time>2026-09-01T22:52:57.114000Z</time>
      </trkpt>
      <trkpt lat="39.8719572" lon="116.6681815">
        <ele>20.97234</ele>
        <time>2026-09-01T22:53:01Z</time>
      </trkpt>
      <trkpt lat="39.8720579" lon="116.6682022">
        <ele>21.06557</ele>
        <time>2026-09-01T22:53:05Z</time>
      </trkpt>
      <trkpt lat="39.8721624" lon="116.6682128">
        <ele>21.18882</ele>
        <time>2026-09-01T22:53:09Z</time>
      </trkpt>
      <trkpt lat="39.8722671" lon="116.6682305">
        <ele>21.36499</ele>
        <time>2026-09-01T22:53:13Z</time>
      </trkpt>
      <trkpt lat="39.8723664" lon="116.6682756">
        <ele>21.57624</ele>
        <time>2026-09-01T22:53:17Z</time>
      </trkpt>
      <trkpt lat="39.8724526" lon="116.66835">
        <ele>21.71468</ele>
        <time>2026-09-01T22:53:20.999000Z</time>
      </trkpt>
      <trkpt lat="39.8725228" lon="116.6684481">
        <ele>21.74269</ele>
        <time>2026-09-01T22:53:24.980000Z</time>
      </trkpt>
      <trkpt lat="39.8725792" lon="116.6685612">
        <ele>21.73469</ele>
        <time>2026-09-01T22:53:28.961000Z</time>
      </trkpt>
      <trkpt lat="39.8726175" lon="116.6686858">
        <ele>21.73786</ele>
        <time>2026-09-01T22:53:32.942000Z</time>
      </trkpt>
      <trkpt lat="39.8726329" lon="116.6688201">
        <ele>21.74738</ele>
        <time>2026-09-01T22:53:36.922000Z</time>
      </trkpt>
      <trkpt lat="39.8726288" lon="116.6689512">
        <ele>21.74712</ele>
        <time>2026-09-01T22:53:40.903000Z</time>
      </trkpt>
      <trkpt lat="39.8726028" lon="116.6690774">
        <ele>21.74408</ele>
        <time>2026-09-01T22:53:44.884000Z</time>
      </trkpt>
      <trkpt lat="39.8725724" lon="116.669199">
        <ele>21.73143</ele>
        <time>2026-09-01T22:53:48.865000Z</time>
      </trkpt>
      <trkpt lat="39.8725469" lon="116.6693231">
        <ele>21.69648</ele>
        <time>2026-09-01T22:53:52.846000Z</time>
      </trkpt>
      <trkpt lat="39.8725309" lon="116.6694502">
        <ele>21.62836</ele>
        <time>2026-09-01T22:53:56.827000Z</time>
      </trkpt>
      <trkpt lat="39.8725257" lon="116.6695802">
        <ele>21.53607</ele>
        <time>2026-09-01T22:54:00.808000Z</time>
      </trkpt>
      <trkpt lat="39.8725336" lon="116.6697099">
        <ele>21.44291</ele>
        <time>2026-09-01T22:54:04.789000Z</time>
      </trkpt>
      <trkpt lat="39.8725612" lon="116.6698316">
        <ele>21.37195</ele>
        <time>2026-09-01T22:54:08.770000Z</time>
      </trkpt>
      <trkpt lat="39.8726079" lon="116.6699361">
        <ele>21.33529</ele>
        <time>2026-09-01T22:54:12.750000Z</time>
      </trkpt>
      <trkpt lat="39.872674" lon="116.6700228">
        <ele>21.33752</ele>
        <time>2026-09-01T22:54:16.731000Z</time>
      </trkpt>
      <trkpt lat="39.8727554" lon="116.6700808">
        <ele>21.33287</ele>
        <time>2026-09-01T22:54:20.712000Z</time>
      </trkpt>
      <trkpt lat="39.8728456" lon="116.6701216">
        <ele>21.2894</ele>
        <time>2026-09-01T22:54:24.693000Z</time>
      </trkpt>
      <trkpt lat="39.8729415" lon="116.6701476">
        <ele>21.21965</ele>
        <time>2026-09-01T22:54:28.674000Z</time>
      </trkpt>
      <trkpt lat="39.8730404" lon="116.6701534">
        <ele>21.1194</ele>
        <time>2026-09-01T22:54:32.655000Z</time>
      </trkpt>
      <trkpt lat="39.8731398" lon="116.6701495">
        <ele>20.98522</ele>
        <time>2026-09-01T22:54:36.636000Z</time>
      </trkpt>
      <trkpt lat="39.8732378" lon="116.6701335">
        <ele>20.84166</ele>
        <time>2026-09-01T22:54:40.617000Z</time>
      </trkpt>
      <trkpt lat="39.8733333" lon="116.6701065">
        <ele>20.70942</ele>
        <time>2026-09-01T22:54:44.598000Z</time>
      </trkpt>
      <trkpt lat="39.8734253" lon="116.6700613">
        <ele>20.62178</ele>
        <time>2026-09-01T22:54:48.579000Z</time>
      </trkpt>
      <trkpt lat="39.873509" lon="116.6699981">
        <ele>20.60919</ele>
        <time>2026-09-01T22:54:52.559000Z</time>
      </trkpt>
      <trkpt lat="39.8735881" lon="116.6699238">
        <ele>20.66776</ele>
        <time>2026-09-01T22:54:56.540000Z</time>
      </trkpt>
      <trkpt lat="39.8736699" lon="116.6698522">
        <ele>20.74787</ele>
        <time>2026-09-01T22:55:00.521000Z</time>
      </trkpt>
      <trkpt lat="39.8737597" lon="116.6698107">
        <ele>20.80746</ele>
        <time>2026-09-01T22:55:04.502000Z</time>
      </trkpt>
      <trkpt lat="39.8738552" lon="116.6697986">
        <ele>20.84335</ele>
        <time>2026-09-01T22:55:08.483000Z</time>
      </trkpt>
      <trkpt lat="39.8739513" lon="116.6698109">
        <ele>20.87597</ele>
        <time>2026-09-01T22:55:12.464000Z</time>
      </trkpt>
      <trkpt lat="39.8740498" lon="116.6698382">
        <ele>20.93112</ele>
        <time>2026-09-01T22:55:16.445000Z</time>
      </trkpt>
      <trkpt lat="39.8741535" lon="116.669843">
        <ele>20.99189</ele>
        <time>2026-09-01T22:55:20.426000Z</time>
      </trkpt>
      <trkpt lat="39.8742512" lon="116.6698127">
        <ele>21.04205</ele>
        <time>2026-09-01T22:55:24.407000Z</time>
      </trkpt>
      <trkpt lat="39.8743396" lon="116.6697377">
        <ele>21.09885</ele>
        <time>2026-09-01T22:55:28.388000Z</time>
      </trkpt>
      <trkpt lat="39.8744162" lon="116.6696389">
        <ele>21.2148</ele>
        <time>2026-09-01T22:55:32.369000Z</time>
      </trkpt>
      <trkpt lat="39.8744934" lon="116.6695434">
        <ele>21.3992</ele>
        <time>2026-09-01T22:55:36.349000Z</time>
      </trkpt>
      <trkpt lat="39.8745848" lon="116.6694872">
        <ele>21.64639</ele>
        <time>2026-09-01T22:55:40.330000Z</time>
      </trkpt>
      <trkpt lat="39.8746872" lon="116.6694836">
        <ele>21.92272</ele>
        <time>2026-09-01T22:55:44.311000Z</time>
      </trkpt>
      <trkpt lat="39.8747857" lon="116.6695228">
        <ele>22.18864</ele>
        <time>2026-09-01T22:55:48.292000Z</time>
      </trkpt>
      <trkpt lat="39.8748799" lon="116.6695784">
        <ele>22.40526</ele>
        <time>2026-09-01T22:55:52.273000Z</time>
      </trkpt>
      <trkpt lat="39.8749719" lon="116.6696387">
        <ele>22.55542</ele>
        <time>2026-09-01T22:55:56.254000Z</time>
      </trkpt>
      <trkpt lat="39.8750668" lon="116.6696797">
        <ele>22.6459</ele>
        <time>2026-09-01T22:56:00.235000Z</time>
      </trkpt>
      <trkpt lat="39.8751647" lon="116.6696677">
        <ele>22.67234</ele>
        <time>2026-09-01T22:56:04.216000Z</time>
      </trkpt>
      <trkpt lat="39.875253" lon="116.6696038">
        <ele>22.65925</ele>
        <time>2026-09-01T22:56:08.197000Z</time>
      </trkpt>
      <trkpt lat="39.8753373" lon="116.6695466">
        <ele>22.66733</ele>
        <time>2026-09-01T22:56:12Z</time>
      </trkpt>
      <trkpt lat="39.8754317" lon="116.6695188">
        <ele>22.70346</ele>
        <time>2026-09-01T22:56:16Z</time>
      </trkpt>
      <trkpt lat="39.8755314" lon="116.6694828">
        <ele>22.7381</ele>
        <time>2026-09-01T22:56:20Z</time>
      </trkpt>
      <trkpt lat="39.8756133" lon="116.6694053">
        <ele>22.74876</ele>
        <time>2026-09-01T22:56:24Z</time>
      </trkpt>
      <trkpt lat="39.875662" lon="116.6692878">
        <ele>22.72634</ele>
        <time>2026-09-01T22:56:28Z</time>
      </trkpt>
      <trkpt lat="39.8756799" lon="116.669151">
        <ele>22.69383</ele>
        <time>2026-09-01T22:56:32Z</time>
      </trkpt>
      <trkpt lat="39.8756704" lon="116.6690164">
        <ele>22.64553</ele>
        <time>2026-09-01T22:56:36Z</time>
      </trkpt>
      <trkpt lat="39.8756341" lon="116.6688947">
        <ele>22.60115</ele>
        <time>2026-09-01T22:56:40Z</time>
      </trkpt>
      <trkpt lat="39.8755744" lon="116.668789">
        <ele>22.61379</ele>
        <time>2026-09-01T22:56:44Z</time>
      </trkpt>
      <trkpt lat="39.8754969" lon="116.6686969">
        <ele>22.69404</ele>
        <time>2026-09-01T22:56:48Z</time>
      </trkpt>
      <trkpt lat="39.875419" lon="116.6686087">
        <ele>22.84156</ele>
        <time>2026-09-01T22:56:51.987000Z</time>
      </trkpt>
      <trkpt lat="39.8753602" lon="116.6685026">
        <ele>22.94703</ele>
        <time>2026-09-01T22:56:55.968000Z</time>
      </trkpt>
      <trkpt lat="39.8753253" lon="116.6683784">
        <ele>22.97919</ele>
        <time>2026-09-01T22:56:59.949000Z</time>
      </trkpt>
      <trkpt lat="39.8753062" lon="116.6682503">
        <ele>22.96702</ele>
        <time>2026-09-01T22:57:03.929000Z</time>
      </trkpt>
      <trkpt lat="39.8752854" lon="116.6681199">
        <ele>22.93372</ele>
        <time>2026-09-01T22:57:07.910000Z</time>
      </trkpt>
      <trkpt lat="39.8752533" lon="116.667996">
        <ele>22.8783</ele>
        <time>2026-09-01T22:57:11.891000Z</time>
      </trkpt>
      <trkpt lat="39.8752053" lon="116.667879">
        <ele>22.80346</ele>
        <time>2026-09-01T22:57:15.872000Z</time>
      </trkpt>
      <trkpt lat="39.8751447" lon="116.6677699">
        <ele>22.71485</ele>
        <time>2026-09-01T22:57:19.853000Z</time>
      </trkpt>
      <trkpt lat="39.8750711" lon="116.6676762">
        <ele>22.60489</ele>
        <time>2026-09-01T22:57:23.834000Z</time>
      </trkpt>
      <trkpt lat="39.8749826" lon="116.6676038">
        <ele>22.46834</ele>
        <time>2026-09-01T22:57:27.815000Z</time>
      </trkpt>
      <trkpt lat="39.8748838" lon="116.6675561">
        <ele>22.33637</ele>
        <time>2026-09-01T22:57:31.796000Z</time>
      </trkpt>
      <trkpt lat="39.8747809" lon="116.6675216">
        <ele>22.23386</ele>
        <time>2026-09-01T22:57:35.777000Z</time>
      </trkpt>
      <trkpt lat="39.8746793" lon="116.6674968">
        <ele>22.16276</ele>
        <time>2026-09-01T22:57:39.758000Z</time>
      </trkpt>
      <trkpt lat="39.8745767" lon="116.667484">
        <ele>22.10864</ele>
        <time>2026-09-01T22:57:43.739000Z</time>
      </trkpt>
      <trkpt lat="39.8744755" lon="116.6674891">
        <ele>22.05978</ele>
        <time>2026-09-01T22:57:47.720000Z</time>
      </trkpt>
      <trkpt lat="39.8743752" lon="116.6675207">
        <ele>21.97602</ele>
        <time>2026-09-01T22:57:51.701000Z</time>
      </trkpt>
      <trkpt lat="39.8742802" lon="116.6675711">
        <ele>21.84557</ele>
        <time>2026-09-01T22:57:55.682000Z</time>
      </trkpt>
      <trkpt lat="39.8741886" lon="116.667636">
        <ele>21.71774</ele>
        <time>2026-09-01T22:57:59.663000Z</time>
      </trkpt>
      <trkpt lat="39.8740993" lon="116.6677026">
        <ele>21.63027</ele>
        <time>2026-09-01T22:58:03.644000Z</time>
      </trkpt>
      <trkpt lat="39.8740063" lon="116.6677608">
        <ele>21.59445</ele>
        <time>2026-09-01T22:58:07.624000Z</time>
      </trkpt>
      <trkpt lat="39.8739054" lon="116.6677909">
        <ele>21.58898</ele>
        <time>2026-09-01T22:58:11.605000Z</time>
      </trkpt>
      <trkpt lat="39.8737993" lon="116.667797">
        <ele>21.59008</ele>
        <time>2026-09-01T22:58:15.586000Z</time>
      </trkpt>
      <trkpt lat="39.8736926" lon="116.6677834">
        <ele>21.57964</ele>
        <time>2026-09-01T22:58:19.567000Z</time>
      </trkpt>
      <trkpt lat="39.8735869" lon="116.6677564">
        <ele>21.55115</ele>
        <time>2026-09-01T22:58:23.548000Z</time>
      </trkpt>
      <trkpt lat="39.8734798" lon="116.6677294">
        <ele>21.53207</ele>
        <time>2026-09-01T22:58:27.529000Z</time>
      </trkpt>
      <trkpt lat="39.8733725" lon="116.6677278">
        <ele>21.53739</ele>
        <time>2026-09-01T22:58:31.510000Z</time>
      </trkpt>
      <trkpt lat="39.8732705" lon="116.667769">
        <ele>21.56811</ele>
        <time>2026-09-01T22:58:35.491000Z</time>
      </trkpt>
      <trkpt lat="39.8731692" lon="116.6678235">
        <ele>21.59065</ele>
        <time>2026-09-01T22:58:39.472000Z</time>
      </trkpt>
      <trkpt lat="39.8730609" lon="116.6678538">
        <ele>21.58491</ele>
        <time>2026-09-01T22:58:43.453000Z</time>
      </trkpt>
      <trkpt lat="39.872951" lon="116.667848">
        <ele>21.58598</ele>
        <time>2026-09-01T22:58:47.434000Z</time>
      </trkpt>
      <trkpt lat="39.8728443" lon="116.6678085">
        <ele>21.63236</ele>
        <time>2026-09-01T22:58:51.415000Z</time>
      </trkpt>
      <trkpt lat="39.8727381" lon="116.6677659">
        <ele>21.7094</ele>
        <time>2026-09-01T22:58:55.396000Z</time>
      </trkpt>
      <trkpt lat="39.8726274" lon="116.6677378">
        <ele>21.80909</ele>
        <time>2026-09-01T22:58:59.377000Z</time>
      </trkpt>
      <trkpt lat="39.8725164" lon="116.6677272">
        <ele>21.90811</ele>
        <time>2026-09-01T22:59:03.358000Z</time>
      </trkpt>
      <trkpt lat="39.8724083" lon="116.6677357">
        <ele>21.93744</ele>
        <time>2026-09-01T22:59:07.339000Z</time>
      </trkpt>
      <trkpt lat="39.872301" lon="116.6677496">
        <ele>21.84907</ele>
        <time>2026-09-01T22:59:11.320000Z</time>
      </trkpt>
      <trkpt lat="39.8721927" lon="116.6677557">
        <ele>21.6954</ele>
        <time>2026-09-01T22:59:15.301000Z</time>
      </trkpt>
      <trkpt lat="39.872085" lon="116.6677455">
        <ele>21.54244</ele>
        <time>2026-09-01T22:59:19.282000Z</time>
      </trkpt>
      <trkpt lat="39.8719779" lon="116.6677241">
        <ele>21.40885</ele>
        <time>2026-09-01T22:59:23.263000Z</time>
      </trkpt>
      <trkpt lat="39.871876" lon="116.6676775">
        <ele>21.26709</ele>
        <time>2026-09-01T22:59:27.244000Z</time>
      </trkpt>
      <trkpt lat="39.8717712" lon="116.6676214">
        <ele>21.06391</ele>
        <time>2026-09-01T22:59:31.225000Z</time>
      </trkpt>
      <trkpt lat="39.8716643" lon="116.6675724">
        <ele>20.82932</ele>
        <time>2026-09-01T22:59:35.206000Z</time>
      </trkpt>
      <trkpt lat="39.8715625" lon="116.6675342">
        <ele>20.63758</ele>
        <time>2026-09-01T22:59:39Z</time>
      </trkpt>
      <trkpt lat="39.8714562" lon="116.6675165">
        <ele>20.4942</ele>
        <time>2026-09-01T22:59:43Z</time>
      </trkpt>
      <trkpt lat="39.8713479" lon="116.6675215">
        <ele>20.3921</ele>
        <time>2026-09-01T22:59:47Z</time>
      </trkpt>
      <trkpt lat="39.8712433" lon="116.6675354">
        <ele>20.32793</ele>
        <time>2026-09-01T22:59:51Z</time>
      </trkpt>
      <trkpt lat="39.871141" lon="116.6675516">
        <ele>20.30804</ele>
        <time>2026-09-01T22:59:55Z</time>
      </trkpt>
      <trkpt lat="39.8710528" lon="116.6675965">
        <ele>20.31419</ele>
        <time>2026-09-01T22:59:59Z</time>
      </trkpt>
      <trkpt lat="39.8710017" lon="116.6677014">
        <ele>20.23358</ele>
        <time>2026-09-01T23:00:03Z</time>
      </trkpt>
      <trkpt lat="39.8709611" lon="116.667814">
        <ele>20.00858</ele>
        <time>2026-09-01T23:00:07.054000Z</time>
      </trkpt>
      <trkpt lat="39.8708579" lon="116.6678776">
        <ele>19.84617</ele>
        <time>2026-09-01T23:00:12Z</time>
      </trkpt>
      <trkpt lat="39.8707505" lon="116.6678818">
        <ele>20.04897</ele>
        <time>2026-09-01T23:00:16Z</time>
      </trkpt>
      <trkpt lat="39.8706404" lon="116.6678812">
        <ele>20.47078</ele>
        <time>2026-09-01T23:00:19.992000Z</time>
      </trkpt>
      <trkpt lat="39.8705306" lon="116.6678793">
        <ele>20.86373</ele>
        <time>2026-09-01T23:00:23.973000Z</time>
      </trkpt>
      <trkpt lat="39.8704207" lon="116.6678688">
        <ele>21.12464</ele>
        <time>2026-09-01T23:00:27.954000Z</time>
      </trkpt>
      <trkpt lat="39.8703159" lon="116.6678279">
        <ele>21.28844</ele>
        <time>2026-09-01T23:00:31.935000Z</time>
      </trkpt>
      <trkpt lat="39.8702142" lon="116.6677903">
        <ele>21.35554</ele>
        <time>2026-09-01T23:00:35.916000Z</time>
      </trkpt>
      <trkpt lat="39.8701085" lon="116.6677891">
        <ele>21.32801</ele>
        <time>2026-09-01T23:00:39.897000Z</time>
      </trkpt>
      <trkpt lat="39.8700014" lon="116.6677795">
        <ele>21.23703</ele>
        <time>2026-09-01T23:00:43.878000Z</time>
      </trkpt>
      <trkpt lat="39.8698906" lon="116.6677478">
        <ele>21.15208</ele>
        <time>2026-09-01T23:00:47.859000Z</time>
      </trkpt>
      <trkpt lat="39.8697803" lon="116.6677156">
        <ele>21.11993</ele>
        <time>2026-09-01T23:00:51.840000Z</time>
      </trkpt>
      <trkpt lat="39.8696713" lon="116.6677143">
        <ele>21.13265</ele>
        <time>2026-09-01T23:00:55.821000Z</time>
      </trkpt>
      <trkpt lat="39.8695761" lon="116.6677573">
        <ele>21.16193</ele>
        <time>2026-09-01T23:00:59.802000Z</time>
      </trkpt>
      <trkpt lat="39.869507" lon="116.6678497">
        <ele>21.18297</ele>
        <time>2026-09-01T23:01:03.783000Z</time>
      </trkpt>
      <trkpt lat="39.8694706" lon="116.6679799">
        <ele>21.17503</ele>
        <time>2026-09-01T23:01:07.764000Z</time>
      </trkpt>
      <trkpt lat="39.8694745" lon="116.6681194">
        <ele>21.13137</ele>
        <time>2026-09-01T23:01:11.745000Z</time>
      </trkpt>
      <trkpt lat="39.8695202" lon="116.6682509">
        <ele>21.07852</ele>
        <time>2026-09-01T23:01:15.726000Z</time>
      </trkpt>
      <trkpt lat="39.8696026" lon="116.6683521">
        <ele>21.02779</ele>
        <time>2026-09-01T23:01:19.707000Z</time>
      </trkpt>
      <trkpt lat="39.8697078" lon="116.6683837">
        <ele>20.98354</ele>
        <time>2026-09-01T23:01:23.688000Z</time>
      </trkpt>
      <trkpt lat="39.8698151" lon="116.6683613">
        <ele>20.94987</ele>
        <time>2026-09-01T23:01:27.669000Z</time>
      </trkpt>
      <trkpt lat="39.8699207" lon="116.6683303">
        <ele>20.92077</ele>
        <time>2026-09-01T23:01:31.650000Z</time>
      </trkpt>
      <trkpt lat="39.8700266" lon="116.6683229">
        <ele>20.89165</ele>
        <time>2026-09-01T23:01:35.631000Z</time>
      </trkpt>
      <trkpt lat="39.8701297" lon="116.6683084">
        <ele>20.85682</ele>
        <time>2026-09-01T23:01:39.612000Z</time>
      </trkpt>
      <trkpt lat="39.8702267" lon="116.6682513">
        <ele>20.81255</ele>
        <time>2026-09-01T23:01:43.593000Z</time>
      </trkpt>
      <trkpt lat="39.8703239" lon="116.6681903">
        <ele>20.75606</ele>
        <time>2026-09-01T23:01:47.574000Z</time>
      </trkpt>
      <trkpt lat="39.8704227" lon="116.6681275">
        <ele>20.6919</ele>
        <time>2026-09-01T23:01:51.555000Z</time>
      </trkpt>
      <trkpt lat="39.8705297" lon="116.6680882">
        <ele>20.62403</ele>
        <time>2026-09-01T23:01:55.536000Z</time>
      </trkpt>
      <trkpt lat="39.8706376" lon="116.6680899">
        <ele>20.58707</ele>
        <time>2026-09-01T23:01:59.517000Z</time>
      </trkpt>
      <trkpt lat="39.8707446" lon="116.6681127">
        <ele>20.62606</ele>
        <time>2026-09-01T23:02:03.498000Z</time>
      </trkpt>
      <trkpt lat="39.870851" lon="116.6681247">
        <ele>20.74238</ele>
        <time>2026-09-01T23:02:07.479000Z</time>
      </trkpt>
      <trkpt lat="39.8709677" lon="116.6681078">
        <ele>20.88399</ele>
        <time>2026-09-01T23:02:11.460000Z</time>
      </trkpt>
      <trkpt lat="39.871082" lon="116.6680651">
        <ele>21.02983</ele>
        <time>2026-09-01T23:02:15.441000Z</time>
      </trkpt>
      <trkpt lat="39.871183" lon="116.6679983">
        <ele>21.16548</ele>
        <time>2026-09-01T23:02:19.422000Z</time>
      </trkpt>
      <trkpt lat="39.8712822" lon="116.667943">
        <ele>21.25392</ele>
        <time>2026-09-01T23:02:23.403000Z</time>
      </trkpt>
      <trkpt lat="39.8713888" lon="116.667924">
        <ele>21.26635</ele>
        <time>2026-09-01T23:02:27.384000Z</time>
      </trkpt>
      <trkpt lat="39.8715013" lon="116.6679351">
        <ele>21.20609</ele>
        <time>2026-09-01T23:02:31.365000Z</time>
      </trkpt>
      <trkpt lat="39.8716106" lon="116.667984">
        <ele>21.11193</ele>
        <time>2026-09-01T23:02:35.346000Z</time>
      </trkpt>
      <trkpt lat="39.8717074" lon="116.6680596">
        <ele>21.03149</ele>
        <time>2026-09-01T23:02:39.327000Z</time>
      </trkpt>
      <trkpt lat="39.8718115" lon="116.6681305">
        <ele>21.00235</ele>
        <time>2026-09-01T23:02:43.308000Z</time>
      </trkpt>
      <trkpt lat="39.8718982" lon="116.6681665">
        <ele>21.04751</ele>
        <time>2026-09-01T23:02:46.294000Z</time>
      </trkpt>
      <trkpt lat="39.8719887" lon="116.6681848">
        <ele>21.13942</ele>
        <time>2026-09-01T23:02:49.280000Z</time>
      </trkpt>
      <trkpt lat="39.8720796" lon="116.6681905">
        <ele>21.24986</ele>
        <time>2026-09-01T23:02:52.266000Z</time>
      </trkpt>
      <trkpt lat="39.872197" lon="116.6681965">
        <ele>21.39698</ele>
        <time>2026-09-01T23:02:56.247000Z</time>
      </trkpt>
      <trkpt lat="39.8723089" lon="116.6682412">
        <ele>21.52891</ele>
        <time>2026-09-01T23:03:00.228000Z</time>
      </trkpt>
      <trkpt lat="39.8724055" lon="116.668325">
        <ele>21.60371</ele>
        <time>2026-09-01T23:03:04.209000Z</time>
      </trkpt>
      <trkpt lat="39.8724841" lon="116.6684359">
        <ele>21.62127</ele>
        <time>2026-09-01T23:03:08.190000Z</time>
      </trkpt>
      <trkpt lat="39.8725452" lon="116.6685692">
        <ele>21.60012</ele>
        <time>2026-09-01T23:03:12.171000Z</time>
      </trkpt>
      <trkpt lat="39.8725783" lon="116.6687185">
        <ele>21.54716</ele>
        <time>2026-09-01T23:03:16.151000Z</time>
      </trkpt>
      <trkpt lat="39.8725892" lon="116.6688687">
        <ele>21.48265</ele>
        <time>2026-09-01T23:03:20.132000Z</time>
      </trkpt>
      <trkpt lat="39.8725733" lon="116.6690201">
        <ele>21.41577</ele>
        <time>2026-09-01T23:03:24.113000Z</time>
      </trkpt>
      <trkpt lat="39.8725387" lon="116.6691688">
        <ele>21.38022</ele>
        <time>2026-09-01T23:03:28.094000Z</time>
      </trkpt>
      <trkpt lat="39.8725081" lon="116.6693184">
        <ele>21.40064</ele>
        <time>2026-09-01T23:03:32.075000Z</time>
      </trkpt>
      <trkpt lat="39.8724939" lon="116.6694707">
        <ele>21.42859</ele>
        <time>2026-09-01T23:03:36.056000Z</time>
      </trkpt>
      <trkpt lat="39.872498" lon="116.6696257">
        <ele>21.42768</ele>
        <time>2026-09-01T23:03:40.037000Z</time>
      </trkpt>
      <trkpt lat="39.8725252" lon="116.669777">
        <ele>21.37661</ele>
        <time>2026-09-01T23:03:44.018000Z</time>
      </trkpt>
      <trkpt lat="39.8725657" lon="116.6698846">
        <ele>21.32657</ele>
        <time>2026-09-01T23:03:47.004000Z</time>
      </trkpt>
      <trkpt lat="39.8726248" lon="116.6699771">
        <ele>21.33675</ele>
        <time>2026-09-01T23:03:49.990000Z</time>
      </trkpt>
      <trkpt lat="39.8727163" lon="116.6700663">
        <ele>21.44164</ele>
        <time>2026-09-01T23:03:53.971000Z</time>
      </trkpt>
      <trkpt lat="39.8728225" lon="116.6701251">
        <ele>21.57678</ele>
        <time>2026-09-01T23:03:57.952000Z</time>
      </trkpt>
      <trkpt lat="39.8729385" lon="116.6701588">
        <ele>21.65088</ele>
        <time>2026-09-01T23:04:01.933000Z</time>
      </trkpt>
      <trkpt lat="39.8730577" lon="116.6701645">
        <ele>21.65074</ele>
        <time>2026-09-01T23:04:05.914000Z</time>
      </trkpt>
      <trkpt lat="39.8731478" lon="116.6701552">
        <ele>21.62151</ele>
        <time>2026-09-01T23:04:08.899000Z</time>
      </trkpt>
      <trkpt lat="39.8732646" lon="116.670129">
        <ele>21.57396</ele>
        <time>2026-09-01T23:04:12.880000Z</time>
      </trkpt>
      <trkpt lat="39.8733733" lon="116.6700891">
        <ele>21.52463</ele>
        <time>2026-09-01T23:04:16.861000Z</time>
      </trkpt>
      <trkpt lat="39.8734775" lon="116.670028">
        <ele>21.47684</ele>
        <time>2026-09-01T23:04:20.842000Z</time>
      </trkpt>
      <trkpt lat="39.8735786" lon="116.6699581">
        <ele>21.45856</ele>
        <time>2026-09-01T23:04:24.823000Z</time>
      </trkpt>
      <trkpt lat="39.8736763" lon="116.6698817">
        <ele>21.47938</ele>
        <time>2026-09-01T23:04:28.804000Z</time>
      </trkpt>
      <trkpt lat="39.8737801" lon="116.6698247">
        <ele>21.5156</ele>
        <time>2026-09-01T23:04:32.785000Z</time>
      </trkpt>
      <trkpt lat="39.8738888" lon="116.6698106">
        <ele>21.53037</ele>
        <time>2026-09-01T23:04:36.766000Z</time>
      </trkpt>
      <trkpt lat="39.8739997" lon="116.6698339">
        <ele>21.51083</ele>
        <time>2026-09-01T23:04:40.747000Z</time>
      </trkpt>
      <trkpt lat="39.8741115" lon="116.6698604">
        <ele>21.47247</ele>
        <time>2026-09-01T23:04:44.728000Z</time>
      </trkpt>
      <trkpt lat="39.8742252" lon="116.6698623">
        <ele>21.43133</ele>
        <time>2026-09-01T23:04:48.709000Z</time>
      </trkpt>
      <trkpt lat="39.8743314" lon="116.6698246">
        <ele>21.4035</ele>
        <time>2026-09-01T23:04:52.690000Z</time>
      </trkpt>
      <trkpt lat="39.8744232" lon="116.6697497">
        <ele>21.4373</ele>
        <time>2026-09-01T23:04:56.671000Z</time>
      </trkpt>
      <trkpt lat="39.8745018" lon="116.6696526">
        <ele>21.56448</ele>
        <time>2026-09-01T23:05:00.652000Z</time>
      </trkpt>
      <trkpt lat="39.8745832" lon="116.6695622">
        <ele>21.73968</ele>
        <time>2026-09-01T23:05:04.633000Z</time>
      </trkpt>
      <trkpt lat="39.8746817" lon="116.6695089">
        <ele>21.90851</ele>
        <time>2026-09-01T23:05:08.614000Z</time>
      </trkpt>
      <trkpt lat="39.8747864" lon="116.6695208">
        <ele>22.09647</ele>
        <time>2026-09-01T23:05:12.595000Z</time>
      </trkpt>
      <trkpt lat="39.8748885" lon="116.6695921">
        <ele>22.33083</ele>
        <time>2026-09-01T23:05:16.576000Z</time>
      </trkpt>
      <trkpt lat="39.8749921" lon="116.6696618">
        <ele>22.56492</ele>
        <time>2026-09-01T23:05:20.556000Z</time>
      </trkpt>
      <trkpt lat="39.8751015" lon="116.6696867">
        <ele>22.74459</ele>
        <time>2026-09-01T23:05:24.537000Z</time>
      </trkpt>
      <trkpt lat="39.8752065" lon="116.6696415">
        <ele>22.87076</ele>
        <time>2026-09-01T23:05:28.518000Z</time>
      </trkpt>
      <trkpt lat="39.8753038" lon="116.6695682">
        <ele>22.95466</ele>
        <time>2026-09-01T23:05:32.499000Z</time>
      </trkpt>
      <trkpt lat="39.8754121" lon="116.6695258">
        <ele>22.99923</ele>
        <time>2026-09-01T23:05:36.480000Z</time>
      </trkpt>
      <trkpt lat="39.875522" lon="116.6694911">
        <ele>23.05485</ele>
        <time>2026-09-01T23:05:40.461000Z</time>
      </trkpt>
      <trkpt lat="39.875617" lon="116.6694095">
        <ele>23.15692</ele>
        <time>2026-09-01T23:05:44.442000Z</time>
      </trkpt>
      <trkpt lat="39.8756732" lon="116.6692837">
        <ele>23.26518</ele>
        <time>2026-09-01T23:05:48.423000Z</time>
      </trkpt>
      <trkpt lat="39.8756812" lon="116.6691411">
        <ele>23.31805</ele>
        <time>2026-09-01T23:05:52.404000Z</time>
      </trkpt>
      <trkpt lat="39.8756539" lon="116.6690056">
        <ele>23.28042</ele>
        <time>2026-09-01T23:05:56.385000Z</time>
      </trkpt>
      <trkpt lat="39.8755956" lon="116.668882">
        <ele>23.19314</ele>
        <time>2026-09-01T23:06:00.366000Z</time>
      </trkpt>
      <trkpt lat="39.8755247" lon="116.6687655">
        <ele>23.14168</ele>
        <time>2026-09-01T23:06:04.347000Z</time>
      </trkpt>
      <trkpt lat="39.8754406" lon="116.668656">
        <ele>23.13959</ele>
        <time>2026-09-01T23:06:08.328000Z</time>
      </trkpt>
      <trkpt lat="39.8753807" lon="116.6685686">
        <ele>23.14945</ele>
        <time>2026-09-01T23:06:11.313000Z</time>
      </trkpt>
      <trkpt lat="39.8753222" lon="116.6684366">
        <ele>23.11838</ele>
        <time>2026-09-01T23:06:15.294000Z</time>
      </trkpt>
      <trkpt lat="39.8752829" lon="116.6682969">
        <ele>23.0052</ele>
        <time>2026-09-01T23:06:19.275000Z</time>
      </trkpt>
      <trkpt lat="39.8752569" lon="116.6681827">
        <ele>22.91388</ele>
        <time>2026-09-01T23:06:22.261000Z</time>
      </trkpt>
      <trkpt lat="39.875227" lon="116.6680692">
        <ele>22.83067</ele>
        <time>2026-09-01T23:06:25.247000Z</time>
      </trkpt>
      <trkpt lat="39.8751903" lon="116.6679592">
        <ele>22.72819</ele>
        <time>2026-09-01T23:06:28.232000Z</time>
      </trkpt>
      <trkpt lat="39.8751473" lon="116.6678551">
        <ele>22.59204</ele>
        <time>2026-09-01T23:06:31.218000Z</time>
      </trkpt>
      <trkpt lat="39.8750959" lon="116.6677572">
        <ele>22.41781</ele>
        <time>2026-09-01T23:06:34.204000Z</time>
      </trkpt>
      <trkpt lat="39.8750173" lon="116.6676432">
        <ele>22.14063</ele>
        <time>2026-09-01T23:06:38.185000Z</time>
      </trkpt>
      <trkpt lat="39.8749242" lon="116.6675712">
        <ele>21.8736</ele>
        <time>2026-09-01T23:06:42Z</time>
      </trkpt>
      <trkpt lat="39.8748074" lon="116.6675395">
        <ele>21.70381</ele>
        <time>2026-09-01T23:06:46Z</time>
      </trkpt>
      <trkpt lat="39.8747153" lon="116.667516">
        <ele>21.6541</ele>
        <time>2026-09-01T23:06:49Z</time>
      </trkpt>
      <trkpt lat="39.8746201" lon="116.667498">
        <ele>21.63397</ele>
        <time>2026-09-01T23:06:52Z</time>
      </trkpt>
      <trkpt lat="39.8745236" lon="116.6674943">
        <ele>21.61221</ele>
        <time>2026-09-01T23:06:55Z</time>
      </trkpt>
      <trkpt lat="39.8744283" lon="116.6675101">
        <ele>21.56432</ele>
        <time>2026-09-01T23:06:58Z</time>
      </trkpt>
      <trkpt lat="39.8743357" lon="116.6675466">
        <ele>21.49355</ele>
        <time>2026-09-01T23:07:01Z</time>
      </trkpt>
      <trkpt lat="39.8742462" lon="116.6675995">
        <ele>21.4317</ele>
        <time>2026-09-01T23:07:04Z</time>
      </trkpt>
      <trkpt lat="39.874158" lon="116.66766">
        <ele>21.41257</ele>
        <time>2026-09-01T23:07:07Z</time>
      </trkpt>
      <trkpt lat="39.8740705" lon="116.6677196">
        <ele>21.40631</ele>
        <time>2026-09-01T23:07:10Z</time>
      </trkpt>
      <trkpt lat="39.8739776" lon="116.6677663">
        <ele>21.36981</ele>
        <time>2026-09-01T23:07:13Z</time>
      </trkpt>
      <trkpt lat="39.8738818" lon="116.6677894">
        <ele>21.33677</ele>
        <time>2026-09-01T23:07:16Z</time>
      </trkpt>
      <trkpt lat="39.8737854" lon="116.6677924">
        <ele>21.34014</ele>
        <time>2026-09-01T23:07:18.989000Z</time>
      </trkpt>
      <trkpt lat="39.8736912" lon="116.667779">
        <ele>21.3632</ele>
        <time>2026-09-01T23:07:21.975000Z</time>
      </trkpt>
      <trkpt lat="39.8735958" lon="116.6677569">
        <ele>21.40282</ele>
        <time>2026-09-01T23:07:24.961000Z</time>
      </trkpt>
      <trkpt lat="39.8734976" lon="116.6677409">
        <ele>21.47885</ele>
        <time>2026-09-01T23:07:27.946000Z</time>
      </trkpt>
      <trkpt lat="39.8733971" lon="116.6677434">
        <ele>21.59736</ele>
        <time>2026-09-01T23:07:30.932000Z</time>
      </trkpt>
      <trkpt lat="39.8733004" lon="116.6677701">
        <ele>21.74291</ele>
        <time>2026-09-01T23:07:33.918000Z</time>
      </trkpt>
      <trkpt lat="39.8732089" lon="116.6678108">
        <ele>21.89958</ele>
        <time>2026-09-01T23:07:36.904000Z</time>
      </trkpt>
      <trkpt lat="39.8731156" lon="116.66784">
        <ele>22.05534</ele>
        <time>2026-09-01T23:07:39.889000Z</time>
      </trkpt>
      <trkpt lat="39.8730183" lon="116.6678436">
        <ele>22.19504</ele>
        <time>2026-09-01T23:07:42.875000Z</time>
      </trkpt>
      <trkpt lat="39.8729222" lon="116.6678229">
        <ele>22.31157</ele>
        <time>2026-09-01T23:07:45.861000Z</time>
      </trkpt>
      <trkpt lat="39.8728299" lon="116.6677928">
        <ele>22.3921</ele>
        <time>2026-09-01T23:07:48.846000Z</time>
      </trkpt>
      <trkpt lat="39.8727167" lon="116.667798">
        <ele>22.43771</ele>
        <time>2026-09-01T23:07:52.827000Z</time>
      </trkpt>
      <trkpt lat="39.8726166" lon="116.6678672">
        <ele>22.42803</ele>
        <time>2026-09-01T23:07:56.808000Z</time>
      </trkpt>
      <trkpt lat="39.8725617" lon="116.667981">
        <ele>22.35018</ele>
        <time>2026-09-01T23:08:00.799000Z</time>
      </trkpt>
      <trkpt lat="39.872547" lon="116.6681304">
        <ele>22.22783</ele>
        <time>2026-09-01T23:08:04.799000Z</time>
      </trkpt>
    </trkseg>
  </trk>
</gpx>