<?xml version="1.0" encoding="UTF-8"?>
<gpx xmlns="http://www.topografix.com/GPX/1/1" xmlns:gpxtpx="http://www.garmin.com/xmlschemas/TrackPointExtension/v1" xmlns:xsi="http://www.w3.org/2001/XMLSchema-instance" xsi:schemaLocation="http://www.topografix.com/GPX/1/1 http://www.topografix.com/GPX/1/1/gpx.xsd" version="1.1" creator="gpx.py -- https://github.com/tkrajina/gpxpy">
  <trk>
    <name>gpx from codoon</name>
    <type>Run</type>
    <trkseg>
      <trkpt lat="39.8733989" lon="116.6658599">
        <ele>22.28893</ele>
        <time>2026-09-03T22:41:36Z</time>
      </trkpt>
      <trkpt lat="39.8734892" lon="116.6658886">
        <ele>22.25699</ele>
        <time>2026-09-03T22:41:41.503000Z</time>
      </trkpt>
      <trkpt lat="39.873582" lon="116.665872">
        <ele>22.25352</ele>
        <time>2026-09-03T22:41:45.484000Z</time>
      </trkpt>
      <trkpt lat="39.8736748" lon="116.665814">
        <ele>22.31209</ele>
        <time>2026-09-03T22:41:49.466000Z</time>
      </trkpt>
      <trkpt lat="39.8737726" lon="116.6657426">
        <ele>22.45959</ele>
        <time>2026-09-03T22:41:53.447000Z</time>
      </trkpt>
      <trkpt lat="39.8738752" lon="116.6656727">
        <ele>22.67103</ele>
        <time>2026-09-03T22:41:57.428000Z</time>
      </trkpt>
      <trkpt lat="39.8739808" lon="116.6656119">
        <ele>22.90486</ele>
        <time>2026-09-03T22:42:01.409000Z</time>
      </trkpt>
      <trkpt lat="39.8740909" lon="116.6655743">
        <ele>23.1623</ele>
        <time>2026-09-03T22:42:05.391000Z</time>
      </trkpt>
      <trkpt lat="39.8741964" lon="116.6655356">
        <ele>23.43982</ele>
        <time>2026-09-03T22:42:09.372000Z</time>
      </trkpt>
      <trkpt lat="39.8742973" lon="116.6654926">
        <ele>23.64604</ele>
        <time>2026-09-03T22:42:13.353000Z</time>
      </trkpt>
      <trkpt lat="39.8743945" lon="116.6654686">
        <ele>23.75085</ele>
        <time>2026-09-03T22:42:17.335000Z</time>
      </trkpt>
      <trkpt lat="39.8744764" lon="116.6655393">
        <ele>23.79706</ele>
        <time>2026-09-03T22:42:21.316000Z</time>
      </trkpt>
      <trkpt lat="39.8745317" lon="116.6656587">
        <ele>23.80415</ele>
        <time>2026-09-03T22:42:25.297000Z</time>
      </trkpt>
      <trkpt lat="39.8745835" lon="116.6657797">
        <ele>23.77446</ele>
        <time>2026-09-03T22:42:29.278000Z</time>
      </trkpt>
      <trkpt lat="39.8746384" lon="116.6659003">
        <ele>23.69223</ele>
        <time>2026-09-03T22:42:33.260000Z</time>
      </trkpt>
      <trkpt lat="39.8746903" lon="116.6660226">
        <ele>23.57205</ele>
        <time>2026-09-03T22:42:37.241000Z</time>
      </trkpt>
      <trkpt lat="39.8747444" lon="116.666141">
        <ele>23.48118</ele>
        <time>2026-09-03T22:42:41.222000Z</time>
      </trkpt>
      <trkpt lat="39.8748035" lon="116.6662552">
        <ele>23.47663</ele>
        <time>2026-09-03T22:42:45.203000Z</time>
      </trkpt>
      <trkpt lat="39.8748661" lon="116.6663601">
        <ele>23.5146</ele>
        <time>2026-09-03T22:42:49Z</time>
      </trkpt>
      <trkpt lat="39.8749329" lon="116.6664682">
        <ele>23.51831</ele>
        <time>2026-09-03T22:42:53Z</time>
      </trkpt>
      <trkpt lat="39.8749982" lon="116.6665831">
        <ele>23.55171</ele>
        <time>2026-09-03T22:42:57Z</time>
      </trkpt>
      <trkpt lat="39.8750627" lon="116.6666982">
        <ele>23.63399</ele>
        <time>2026-09-03T22:43:01Z</time>
      </trkpt>
      <trkpt lat="39.8751275" lon="116.6668066">
        <ele>23.65683</ele>
        <time>2026-09-03T22:43:05Z</time>
      </trkpt>
      <trkpt lat="39.8751967" lon="116.666912">
        <ele>23.61443</ele>
        <time>2026-09-03T22:43:09Z</time>
      </trkpt>
      <trkpt lat="39.8752674" lon="116.6670136">
        <ele>23.60272</ele>
        <time>2026-09-03T22:43:13Z</time>
      </trkpt>
      <trkpt lat="39.8753391" lon="116.6671098">
        <ele>23.63132</ele>
        <time>2026-09-03T22:43:17Z</time>
      </trkpt>
      <trkpt lat="39.8754115" lon="116.6672064">
        <ele>23.70557</ele>
        <time>2026-09-03T22:43:21Z</time>
      </trkpt>
      <trkpt lat="39.8754824" lon="116.6673058">
        <ele>23.77831</ele>
        <time>2026-09-03T22:43:25Z</time>
      </trkpt>
      <trkpt lat="39.8755517" lon="116.6674097">
        <ele>23.71297</ele>
        <time>2026-09-03T22:43:28.997000Z</time>
      </trkpt>
      <trkpt lat="39.8756215" lon="116.6675149">
        <ele>23.56512</ele>
        <time>2026-09-03T22:43:32.978000Z</time>
      </trkpt>
      <trkpt lat="39.875688" lon="116.667619">
        <ele>23.46988</ele>
        <time>2026-09-03T22:43:36.959000Z</time>
      </trkpt>
      <trkpt lat="39.8757412" lon="116.6677266">
        <ele>23.43715</ele>
        <time>2026-09-03T22:43:40.940000Z</time>
      </trkpt>
      <trkpt lat="39.8757912" lon="116.6678294">
        <ele>23.41762</ele>
        <time>2026-09-03T22:43:45.917000Z</time>
      </trkpt>
      <trkpt lat="39.8757279" lon="116.6679249">
        <ele>23.34785</ele>
        <time>2026-09-03T22:43:52.883000Z</time>
      </trkpt>
      <trkpt lat="39.8756748" lon="116.6680427">
        <ele>23.24654</ele>
        <time>2026-09-03T22:43:57.860000Z</time>
      </trkpt>
      <trkpt lat="39.8755965" lon="116.6681004">
        <ele>23.12026</ele>
        <time>2026-09-03T22:44:01.841000Z</time>
      </trkpt>
      <trkpt lat="39.8754992" lon="116.6680797">
        <ele>22.92814</ele>
        <time>2026-09-03T22:44:05.822000Z</time>
      </trkpt>
      <trkpt lat="39.8754113" lon="116.6680337">
        <ele>22.74979</ele>
        <time>2026-09-03T22:44:09.803000Z</time>
      </trkpt>
      <trkpt lat="39.8753161" lon="116.6679832">
        <ele>22.61684</ele>
        <time>2026-09-03T22:44:13.785000Z</time>
      </trkpt>
      <trkpt lat="39.8752351" lon="116.6679047">
        <ele>22.48168</ele>
        <time>2026-09-03T22:44:17.766000Z</time>
      </trkpt>
      <trkpt lat="39.8751721" lon="116.6677964">
        <ele>22.3235</ele>
        <time>2026-09-03T22:44:21.747000Z</time>
      </trkpt>
      <trkpt lat="39.8751037" lon="116.6676965">
        <ele>22.17641</ele>
        <time>2026-09-03T22:44:25.728000Z</time>
      </trkpt>
      <trkpt lat="39.8750225" lon="116.6676205">
        <ele>22.06188</ele>
        <time>2026-09-03T22:44:29.709000Z</time>
      </trkpt>
      <trkpt lat="39.8749256" lon="116.6675763">
        <ele>21.97266</ele>
        <time>2026-09-03T22:44:33.690000Z</time>
      </trkpt>
      <trkpt lat="39.8748233" lon="116.667546">
        <ele>21.90134</ele>
        <time>2026-09-03T22:44:37.672000Z</time>
      </trkpt>
      <trkpt lat="39.8747218" lon="116.6675166">
        <ele>21.86274</ele>
        <time>2026-09-03T22:44:41.653000Z</time>
      </trkpt>
      <trkpt lat="39.8746213" lon="116.6674931">
        <ele>21.86713</ele>
        <time>2026-09-03T22:44:45.634000Z</time>
      </trkpt>
      <trkpt lat="39.8745198" lon="116.6674913">
        <ele>21.90777</ele>
        <time>2026-09-03T22:44:49.615000Z</time>
      </trkpt>
      <trkpt lat="39.8744205" lon="116.6675136">
        <ele>21.94399</ele>
        <time>2026-09-03T22:44:53.596000Z</time>
      </trkpt>
      <trkpt lat="39.8743256" lon="116.6675581">
        <ele>21.92877</ele>
        <time>2026-09-03T22:44:57.577000Z</time>
      </trkpt>
      <trkpt lat="39.8742341" lon="116.6676137">
        <ele>21.85154</ele>
        <time>2026-09-03T22:45:01.558000Z</time>
      </trkpt>
      <trkpt lat="39.8741448" lon="116.6676778">
        <ele>21.73127</ele>
        <time>2026-09-03T22:45:05.539000Z</time>
      </trkpt>
      <trkpt lat="39.8740523" lon="116.6677396">
        <ele>21.59149</ele>
        <time>2026-09-03T22:45:09.520000Z</time>
      </trkpt>
      <trkpt lat="39.8739577" lon="116.667789">
        <ele>21.47039</ele>
        <time>2026-09-03T22:45:13.502000Z</time>
      </trkpt>
      <trkpt lat="39.8738584" lon="116.667815">
        <ele>21.39133</ele>
        <time>2026-09-03T22:45:17.483000Z</time>
      </trkpt>
      <trkpt lat="39.8737558" lon="116.6678101">
        <ele>21.35583</ele>
        <time>2026-09-03T22:45:21.464000Z</time>
      </trkpt>
      <trkpt lat="39.8736557" lon="116.6677861">
        <ele>21.34782</ele>
        <time>2026-09-03T22:45:25.445000Z</time>
      </trkpt>
      <trkpt lat="39.8735569" lon="116.6677551">
        <ele>21.35726</ele>
        <time>2026-09-03T22:45:29.426000Z</time>
      </trkpt>
      <trkpt lat="39.8734594" lon="116.6677319">
        <ele>21.40317</ele>
        <time>2026-09-03T22:45:33.407000Z</time>
      </trkpt>
      <trkpt lat="39.8733632" lon="116.6677437">
        <ele>21.50056</ele>
        <time>2026-09-03T22:45:37.388000Z</time>
      </trkpt>
      <trkpt lat="39.8732717" lon="116.6677914">
        <ele>21.62749</ele>
        <time>2026-09-03T22:45:41.369000Z</time>
      </trkpt>
      <trkpt lat="39.873182" lon="116.6678481">
        <ele>21.73509</ele>
        <time>2026-09-03T22:45:45.350000Z</time>
      </trkpt>
      <trkpt lat="39.8730834" lon="116.6678805">
        <ele>21.78102</ele>
        <time>2026-09-03T22:45:49.331000Z</time>
      </trkpt>
      <trkpt lat="39.8729847" lon="116.6678921">
        <ele>21.76556</ele>
        <time>2026-09-03T22:45:53.312000Z</time>
      </trkpt>
      <trkpt lat="39.8728836" lon="116.6678609">
        <ele>21.71301</ele>
        <time>2026-09-03T22:45:57.293000Z</time>
      </trkpt>
      <trkpt lat="39.8727885" lon="116.6678113">
        <ele>21.64179</ele>
        <time>2026-09-03T22:46:01.274000Z</time>
      </trkpt>
      <trkpt lat="39.8726927" lon="116.6677656">
        <ele>21.6032</ele>
        <time>2026-09-03T22:46:05.255000Z</time>
      </trkpt>
      <trkpt lat="39.8725963" lon="116.6677367">
        <ele>21.63116</ele>
        <time>2026-09-03T22:46:09.236000Z</time>
      </trkpt>
      <trkpt lat="39.8724983" lon="116.66773">
        <ele>21.70629</ele>
        <time>2026-09-03T22:46:13.217000Z</time>
      </trkpt>
      <trkpt lat="39.872398" lon="116.6677406">
        <ele>21.78489</ele>
        <time>2026-09-03T22:46:17.198000Z</time>
      </trkpt>
      <trkpt lat="39.8723004" lon="116.6677555">
        <ele>21.81559</ele>
        <time>2026-09-03T22:46:21Z</time>
      </trkpt>
      <trkpt lat="39.8721977" lon="116.6677677">
        <ele>21.80077</ele>
        <time>2026-09-03T22:46:25Z</time>
      </trkpt>
      <trkpt lat="39.872096" lon="116.6677621">
        <ele>21.75239</ele>
        <time>2026-09-03T22:46:29Z</time>
      </trkpt>
      <trkpt lat="39.8719933" lon="116.6677407">
        <ele>21.70374</ele>
        <time>2026-09-03T22:46:33Z</time>
      </trkpt>
      <trkpt lat="39.8718972" lon="116.6677061">
        <ele>21.68664</ele>
        <time>2026-09-03T22:46:37Z</time>
      </trkpt>
      <trkpt lat="39.8718036" lon="116.6676578">
        <ele>21.65702</ele>
        <time>2026-09-03T22:46:41Z</time>
      </trkpt>
      <trkpt lat="39.8717111" lon="116.6676078">
        <ele>21.59697</ele>
        <time>2026-09-03T22:46:45Z</time>
      </trkpt>
      <trkpt lat="39.8716161" lon="116.667568">
        <ele>21.48967</ele>
        <time>2026-09-03T22:46:49Z</time>
      </trkpt>
      <trkpt lat="39.8715217" lon="116.6675421">
        <ele>21.34059</ele>
        <time>2026-09-03T22:46:53Z</time>
      </trkpt>
      <trkpt lat="39.8714259" lon="116.6675259">
        <ele>21.1922</ele>
        <time>2026-09-03T22:46:57Z</time>
      </trkpt>
      <trkpt lat="39.871334" lon="116.6675213">
        <ele>21.03895</ele>
        <time>2026-09-03T22:47:00.990000Z</time>
      </trkpt>
      <trkpt lat="39.8712391" lon="116.6675245">
        <ele>20.87206</ele>
        <time>2026-09-03T22:47:04.971000Z</time>
      </trkpt>
      <trkpt lat="39.8711431" lon="116.667543">
        <ele>20.68499</ele>
        <time>2026-09-03T22:47:08.951000Z</time>
      </trkpt>
      <trkpt lat="39.8710433" lon="116.6676055">
        <ele>20.44258</ele>
        <time>2026-09-03T22:47:13.928000Z</time>
      </trkpt>
      <trkpt lat="39.870998" lon="116.6677113">
        <ele>20.31294</ele>
        <time>2026-09-03T22:47:17.909000Z</time>
      </trkpt>
      <trkpt lat="39.8709546" lon="116.667824">
        <ele>20.28272</ele>
        <time>2026-09-03T22:47:21.890000Z</time>
      </trkpt>
      <trkpt lat="39.8708544" lon="116.66789">
        <ele>20.32265</ele>
        <time>2026-09-03T22:47:26.866000Z</time>
      </trkpt>
      <trkpt lat="39.870761" lon="116.6678935">
        <ele>20.38735</ele>
        <time>2026-09-03T22:47:30.847000Z</time>
      </trkpt>
      <trkpt lat="39.8706662" lon="116.6678848">
        <ele>20.49878</ele>
        <time>2026-09-03T22:47:34.828000Z</time>
      </trkpt>
      <trkpt lat="39.87057" lon="116.6678822">
        <ele>20.64852</ele>
        <time>2026-09-03T22:47:38.809000Z</time>
      </trkpt>
      <trkpt lat="39.8704734" lon="116.6678742">
        <ele>20.80925</ele>
        <time>2026-09-03T22:47:42.790000Z</time>
      </trkpt>
      <trkpt lat="39.8703776" lon="116.6678475">
        <ele>20.93028</ele>
        <time>2026-09-03T22:47:46.771000Z</time>
      </trkpt>
      <trkpt lat="39.8702861" lon="116.6678035">
        <ele>20.98346</ele>
        <time>2026-09-03T22:47:50.752000Z</time>
      </trkpt>
      <trkpt lat="39.8701921" lon="116.6677857">
        <ele>20.96997</ele>
        <time>2026-09-03T22:47:54.733000Z</time>
      </trkpt>
      <trkpt lat="39.870096" lon="116.6677969">
        <ele>20.89949</ele>
        <time>2026-09-03T22:47:58.714000Z</time>
      </trkpt>
      <trkpt lat="39.8699973" lon="116.6677906">
        <ele>20.79749</ele>
        <time>2026-09-03T22:48:02.695000Z</time>
      </trkpt>
      <trkpt lat="39.8698982" lon="116.667776">
        <ele>20.69152</ele>
        <time>2026-09-03T22:48:06.675000Z</time>
      </trkpt>
      <trkpt lat="39.8698018" lon="116.667758">
        <ele>20.59512</ele>
        <time>2026-09-03T22:48:10.656000Z</time>
      </trkpt>
      <trkpt lat="39.8697059" lon="116.6677502">
        <ele>20.52864</ele>
        <time>2026-09-03T22:48:14.637000Z</time>
      </trkpt>
      <trkpt lat="39.8696136" lon="116.6677707">
        <ele>20.53561</ele>
        <time>2026-09-03T22:48:18.618000Z</time>
      </trkpt>
      <trkpt lat="39.8695322" lon="116.667824">
        <ele>20.64802</ele>
        <time>2026-09-03T22:48:22.599000Z</time>
      </trkpt>
      <trkpt lat="39.8694747" lon="116.6679445">
        <ele>20.91628</ele>
        <time>2026-09-03T22:48:27.575000Z</time>
      </trkpt>
      <trkpt lat="39.8694661" lon="116.6680612">
        <ele>21.1337</ele>
        <time>2026-09-03T22:48:31.556000Z</time>
      </trkpt>
      <trkpt lat="39.8694833" lon="116.6681764">
        <ele>21.27387</ele>
        <time>2026-09-03T22:48:35.537000Z</time>
      </trkpt>
      <trkpt lat="39.8695194" lon="116.6682843">
        <ele>21.32526</ele>
        <time>2026-09-03T22:48:39.518000Z</time>
      </trkpt>
      <trkpt lat="39.8696019" lon="116.6683707">
        <ele>21.26965</ele>
        <time>2026-09-03T22:48:44.494000Z</time>
      </trkpt>
      <trkpt lat="39.8697102" lon="116.6683698">
        <ele>21.12902</ele>
        <time>2026-09-03T22:48:49.470000Z</time>
      </trkpt>
      <trkpt lat="39.8697986" lon="116.6683342">
        <ele>21.05867</ele>
        <time>2026-09-03T22:48:53.451000Z</time>
      </trkpt>
      <trkpt lat="39.869889" lon="116.6682981">
        <ele>21.06151</ele>
        <time>2026-09-03T22:48:57.432000Z</time>
      </trkpt>
      <trkpt lat="39.869982" lon="116.6682801">
        <ele>21.10767</ele>
        <time>2026-09-03T22:49:01.413000Z</time>
      </trkpt>
      <trkpt lat="39.8700766" lon="116.6682777">
        <ele>21.14695</ele>
        <time>2026-09-03T22:49:05.394000Z</time>
      </trkpt>
      <trkpt lat="39.8701864" lon="116.6682514">
        <ele>21.15804</ele>
        <time>2026-09-03T22:49:10.370000Z</time>
      </trkpt>
      <trkpt lat="39.870277" lon="116.6682041">
        <ele>21.12265</ele>
        <time>2026-09-03T22:49:14.351000Z</time>
      </trkpt>
      <trkpt lat="39.8703659" lon="116.668141">
        <ele>21.02558</ele>
        <time>2026-09-03T22:49:18.332000Z</time>
      </trkpt>
      <trkpt lat="39.8704533" lon="116.6680847">
        <ele>20.89264</ele>
        <time>2026-09-03T22:49:22.313000Z</time>
      </trkpt>
      <trkpt lat="39.8705479" lon="116.6680627">
        <ele>20.76058</ele>
        <time>2026-09-03T22:49:26.294000Z</time>
      </trkpt>
      <trkpt lat="39.8706457" lon="116.6680837">
        <ele>20.64561</ele>
        <time>2026-09-03T22:49:30.275000Z</time>
      </trkpt>
      <trkpt lat="39.8707415" lon="116.6681202">
        <ele>20.55905</ele>
        <time>2026-09-03T22:49:34.256000Z</time>
      </trkpt>
      <trkpt lat="39.8708397" lon="116.6681436">
        <ele>20.52525</ele>
        <time>2026-09-03T22:49:38.237000Z</time>
      </trkpt>
      <trkpt lat="39.8709443" lon="116.6681424">
        <ele>20.54454</ele>
        <time>2026-09-03T22:49:42.217000Z</time>
      </trkpt>
      <trkpt lat="39.871045" lon="116.668114">
        <ele>20.56959</ele>
        <time>2026-09-03T22:49:46.198000Z</time>
      </trkpt>
      <trkpt lat="39.8711369" lon="116.6680546">
        <ele>20.53958</ele>
        <time>2026-09-03T22:49:50.179000Z</time>
      </trkpt>
      <trkpt lat="39.8712208" lon="116.6679916">
        <ele>20.50797</ele>
        <time>2026-09-03T22:49:54Z</time>
      </trkpt>
      <trkpt lat="39.8713116" lon="116.6679503">
        <ele>20.5847</ele>
        <time>2026-09-03T22:49:58Z</time>
      </trkpt>
      <trkpt lat="39.8714094" lon="116.6679413">
        <ele>20.73357</ele>
        <time>2026-09-03T22:50:02Z</time>
      </trkpt>
      <trkpt lat="39.8715049" lon="116.6679577">
        <ele>20.87123</ele>
        <time>2026-09-03T22:50:06Z</time>
      </trkpt>
      <trkpt lat="39.8715971" lon="116.6679936">
        <ele>21.01455</ele>
        <time>2026-09-03T22:50:10Z</time>
      </trkpt>
      <trkpt lat="39.8716854" lon="116.6680528">
        <ele>21.16156</ele>
        <time>2026-09-03T22:50:14Z</time>
      </trkpt>
      <trkpt lat="39.8717723" lon="116.6681144">
        <ele>21.2307</ele>
        <time>2026-09-03T22:50:18Z</time>
      </trkpt>
      <trkpt lat="39.8718621" lon="116.668166">
        <ele>21.22746</ele>
        <time>2026-09-03T22:50:22Z</time>
      </trkpt>
      <trkpt lat="39.8719596" lon="116.6681935">
        <ele>21.1918</ele>
        <time>2026-09-03T22:50:26Z</time>
      </trkpt>
      <trkpt lat="39.8720606" lon="116.6681976">
        <ele>21.1389</ele>
        <time>2026-09-03T22:50:29.988000Z</time>
      </trkpt>
      <trkpt lat="39.8721589" lon="116.6681982">
        <ele>21.09601</ele>
        <time>2026-09-03T22:50:33.969000Z</time>
      </trkpt>
      <trkpt lat="39.8722567" lon="116.668216">
        <ele>21.10543</ele>
        <time>2026-09-03T22:50:37.950000Z</time>
      </trkpt>
      <trkpt lat="39.872346" lon="116.6682659">
        <ele>21.17327</ele>
        <time>2026-09-03T22:50:41.931000Z</time>
      </trkpt>
      <trkpt lat="39.8724273" lon="116.6683412">
        <ele>21.26532</ele>
        <time>2026-09-03T22:50:45.911000Z</time>
      </trkpt>
      <trkpt lat="39.8724977" lon="116.6684349">
        <ele>21.32452</ele>
        <time>2026-09-03T22:50:49.892000Z</time>
      </trkpt>
      <trkpt lat="39.8725519" lon="116.6685479">
        <ele>21.33875</ele>
        <time>2026-09-03T22:50:53.873000Z</time>
      </trkpt>
      <trkpt lat="39.8725886" lon="116.6686715">
        <ele>21.32635</ele>
        <time>2026-09-03T22:50:57.854000Z</time>
      </trkpt>
      <trkpt lat="39.8726041" lon="116.6687998">
        <ele>21.32267</ele>
        <time>2026-09-03T22:51:01.835000Z</time>
      </trkpt>
      <trkpt lat="39.8726016" lon="116.6689284">
        <ele>21.35202</ele>
        <time>2026-09-03T22:51:05.816000Z</time>
      </trkpt>
      <trkpt lat="39.8725756" lon="116.6690548">
        <ele>21.41031</ele>
        <time>2026-09-03T22:51:09.796000Z</time>
      </trkpt>
      <trkpt lat="39.8725377" lon="116.6691754">
        <ele>21.45828</ele>
        <time>2026-09-03T22:51:13.777000Z</time>
      </trkpt>
      <trkpt lat="39.8725057" lon="116.6692934">
        <ele>21.49311</ele>
        <time>2026-09-03T22:51:17.758000Z</time>
      </trkpt>
      <trkpt lat="39.8724888" lon="116.6694141">
        <ele>21.50828</ele>
        <time>2026-09-03T22:51:21.739000Z</time>
      </trkpt>
      <trkpt lat="39.8724806" lon="116.669536">
        <ele>21.50821</ele>
        <time>2026-09-03T22:51:25.720000Z</time>
      </trkpt>
      <trkpt lat="39.8724875" lon="116.669654">
        <ele>21.51832</ele>
        <time>2026-09-03T22:51:29.701000Z</time>
      </trkpt>
      <trkpt lat="39.8725114" lon="116.6697736">
        <ele>21.52687</ele>
        <time>2026-09-03T22:51:33.682000Z</time>
      </trkpt>
      <trkpt lat="39.8725565" lon="116.6698849">
        <ele>21.5365</ele>
        <time>2026-09-03T22:51:37.662000Z</time>
      </trkpt>
      <trkpt lat="39.8726221" lon="116.6699723">
        <ele>21.55</ele>
        <time>2026-09-03T22:51:41.643000Z</time>
      </trkpt>
      <trkpt lat="39.8726975" lon="116.6700433">
        <ele>21.54297</ele>
        <time>2026-09-03T22:51:45.624000Z</time>
      </trkpt>
      <trkpt lat="39.8727804" lon="116.6701006">
        <ele>21.51533</ele>
        <time>2026-09-03T22:51:49.605000Z</time>
      </trkpt>
      <trkpt lat="39.8728697" lon="116.670143">
        <ele>21.48524</ele>
        <time>2026-09-03T22:51:53.586000Z</time>
      </trkpt>
      <trkpt lat="39.872965" lon="116.6701615">
        <ele>21.44244</ele>
        <time>2026-09-03T22:51:57.566000Z</time>
      </trkpt>
      <trkpt lat="39.8730596" lon="116.6701683">
        <ele>21.38347</ele>
        <time>2026-09-03T22:52:01.547000Z</time>
      </trkpt>
      <trkpt lat="39.8731509" lon="116.6701522">
        <ele>21.34561</ele>
        <time>2026-09-03T22:52:05.528000Z</time>
      </trkpt>
      <trkpt lat="39.8732387" lon="116.6701249">
        <ele>21.3359</ele>
        <time>2026-09-03T22:52:09.509000Z</time>
      </trkpt>
      <trkpt lat="39.873326" lon="116.6700941">
        <ele>21.34643</ele>
        <time>2026-09-03T22:52:13.490000Z</time>
      </trkpt>
      <trkpt lat="39.873427" lon="116.670035">
        <ele>21.34954</ele>
        <time>2026-09-03T22:52:18.466000Z</time>
      </trkpt>
      <trkpt lat="39.8735162" lon="116.6699486">
        <ele>21.31472</ele>
        <time>2026-09-03T22:52:23.442000Z</time>
      </trkpt>
      <trkpt lat="39.8735864" lon="116.6698749">
        <ele>21.2837</ele>
        <time>2026-09-03T22:52:27.423000Z</time>
      </trkpt>
      <trkpt lat="39.8736655" lon="116.6698177">
        <ele>21.25844</ele>
        <time>2026-09-03T22:52:31.403000Z</time>
      </trkpt>
      <trkpt lat="39.8737542" lon="116.6697911">
        <ele>21.23102</ele>
        <time>2026-09-03T22:52:35.384000Z</time>
      </trkpt>
      <trkpt lat="39.8738647" lon="116.6697955">
        <ele>21.15826</ele>
        <time>2026-09-03T22:52:40.360000Z</time>
      </trkpt>
      <trkpt lat="39.8739708" lon="116.6698142">
        <ele>21.11149</ele>
        <time>2026-09-03T22:52:45.336000Z</time>
      </trkpt>
      <trkpt lat="39.8740619" lon="116.6698292">
        <ele>21.14862</ele>
        <time>2026-09-03T22:52:49.317000Z</time>
      </trkpt>
      <trkpt lat="39.8741533" lon="116.6698281">
        <ele>21.22126</ele>
        <time>2026-09-03T22:52:53.298000Z</time>
      </trkpt>
      <trkpt lat="39.8742421" lon="116.6697988">
        <ele>21.29185</ele>
        <time>2026-09-03T22:52:57.279000Z</time>
      </trkpt>
      <trkpt lat="39.8743218" lon="116.6697392">
        <ele>21.35689</ele>
        <time>2026-09-03T22:53:01.259000Z</time>
      </trkpt>
      <trkpt lat="39.8743872" lon="116.6696543">
        <ele>21.44393</ele>
        <time>2026-09-03T22:53:05.240000Z</time>
      </trkpt>
      <trkpt lat="39.8744494" lon="116.6695598">
        <ele>21.54019</ele>
        <time>2026-09-03T22:53:09.221000Z</time>
      </trkpt>
      <trkpt lat="39.8745262" lon="116.6694854">
        <ele>21.61852</ele>
        <time>2026-09-03T22:53:13.202000Z</time>
      </trkpt>
      <trkpt lat="39.8746188" lon="116.6694601">
        <ele>21.67673</ele>
        <time>2026-09-03T22:53:17Z</time>
      </trkpt>
      <trkpt lat="39.8747195" lon="116.6694758">
        <ele>21.7574</ele>
        <time>2026-09-03T22:53:21Z</time>
      </trkpt>
      <trkpt lat="39.8748174" lon="116.6695221">
        <ele>21.88167</ele>
        <time>2026-09-03T22:53:25Z</time>
      </trkpt>
      <trkpt lat="39.8749132" lon="116.6695838">
        <ele>22.09199</ele>
        <time>2026-09-03T22:53:29Z</time>
      </trkpt>
      <trkpt lat="39.8750067" lon="116.6696365">
        <ele>22.34609</ele>
        <time>2026-09-03T22:53:33Z</time>
      </trkpt>
      <trkpt lat="39.8751047" lon="116.6696523">
        <ele>22.5846</ele>
        <time>2026-09-03T22:53:37Z</time>
      </trkpt>
      <trkpt lat="39.8751969" lon="116.6696115">
        <ele>22.78422</ele>
        <time>2026-09-03T22:53:41.067000Z</time>
      </trkpt>
      <trkpt lat="39.8752816" lon="116.669549">
        <ele>22.91666</ele>
        <time>2026-09-03T22:53:45.048000Z</time>
      </trkpt>
      <trkpt lat="39.8753712" lon="116.6695041">
        <ele>23.01731</ele>
        <time>2026-09-03T22:53:49.029000Z</time>
      </trkpt>
      <trkpt lat="39.8754638" lon="116.6694758">
        <ele>23.13892</ele>
        <time>2026-09-03T22:53:53.009000Z</time>
      </trkpt>
      <trkpt lat="39.8755529" lon="116.6694319">
        <ele>23.25582</ele>
        <time>2026-09-03T22:53:56.990000Z</time>
      </trkpt>
      <trkpt lat="39.8756264" lon="116.6693573">
        <ele>23.34981</ele>
        <time>2026-09-03T22:54:00.971000Z</time>
      </trkpt>
      <trkpt lat="39.8756751" lon="116.6692531">
        <ele>23.38605</ele>
        <time>2026-09-03T22:54:04.952000Z</time>
      </trkpt>
      <trkpt lat="39.8756921" lon="116.6691311">
        <ele>23.31735</ele>
        <time>2026-09-03T22:54:08.932000Z</time>
      </trkpt>
      <trkpt lat="39.8756861" lon="116.6690128">
        <ele>23.1953</ele>
        <time>2026-09-03T22:54:12.913000Z</time>
      </trkpt>
      <trkpt lat="39.8756571" lon="116.6689018">
        <ele>23.08579</ele>
        <time>2026-09-03T22:54:16.894000Z</time>
      </trkpt>
      <trkpt lat="39.8756061" lon="116.6688046">
        <ele>23.0125</ele>
        <time>2026-09-03T22:54:20.875000Z</time>
      </trkpt>
      <trkpt lat="39.8755372" lon="116.6687257">
        <ele>22.96591</ele>
        <time>2026-09-03T22:54:24.855000Z</time>
      </trkpt>
      <trkpt lat="39.8754477" lon="116.6686381">
        <ele>22.91187</ele>
        <time>2026-09-03T22:54:29.831000Z</time>
      </trkpt>
      <trkpt lat="39.8753882" lon="116.6685462">
        <ele>22.84847</ele>
        <time>2026-09-03T22:54:33.812000Z</time>
      </trkpt>
      <trkpt lat="39.8753436" lon="116.668436">
        <ele>22.76596</ele>
        <time>2026-09-03T22:54:37.793000Z</time>
      </trkpt>
      <trkpt lat="39.875316" lon="116.6683165">
        <ele>22.68066</ele>
        <time>2026-09-03T22:54:41.773000Z</time>
      </trkpt>
      <trkpt lat="39.875295" lon="116.6681981">
        <ele>22.61296</ele>
        <time>2026-09-03T22:54:45.754000Z</time>
      </trkpt>
      <trkpt lat="39.8752678" lon="116.6680783">
        <ele>22.56067</ele>
        <time>2026-09-03T22:54:49.735000Z</time>
      </trkpt>
      <trkpt lat="39.8752323" lon="116.6679609">
        <ele>22.50341</ele>
        <time>2026-09-03T22:54:53.715000Z</time>
      </trkpt>
      <trkpt lat="39.8751878" lon="116.667848">
        <ele>22.44782</ele>
        <time>2026-09-03T22:54:57.696000Z</time>
      </trkpt>
      <trkpt lat="39.8751232" lon="116.6677462">
        <ele>22.41088</ele>
        <time>2026-09-03T22:55:01.677000Z</time>
      </trkpt>
      <trkpt lat="39.8750456" lon="116.6676576">
        <ele>22.40144</ele>
        <time>2026-09-03T22:55:05.658000Z</time>
      </trkpt>
      <trkpt lat="39.874962" lon="116.6675824">
        <ele>22.39503</ele>
        <time>2026-09-03T22:55:09.638000Z</time>
      </trkpt>
      <trkpt lat="39.8748728" lon="116.667536">
        <ele>22.3457</ele>
        <time>2026-09-03T22:55:13.619000Z</time>
      </trkpt>
      <trkpt lat="39.874783" lon="116.6675029">
        <ele>22.24853</ele>
        <time>2026-09-03T22:55:17.600000Z</time>
      </trkpt>
      <trkpt lat="39.8746932" lon="116.6674812">
        <ele>22.11916</ele>
        <time>2026-09-03T22:55:21.580000Z</time>
      </trkpt>
      <trkpt lat="39.8745822" lon="116.6674919">
        <ele>21.97263</ele>
        <time>2026-09-03T22:55:26.556000Z</time>
      </trkpt>
      <trkpt lat="39.874489" lon="116.6675082">
        <ele>21.89022</ele>
        <time>2026-09-03T22:55:30.537000Z</time>
      </trkpt>
      <trkpt lat="39.8743938" lon="116.6675353">
        <ele>21.82348</ele>
        <time>2026-09-03T22:55:34.518000Z</time>
      </trkpt>
      <trkpt lat="39.8742995" lon="116.6675774">
        <ele>21.77283</ele>
        <time>2026-09-03T22:55:38.499000Z</time>
      </trkpt>
      <trkpt lat="39.8742128" lon="116.6676324">
        <ele>21.73019</ele>
        <time>2026-09-03T22:55:42.479000Z</time>
      </trkpt>
      <trkpt lat="39.8741273" lon="116.6676958">
        <ele>21.68061</ele>
        <time>2026-09-03T22:55:46.460000Z</time>
      </trkpt>
      <trkpt lat="39.8740409" lon="116.6677536">
        <ele>21.61999</ele>
        <time>2026-09-03T22:55:50.441000Z</time>
      </trkpt>
      <trkpt lat="39.8739479" lon="116.6677971">
        <ele>21.55523</ele>
        <time>2026-09-03T22:55:54.422000Z</time>
      </trkpt>
      <trkpt lat="39.8738481" lon="116.6678131">
        <ele>21.486</ele>
        <time>2026-09-03T22:55:58.402000Z</time>
      </trkpt>
      <trkpt lat="39.873747" lon="116.6678141">
        <ele>21.41843</ele>
        <time>2026-09-03T22:56:02.383000Z</time>
      </trkpt>
      <trkpt lat="39.8736484" lon="116.6678005">
        <ele>21.38148</ele>
        <time>2026-09-03T22:56:06.364000Z</time>
      </trkpt>
      <trkpt lat="39.8735497" lon="116.6677689">
        <ele>21.4025</ele>
        <time>2026-09-03T22:56:10.345000Z</time>
      </trkpt>
      <trkpt lat="39.8734522" lon="116.6677422">
        <ele>21.45286</ele>
        <time>2026-09-03T22:56:14.326000Z</time>
      </trkpt>
      <trkpt lat="39.8733569" lon="116.6677523">
        <ele>21.51809</ele>
        <time>2026-09-03T22:56:18.306000Z</time>
      </trkpt>
      <trkpt lat="39.8732662" lon="116.6677984">
        <ele>21.58515</ele>
        <time>2026-09-03T22:56:22.287000Z</time>
      </trkpt>
      <trkpt lat="39.8731775" lon="116.6678464">
        <ele>21.62239</ele>
        <time>2026-09-03T22:56:26.268000Z</time>
      </trkpt>
      <trkpt lat="39.8730819" lon="116.6678667">
        <ele>21.60069</ele>
        <time>2026-09-03T22:56:30.249000Z</time>
      </trkpt>
      <trkpt lat="39.8729821" lon="116.6678649">
        <ele>21.58139</ele>
        <time>2026-09-03T22:56:34.230000Z</time>
      </trkpt>
      <trkpt lat="39.8728843" lon="116.6678422">
        <ele>21.65522</ele>
        <time>2026-09-03T22:56:38.211000Z</time>
      </trkpt>
      <trkpt lat="39.8727946" lon="116.6678004">
        <ele>21.77629</ele>
        <time>2026-09-03T22:56:42Z</time>
      </trkpt>
      <trkpt lat="39.8727008" lon="116.667764">
        <ele>21.84243</ele>
        <time>2026-09-03T22:56:46Z</time>
      </trkpt>
      <trkpt lat="39.8726033" lon="116.6677445">
        <ele>21.82861</ele>
        <time>2026-09-03T22:56:50Z</time>
      </trkpt>
      <trkpt lat="39.8725069" lon="116.6677409">
        <ele>21.79366</ele>
        <time>2026-09-03T22:56:54Z</time>
      </trkpt>
      <trkpt lat="39.87241" lon="116.6677515">
        <ele>21.74905</ele>
        <time>2026-09-03T22:56:58Z</time>
      </trkpt>
      <trkpt lat="39.8723101" lon="116.6677619">
        <ele>21.68825</ele>
        <time>2026-09-03T22:57:02Z</time>
      </trkpt>
      <trkpt lat="39.8722093" lon="116.6677711">
        <ele>21.58557</ele>
        <time>2026-09-03T22:57:06Z</time>
      </trkpt>
      <trkpt lat="39.8721106" lon="116.6677666">
        <ele>21.50031</ele>
        <time>2026-09-03T22:57:10Z</time>
      </trkpt>
      <trkpt lat="39.8720138" lon="116.66774">
        <ele>21.44914</ele>
        <time>2026-09-03T22:57:14Z</time>
      </trkpt>
      <trkpt lat="39.8719205" lon="116.6677002">
        <ele>21.35046</ele>
        <time>2026-09-03T22:57:18Z</time>
      </trkpt>
      <trkpt lat="39.8718255" lon="116.6676533">
        <ele>21.16627</ele>
        <time>2026-09-03T22:57:21.999000Z</time>
      </trkpt>
      <trkpt lat="39.8717291" lon="116.6676099">
        <ele>20.94258</ele>
        <time>2026-09-03T22:57:25.980000Z</time>
      </trkpt>
      <trkpt lat="39.8716314" lon="116.6675723">
        <ele>20.78075</ele>
        <time>2026-09-03T22:57:29.961000Z</time>
      </trkpt>
      <trkpt lat="39.8715315" lon="116.6675439">
        <ele>20.69434</ele>
        <time>2026-09-03T22:57:33.941000Z</time>
      </trkpt>
      <trkpt lat="39.8714335" lon="116.6675332">
        <ele>20.64019</ele>
        <time>2026-09-03T22:57:37.922000Z</time>
      </trkpt>
      <trkpt lat="39.8713367" lon="116.6675392">
        <ele>20.56818</ele>
        <time>2026-09-03T22:57:41.903000Z</time>
      </trkpt>
      <trkpt lat="39.8712421" lon="116.6675524">
        <ele>20.46474</ele>
        <time>2026-09-03T22:57:45.884000Z</time>
      </trkpt>
      <trkpt lat="39.8711444" lon="116.6675682">
        <ele>20.32897</ele>
        <time>2026-09-03T22:57:49.864000Z</time>
      </trkpt>
      <trkpt lat="39.8710519" lon="116.6676039">
        <ele>20.20076</ele>
        <time>2026-09-03T22:57:53.845000Z</time>
      </trkpt>
      <trkpt lat="39.8709949" lon="116.667721">
        <ele>20.16635</ele>
        <time>2026-09-03T22:57:58.821000Z</time>
      </trkpt>
      <trkpt lat="39.8709541" lon="116.6678299">
        <ele>20.31361</ele>
        <time>2026-09-03T22:58:02.802000Z</time>
      </trkpt>
      <trkpt lat="39.8708696" lon="116.6678866">
        <ele>20.54279</ele>
        <time>2026-09-03T22:58:06.783000Z</time>
      </trkpt>
      <trkpt lat="39.8707647" lon="116.6678905">
        <ele>20.74729</ele>
        <time>2026-09-03T22:58:10.763000Z</time>
      </trkpt>
      <trkpt lat="39.870661" lon="116.6678826">
        <ele>20.90354</ele>
        <time>2026-09-03T22:58:14.744000Z</time>
      </trkpt>
      <trkpt lat="39.8705601" lon="116.6678763">
        <ele>21.02107</ele>
        <time>2026-09-03T22:58:18.725000Z</time>
      </trkpt>
      <trkpt lat="39.8704628" lon="116.6678693">
        <ele>21.11788</ele>
        <time>2026-09-03T22:58:22.706000Z</time>
      </trkpt>
      <trkpt lat="39.8703692" lon="116.6678367">
        <ele>21.19706</ele>
        <time>2026-09-03T22:58:26.686000Z</time>
      </trkpt>
      <trkpt lat="39.8702818" lon="116.6677807">
        <ele>21.23556</ele>
        <time>2026-09-03T22:58:30.667000Z</time>
      </trkpt>
      <trkpt lat="39.8701895" lon="116.6677555">
        <ele>21.21814</ele>
        <time>2026-09-03T22:58:34.648000Z</time>
      </trkpt>
      <trkpt lat="39.8700989" lon="116.667757">
        <ele>21.1647</ele>
        <time>2026-09-03T22:58:38.628000Z</time>
      </trkpt>
      <trkpt lat="39.8700028" lon="116.6677514">
        <ele>21.08045</ele>
        <time>2026-09-03T22:58:42.609000Z</time>
      </trkpt>
      <trkpt lat="39.8699033" lon="116.6677388">
        <ele>20.99522</ele>
        <time>2026-09-03T22:58:46.590000Z</time>
      </trkpt>
      <trkpt lat="39.8698044" lon="116.6677197">
        <ele>20.94649</ele>
        <time>2026-09-03T22:58:50.571000Z</time>
      </trkpt>
      <trkpt lat="39.8697065" lon="116.6677145">
        <ele>20.94898</ele>
        <time>2026-09-03T22:58:54.551000Z</time>
      </trkpt>
      <trkpt lat="39.8696111" lon="116.6677379">
        <ele>20.99647</ele>
        <time>2026-09-03T22:58:58.532000Z</time>
      </trkpt>
      <trkpt lat="39.869528" lon="116.6678031">
        <ele>21.09993</ele>
        <time>2026-09-03T22:59:02.513000Z</time>
      </trkpt>
      <trkpt lat="39.8694764" lon="116.6679058">
        <ele>21.26079</ele>
        <time>2026-09-03T22:59:06.494000Z</time>
      </trkpt>
      <trkpt lat="39.8694622" lon="116.6680317">
        <ele>21.45836</ele>
        <time>2026-09-03T22:59:10.474000Z</time>
      </trkpt>
      <trkpt lat="39.8694787" lon="116.6681578">
        <ele>21.66466</ele>
        <time>2026-09-03T22:59:14.455000Z</time>
      </trkpt>
      <trkpt lat="39.8695172" lon="116.6682764">
        <ele>21.82468</ele>
        <time>2026-09-03T22:59:18.436000Z</time>
      </trkpt>
      <trkpt lat="39.869582" lon="116.6683736">
        <ele>21.83506</ele>
        <time>2026-09-03T22:59:22.417000Z</time>
      </trkpt>
      <trkpt lat="39.8696729" lon="116.6683973">
        <ele>21.71069</ele>
        <time>2026-09-03T22:59:26.397000Z</time>
      </trkpt>
      <trkpt lat="39.8697661" lon="116.6683758">
        <ele>21.54217</ele>
        <time>2026-09-03T22:59:30.378000Z</time>
      </trkpt>
      <trkpt lat="39.8698712" lon="116.6683269">
        <ele>21.35089</ele>
        <time>2026-09-03T22:59:35.354000Z</time>
      </trkpt>
      <trkpt lat="39.8699765" lon="116.6683002">
        <ele>21.19952</ele>
        <time>2026-09-03T22:59:40.330000Z</time>
      </trkpt>
      <trkpt lat="39.8700664" lon="116.6682936">
        <ele>21.07314</ele>
        <time>2026-09-03T22:59:44.311000Z</time>
      </trkpt>
      <trkpt lat="39.8701538" lon="116.6682578">
        <ele>20.93725</ele>
        <time>2026-09-03T22:59:48.292000Z</time>
      </trkpt>
      <trkpt lat="39.8702531" lon="116.6681863">
        <ele>20.8011</ele>
        <time>2026-09-03T22:59:53.267000Z</time>
      </trkpt>
      <trkpt lat="39.8703417" lon="116.6681241">
        <ele>20.74057</ele>
        <time>2026-09-03T22:59:57.248000Z</time>
      </trkpt>
      <trkpt lat="39.8704379" lon="116.6680821">
        <ele>20.73484</ele>
        <time>2026-09-03T23:00:01.229000Z</time>
      </trkpt>
      <trkpt lat="39.8705366" lon="116.6680775">
        <ele>20.8054</ele>
        <time>2026-09-03T23:00:05.210000Z</time>
      </trkpt>
      <trkpt lat="39.8706376" lon="116.6680932">
        <ele>20.93275</ele>
        <time>2026-09-03T23:00:09.190000Z</time>
      </trkpt>
      <trkpt lat="39.8707402" lon="116.6681088">
        <ele>21.04719</ele>
        <time>2026-09-03T23:00:13.171000Z</time>
      </trkpt>
      <trkpt lat="39.8708431" lon="116.6681108">
        <ele>21.12649</ele>
        <time>2026-09-03T23:00:17.152000Z</time>
      </trkpt>
      <trkpt lat="39.8709468" lon="116.6680895">
        <ele>21.20332</ele>
        <time>2026-09-03T23:00:21.133000Z</time>
      </trkpt>
      <trkpt lat="39.8710488" lon="116.6680539">
        <ele>21.25112</ele>
        <time>2026-09-03T23:00:25.113000Z</time>
      </trkpt>
      <trkpt lat="39.8711436" lon="116.6680085">
        <ele>21.19557</ele>
        <time>2026-09-03T23:00:29.094000Z</time>
      </trkpt>
      <trkpt lat="39.8712363" lon="116.6679595">
        <ele>21.01216</ele>
        <time>2026-09-03T23:00:33.075000Z</time>
      </trkpt>
      <trkpt lat="39.8713322" lon="116.667926">
        <ele>20.72602</ele>
        <time>2026-09-03T23:00:37.056000Z</time>
      </trkpt>
      <trkpt lat="39.8714308" lon="116.6679119">
        <ele>20.50347</ele>
        <time>2026-09-03T23:00:41Z</time>
      </trkpt>
      <trkpt lat="39.871531" lon="116.667931">
        <ele>20.47509</ele>
        <time>2026-09-03T23:00:45Z</time>
      </trkpt>
      <trkpt lat="39.8716282" lon="116.6679798">
        <ele>20.48748</ele>
        <time>2026-09-03T23:00:48.998000Z</time>
      </trkpt>
      <trkpt lat="39.8717172" lon="116.6680402">
        <ele>20.48711</ele>
        <time>2026-09-03T23:00:52.979000Z</time>
      </trkpt>
      <trkpt lat="39.8718091" lon="116.6681021">
        <ele>20.5176</ele>
        <time>2026-09-03T23:00:56.959000Z</time>
      </trkpt>
      <trkpt lat="39.8719069" lon="116.6681503">
        <ele>20.59813</ele>
        <time>2026-09-03T23:01:00.940000Z</time>
      </trkpt>
      <trkpt lat="39.8720034" lon="116.6681792">
        <ele>20.71492</ele>
        <time>2026-09-03T23:01:04.921000Z</time>
      </trkpt>
      <trkpt lat="39.872098" lon="116.668191">
        <ele>20.85999</ele>
        <time>2026-09-03T23:01:08.902000Z</time>
      </trkpt>
      <trkpt lat="39.8721911" lon="116.6681934">
        <ele>21.03214</ele>
        <time>2026-09-03T23:01:12.882000Z</time>
      </trkpt>
      <trkpt lat="39.8722843" lon="116.6682077">
        <ele>21.2034</ele>
        <time>2026-09-03T23:01:16.863000Z</time>
      </trkpt>
      <trkpt lat="39.8723744" lon="116.6682552">
        <ele>21.33709</ele>
        <time>2026-09-03T23:01:20.844000Z</time>
      </trkpt>
      <trkpt lat="39.8724566" lon="116.6683268">
        <ele>21.40452</ele>
        <time>2026-09-03T23:01:24.824000Z</time>
      </trkpt>
      <trkpt lat="39.8725213" lon="116.6684197">
        <ele>21.40912</ele>
        <time>2026-09-03T23:01:28.805000Z</time>
      </trkpt>
      <trkpt lat="39.8725693" lon="116.6685328">
        <ele>21.39538</ele>
        <time>2026-09-03T23:01:32.786000Z</time>
      </trkpt>
      <trkpt lat="39.8726025" lon="116.6686576">
        <ele>21.39341</ele>
        <time>2026-09-03T23:01:36.767000Z</time>
      </trkpt>
      <trkpt lat="39.8726158" lon="116.6687868">
        <ele>21.42528</ele>
        <time>2026-09-03T23:01:40.747000Z</time>
      </trkpt>
      <trkpt lat="39.8726082" lon="116.6689149">
        <ele>21.50796</ele>
        <time>2026-09-03T23:01:44.728000Z</time>
      </trkpt>
      <trkpt lat="39.8725873" lon="116.6690412">
        <ele>21.63659</ele>
        <time>2026-09-03T23:01:48.709000Z</time>
      </trkpt>
      <trkpt lat="39.8725602" lon="116.6691676">
        <ele>21.79996</ele>
        <time>2026-09-03T23:01:52.690000Z</time>
      </trkpt>
      <trkpt lat="39.8725377" lon="116.6692977">
        <ele>21.9627</ele>
        <time>2026-09-03T23:01:56.670000Z</time>
      </trkpt>
      <trkpt lat="39.8725216" lon="116.6694271">
        <ele>22.07013</ele>
        <time>2026-09-03T23:02:00.651000Z</time>
      </trkpt>
      <trkpt lat="39.8725167" lon="116.6695529">
        <ele>22.06834</ele>
        <time>2026-09-03T23:02:04.632000Z</time>
      </trkpt>
      <trkpt lat="39.8725274" lon="116.6696759">
        <ele>21.94648</ele>
        <time>2026-09-03T23:02:08.612000Z</time>
      </trkpt>
      <trkpt lat="39.8725532" lon="116.6697991">
        <ele>21.74856</ele>
        <time>2026-09-03T23:02:12.593000Z</time>
      </trkpt>
      <trkpt lat="39.8726012" lon="116.6699091">
        <ele>21.54876</ele>
        <time>2026-09-03T23:02:16.574000Z</time>
      </trkpt>
      <trkpt lat="39.8726651" lon="116.6699963">
        <ele>21.42521</ele>
        <time>2026-09-03T23:02:20.555000Z</time>
      </trkpt>
      <trkpt lat="39.872757" lon="116.6700759">
        <ele>21.38735</ele>
        <time>2026-09-03T23:02:25.531000Z</time>
      </trkpt>
      <trkpt lat="39.8728645" lon="116.6701216">
        <ele>21.42963</ele>
        <time>2026-09-03T23:02:30.507000Z</time>
      </trkpt>
      <trkpt lat="39.8729579" lon="116.6701451">
        <ele>21.43752</ele>
        <time>2026-09-03T23:02:34.487000Z</time>
      </trkpt>
      <trkpt lat="39.8730572" lon="116.670154">
        <ele>21.38032</ele>
        <time>2026-09-03T23:02:38.468000Z</time>
      </trkpt>
      <trkpt lat="39.8731528" lon="116.6701455">
        <ele>21.29655</ele>
        <time>2026-09-03T23:02:42.449000Z</time>
      </trkpt>
      <trkpt lat="39.8732457" lon="116.6701171">
        <ele>21.22374</ele>
        <time>2026-09-03T23:02:46.430000Z</time>
      </trkpt>
      <trkpt lat="39.8733314" lon="116.6700675">
        <ele>21.18433</ele>
        <time>2026-09-03T23:02:50.410000Z</time>
      </trkpt>
      <trkpt lat="39.8734192" lon="116.6700099">
        <ele>21.18323</ele>
        <time>2026-09-03T23:02:54.391000Z</time>
      </trkpt>
      <trkpt lat="39.8735057" lon="116.6699363">
        <ele>21.22385</ele>
        <time>2026-09-03T23:02:58.372000Z</time>
      </trkpt>
      <trkpt lat="39.8735907" lon="116.6698559">
        <ele>21.29034</ele>
        <time>2026-09-03T23:03:02.353000Z</time>
      </trkpt>
      <trkpt lat="39.873678" lon="116.6697913">
        <ele>21.36691</ele>
        <time>2026-09-03T23:03:06.333000Z</time>
      </trkpt>
      <trkpt lat="39.8737761" lon="116.6697569">
        <ele>21.43893</ele>
        <time>2026-09-03T23:03:10.314000Z</time>
      </trkpt>
      <trkpt lat="39.8738801" lon="116.6697634">
        <ele>21.49036</ele>
        <time>2026-09-03T23:03:14.295000Z</time>
      </trkpt>
      <trkpt lat="39.8739839" lon="116.6697893">
        <ele>21.49548</ele>
        <time>2026-09-03T23:03:18.276000Z</time>
      </trkpt>
      <trkpt lat="39.8740909" lon="116.669803">
        <ele>21.44909</ele>
        <time>2026-09-03T23:03:22.256000Z</time>
      </trkpt>
      <trkpt lat="39.8741961" lon="116.6697834">
        <ele>21.36803</ele>
        <time>2026-09-03T23:03:26.237000Z</time>
      </trkpt>
      <trkpt lat="39.874292" lon="116.6697257">
        <ele>21.28094</ele>
        <time>2026-09-03T23:03:30.218000Z</time>
      </trkpt>
      <trkpt lat="39.8743753" lon="116.6696361">
        <ele>21.24837</ele>
        <time>2026-09-03T23:03:34.198000Z</time>
      </trkpt>
      <trkpt lat="39.8744567" lon="116.6695527">
        <ele>21.37893</ele>
        <time>2026-09-03T23:03:38Z</time>
      </trkpt>
      <trkpt lat="39.8745675" lon="116.6695026">
        <ele>21.68812</ele>
        <time>2026-09-03T23:03:42.160000Z</time>
      </trkpt>
      <trkpt lat="39.8746836" lon="116.6695023">
        <ele>21.9105</ele>
        <time>2026-09-03T23:03:46.141000Z</time>
      </trkpt>
      <trkpt lat="39.87479" lon="116.6695391">
        <ele>21.97583</ele>
        <time>2026-09-03T23:03:50.121000Z</time>
      </trkpt>
      <trkpt lat="39.8748905" lon="116.669587">
        <ele>21.90774</ele>
        <time>2026-09-03T23:03:54.102000Z</time>
      </trkpt>
      <trkpt lat="39.8749897" lon="116.669621">
        <ele>21.92529</ele>
        <time>2026-09-03T23:03:58Z</time>
      </trkpt>
      <trkpt lat="39.8750946" lon="116.669642">
        <ele>22.19754</ele>
        <time>2026-09-03T23:04:02.064000Z</time>
      </trkpt>
      <trkpt lat="39.8751915" lon="116.6695971">
        <ele>22.429</ele>
        <time>2026-09-03T23:04:06.044000Z</time>
      </trkpt>
      <trkpt lat="39.8752788" lon="116.6695279">
        <ele>22.54901</ele>
        <time>2026-09-03T23:04:10Z</time>
      </trkpt>
      <trkpt lat="39.8753761" lon="116.6694869">
        <ele>22.70399</ele>
        <time>2026-09-03T23:04:14Z</time>
      </trkpt>
      <trkpt lat="39.8754785" lon="116.6694598">
        <ele>22.95567</ele>
        <time>2026-09-03T23:04:17.987000Z</time>
      </trkpt>
      <trkpt lat="39.8755719" lon="116.6694057">
        <ele>23.20783</ele>
        <time>2026-09-03T23:04:21.967000Z</time>
      </trkpt>
      <trkpt lat="39.8756374" lon="116.6693189">
        <ele>23.38784</ele>
        <time>2026-09-03T23:04:25.948000Z</time>
      </trkpt>
      <trkpt lat="39.875665" lon="116.6691979">
        <ele>23.46111</ele>
        <time>2026-09-03T23:04:29.929000Z</time>
      </trkpt>
      <trkpt lat="39.8756574" lon="116.6690672">
        <ele>23.44207</ele>
        <time>2026-09-03T23:04:33.910000Z</time>
      </trkpt>
      <trkpt lat="39.8756237" lon="116.6689453">
        <ele>23.40459</ele>
        <time>2026-09-03T23:04:37.890000Z</time>
      </trkpt>
      <trkpt lat="39.8755689" lon="116.6688321">
        <ele>23.39401</ele>
        <time>2026-09-03T23:04:41.871000Z</time>
      </trkpt>
      <trkpt lat="39.875493" lon="116.6687345">
        <ele>23.40092</ele>
        <time>2026-09-03T23:04:45.852000Z</time>
      </trkpt>
      <trkpt lat="39.8754138" lon="116.668642">
        <ele>23.39304</ele>
        <time>2026-09-03T23:04:49.833000Z</time>
      </trkpt>
      <trkpt lat="39.8753545" lon="116.668533">
        <ele>23.33243</ele>
        <time>2026-09-03T23:04:53.813000Z</time>
      </trkpt>
      <trkpt lat="39.8753156" lon="116.6684033">
        <ele>23.18474</ele>
        <time>2026-09-03T23:04:57.794000Z</time>
      </trkpt>
      <trkpt lat="39.8752929" lon="116.6682679">
        <ele>22.97681</ele>
        <time>2026-09-03T23:05:01.775000Z</time>
      </trkpt>
      <trkpt lat="39.8752744" lon="116.6681354">
        <ele>22.77389</ele>
        <time>2026-09-03T23:05:05.756000Z</time>
      </trkpt>
      <trkpt lat="39.8752448" lon="116.6680056">
        <ele>22.62546</ele>
        <time>2026-09-03T23:05:09.736000Z</time>
      </trkpt>
      <trkpt lat="39.8751983" lon="116.6678861">
        <ele>22.52628</ele>
        <time>2026-09-03T23:05:13.717000Z</time>
      </trkpt>
      <trkpt lat="39.8751305" lon="116.6677901">
        <ele>22.45385</ele>
        <time>2026-09-03T23:05:17.698000Z</time>
      </trkpt>
      <trkpt lat="39.8750568" lon="116.6676965">
        <ele>22.41039</ele>
        <time>2026-09-03T23:05:21.678000Z</time>
      </trkpt>
      <trkpt lat="39.874971" lon="116.6676132">
        <ele>22.39591</ele>
        <time>2026-09-03T23:05:25.659000Z</time>
      </trkpt>
      <trkpt lat="39.8748722" lon="116.6675639">
        <ele>22.39067</ele>
        <time>2026-09-03T23:05:29.640000Z</time>
      </trkpt>
      <trkpt lat="39.8747708" lon="116.6675284">
        <ele>22.37433</ele>
        <time>2026-09-03T23:05:33.621000Z</time>
      </trkpt>
      <trkpt lat="39.8746666" lon="116.6675016">
        <ele>22.35228</ele>
        <time>2026-09-03T23:05:37.602000Z</time>
      </trkpt>
      <trkpt lat="39.8745596" lon="116.667495">
        <ele>22.30969</ele>
        <time>2026-09-03T23:05:41.582000Z</time>
      </trkpt>
      <trkpt lat="39.8744543" lon="116.6675077">
        <ele>22.23152</ele>
        <time>2026-09-03T23:05:45.563000Z</time>
      </trkpt>
      <trkpt lat="39.8743517" lon="116.6675454">
        <ele>22.12252</ele>
        <time>2026-09-03T23:05:49.544000Z</time>
      </trkpt>
      <trkpt lat="39.8742591" lon="116.6676031">
        <ele>22.00054</ele>
        <time>2026-09-03T23:05:53.525000Z</time>
      </trkpt>
      <trkpt lat="39.8741716" lon="116.6676717">
        <ele>21.88434</ele>
        <time>2026-09-03T23:05:57.505000Z</time>
      </trkpt>
      <trkpt lat="39.8740779" lon="116.6677431">
        <ele>21.76596</ele>
        <time>2026-09-03T23:06:01.486000Z</time>
      </trkpt>
      <trkpt lat="39.8739777" lon="116.6677989">
        <ele>21.64205</ele>
        <time>2026-09-03T23:06:05.467000Z</time>
      </trkpt>
      <trkpt lat="39.8738719" lon="116.6678281">
        <ele>21.54183</ele>
        <time>2026-09-03T23:06:09.448000Z</time>
      </trkpt>
      <trkpt lat="39.8737655" lon="116.6678324">
        <ele>21.49309</ele>
        <time>2026-09-03T23:06:13.428000Z</time>
      </trkpt>
      <trkpt lat="39.8736622" lon="116.6678217">
        <ele>21.48206</ele>
        <time>2026-09-03T23:06:17.409000Z</time>
      </trkpt>
      <trkpt lat="39.8735536" lon="116.6678026">
        <ele>21.49061</ele>
        <time>2026-09-03T23:06:21.390000Z</time>
      </trkpt>
      <trkpt lat="39.873444" lon="116.6677925">
        <ele>21.5155</ele>
        <time>2026-09-03T23:06:25.371000Z</time>
      </trkpt>
      <trkpt lat="39.873338" lon="116.6678114">
        <ele>21.56817</ele>
        <time>2026-09-03T23:06:29.351000Z</time>
      </trkpt>
      <trkpt lat="39.8732379" lon="116.6678593">
        <ele>21.69471</ele>
        <time>2026-09-03T23:06:33.332000Z</time>
      </trkpt>
      <trkpt lat="39.8731365" lon="116.6678982">
        <ele>21.87367</ele>
        <time>2026-09-03T23:06:37.313000Z</time>
      </trkpt>
      <trkpt lat="39.8730324" lon="116.6679029">
        <ele>21.99897</ele>
        <time>2026-09-03T23:06:41.294000Z</time>
      </trkpt>
      <trkpt lat="39.8729283" lon="116.6678769">
        <ele>22.01431</ele>
        <time>2026-09-03T23:06:45.275000Z</time>
      </trkpt>
      <trkpt lat="39.8728253" lon="116.6678318">
        <ele>21.91315</ele>
        <time>2026-09-03T23:06:49.255000Z</time>
      </trkpt>
      <trkpt lat="39.8727219" lon="116.6677857">
        <ele>21.72769</ele>
        <time>2026-09-03T23:06:53.236000Z</time>
      </trkpt>
      <trkpt lat="39.8726171" lon="116.6677536">
        <ele>21.49798</ele>
        <time>2026-09-03T23:06:57.217000Z</time>
      </trkpt>
      <trkpt lat="39.8725098" lon="116.6677358">
        <ele>21.26434</ele>
        <time>2026-09-03T23:07:01.198000Z</time>
      </trkpt>
      <trkpt lat="39.8724096" lon="116.6677344">
        <ele>21.09282</ele>
        <time>2026-09-03T23:07:05Z</time>
      </trkpt>
      <trkpt lat="39.8723042" lon="116.6677347">
        <ele>20.98203</ele>
        <time>2026-09-03T23:07:09Z</time>
      </trkpt>
      <trkpt lat="39.8721998" lon="116.6677381">
        <ele>20.89464</ele>
        <time>2026-09-03T23:07:13Z</time>
      </trkpt>
      <trkpt lat="39.8720927" lon="116.6677283">
        <ele>20.82217</ele>
        <time>2026-09-03T23:07:17Z</time>
      </trkpt>
      <trkpt lat="39.8719877" lon="116.667699">
        <ele>20.75349</ele>
        <time>2026-09-03T23:07:21Z</time>
      </trkpt>
      <trkpt lat="39.8718852" lon="116.6676546">
        <ele>20.70617</ele>
        <time>2026-09-03T23:07:25Z</time>
      </trkpt>
      <trkpt lat="39.8717886" lon="116.6676065">
        <ele>20.6864</ele>
        <time>2026-09-03T23:07:29Z</time>
      </trkpt>
      <trkpt lat="39.8716859" lon="116.6675617">
        <ele>20.6144</ele>
        <time>2026-09-03T23:07:33Z</time>
      </trkpt>
      <trkpt lat="39.8715758" lon="116.6675255">
        <ele>20.51321</ele>
        <time>2026-09-03T23:07:37Z</time>
      </trkpt>
      <trkpt lat="39.8714634" lon="116.6675093">
        <ele>20.449</ele>
        <time>2026-09-03T23:07:41Z</time>
      </trkpt>
      <trkpt lat="39.8713529" lon="116.6675147">
        <ele>20.43504</ele>
        <time>2026-09-03T23:07:44.986000Z</time>
      </trkpt>
      <trkpt lat="39.871246" lon="116.6675295">
        <ele>20.44753</ele>
        <time>2026-09-03T23:07:48.967000Z</time>
      </trkpt>
      <trkpt lat="39.8711452" lon="116.667555">
        <ele>20.51477</ele>
        <time>2026-09-03T23:07:52.948000Z</time>
      </trkpt>
      <trkpt lat="39.871062" lon="116.6676222">
        <ele>20.60336</ele>
        <time>2026-09-03T23:07:56.928000Z</time>
      </trkpt>
      <trkpt lat="39.8710039" lon="116.6677416">
        <ele>20.72052</ele>
        <time>2026-09-03T23:08:00.909000Z</time>
      </trkpt>
      <trkpt lat="39.8709221" lon="116.6678391">
        <ele>20.8737</ele>
        <time>2026-09-03T23:08:04.890000Z</time>
      </trkpt>
      <trkpt lat="39.8708133" lon="116.6678746">
        <ele>20.9991</ele>
        <time>2026-09-03T23:08:08.871000Z</time>
      </trkpt>
      <trkpt lat="39.870702" lon="116.6678728">
        <ele>21.05486</ele>
        <time>2026-09-03T23:08:12.852000Z</time>
      </trkpt>
      <trkpt lat="39.8705901" lon="116.6678624">
        <ele>21.05277</ele>
        <time>2026-09-03T23:08:16.832000Z</time>
      </trkpt>
      <trkpt lat="39.870481" lon="116.6678564">
        <ele>21.04376</ele>
        <time>2026-09-03T23:08:20.813000Z</time>
      </trkpt>
      <trkpt lat="39.8703721" lon="116.6678359">
        <ele>21.04958</ele>
        <time>2026-09-03T23:08:24.794000Z</time>
      </trkpt>
      <trkpt lat="39.870277" lon="116.6677809">
        <ele>21.03368</ele>
        <time>2026-09-03T23:08:28.775000Z</time>
      </trkpt>
      <trkpt lat="39.8701743" lon="116.6677695">
        <ele>20.96482</ele>
        <time>2026-09-03T23:08:32.755000Z</time>
      </trkpt>
      <trkpt lat="39.8700686" lon="116.6677821">
        <ele>20.84587</ele>
        <time>2026-09-03T23:08:36.736000Z</time>
      </trkpt>
      <trkpt lat="39.8699655" lon="116.6677808">
        <ele>20.69002</ele>
        <time>2026-09-03T23:08:40.717000Z</time>
      </trkpt>
      <trkpt lat="39.8698559" lon="116.6677619">
        <ele>20.54904</ele>
        <time>2026-09-03T23:08:44.698000Z</time>
      </trkpt>
      <trkpt lat="39.8697462" lon="116.6677399">
        <ele>20.5054</ele>
        <time>2026-09-03T23:08:48.679000Z</time>
      </trkpt>
      <trkpt lat="39.8696409" lon="116.6677368">
        <ele>20.5955</ele>
        <time>2026-09-03T23:08:52.659000Z</time>
      </trkpt>
      <trkpt lat="39.8695462" lon="116.667785">
        <ele>20.77202</ele>
        <time>2026-09-03T23:08:56.640000Z</time>
      </trkpt>
      <trkpt lat="39.869481" lon="116.6678882">
        <ele>20.94846</ele>
        <time>2026-09-03T23:09:00.621000Z</time>
      </trkpt>
      <trkpt lat="39.8694565" lon="116.6680197">
        <ele>21.08763</ele>
        <time>2026-09-03T23:09:04.602000Z</time>
      </trkpt>
      <trkpt lat="39.869465" lon="116.6681541">
        <ele>21.21486</ele>
        <time>2026-09-03T23:09:08.583000Z</time>
      </trkpt>
      <trkpt lat="39.8695031" lon="116.6682751">
        <ele>21.30563</ele>
        <time>2026-09-03T23:09:12.563000Z</time>
      </trkpt>
      <trkpt lat="39.8695757" lon="116.668366">
        <ele>21.32538</ele>
        <time>2026-09-03T23:09:16.544000Z</time>
      </trkpt>
      <trkpt lat="39.8696721" lon="116.6683771">
        <ele>21.2627</ele>
        <time>2026-09-03T23:09:20.525000Z</time>
      </trkpt>
      <trkpt lat="39.8697672" lon="116.6683284">
        <ele>21.17191</ele>
        <time>2026-09-03T23:09:24.506000Z</time>
      </trkpt>
      <trkpt lat="39.8698712" lon="116.6682924">
        <ele>21.10331</ele>
        <time>2026-09-03T23:09:28.486000Z</time>
      </trkpt>
      <trkpt lat="39.8699801" lon="116.6682803">
        <ele>21.05741</ele>
        <time>2026-09-03T23:09:32.467000Z</time>
      </trkpt>
      <trkpt lat="39.8700902" lon="116.6682702">
        <ele>21.01729</ele>
        <time>2026-09-03T23:09:36.448000Z</time>
      </trkpt>
      <trkpt lat="39.8701997" lon="116.6682327">
        <ele>20.96441</ele>
        <time>2026-09-03T23:09:40.429000Z</time>
      </trkpt>
      <trkpt lat="39.8703044" lon="116.6681753">
        <ele>20.91344</ele>
        <time>2026-09-03T23:09:44.410000Z</time>
      </trkpt>
      <trkpt lat="39.8704093" lon="116.6681207">
        <ele>20.89523</ele>
        <time>2026-09-03T23:09:48.390000Z</time>
      </trkpt>
      <trkpt lat="39.8705188" lon="116.6680895">
        <ele>20.9176</ele>
        <time>2026-09-03T23:09:52.371000Z</time>
      </trkpt>
      <trkpt lat="39.8706295" lon="116.6680958">
        <ele>20.98011</ele>
        <time>2026-09-03T23:09:56.352000Z</time>
      </trkpt>
      <trkpt lat="39.8707422" lon="116.6681249">
        <ele>21.09016</ele>
        <time>2026-09-03T23:10:00.333000Z</time>
      </trkpt>
      <trkpt lat="39.8708531" lon="116.6681368">
        <ele>21.25341</ele>
        <time>2026-09-03T23:10:04.313000Z</time>
      </trkpt>
      <trkpt lat="39.8709643" lon="116.6681172">
        <ele>21.43291</ele>
        <time>2026-09-03T23:10:08.294000Z</time>
      </trkpt>
      <trkpt lat="39.8710685" lon="116.6680707">
        <ele>21.56797</ele>
        <time>2026-09-03T23:10:12.275000Z</time>
      </trkpt>
      <trkpt lat="39.8711662" lon="116.6680104">
        <ele>21.57598</ele>
        <time>2026-09-03T23:10:16.256000Z</time>
      </trkpt>
      <trkpt lat="39.8712664" lon="116.6679673">
        <ele>21.46254</ele>
        <time>2026-09-03T23:10:20.237000Z</time>
      </trkpt>
      <trkpt lat="39.8713702" lon="116.6679466">
        <ele>21.29064</ele>
        <time>2026-09-03T23:10:24.217000Z</time>
      </trkpt>
      <trkpt lat="39.8714785" lon="116.6679449">
        <ele>21.12483</ele>
        <time>2026-09-03T23:10:28.198000Z</time>
      </trkpt>
      <trkpt lat="39.8715781" lon="116.6679776">
        <ele>21.03146</ele>
        <time>2026-09-03T23:10:32Z</time>
      </trkpt>
      <trkpt lat="39.8716796" lon="116.668039">
        <ele>21.01997</ele>
        <time>2026-09-03T23:10:36Z</time>
      </trkpt>
      <trkpt lat="39.8717769" lon="116.6681076">
        <ele>21.07892</ele>
        <time>2026-09-03T23:10:40Z</time>
      </trkpt>
      <trkpt lat="39.8718791" lon="116.6681592">
        <ele>21.20767</ele>
        <time>2026-09-03T23:10:44Z</time>
      </trkpt>
      <trkpt lat="39.8719869" lon="116.6681857">
        <ele>21.38571</ele>
        <time>2026-09-03T23:10:48Z</time>
      </trkpt>
      <trkpt lat="39.8720946" lon="116.6681979">
        <ele>21.56507</ele>
        <time>2026-09-03T23:10:52Z</time>
      </trkpt>
      <trkpt lat="39.8721988" lon="116.6682004">
        <ele>21.699</ele>
        <time>2026-09-03T23:10:56Z</time>
      </trkpt>
    </trkseg>
  </trk>
</gpx>