<?xml version="1.0" encoding="UTF-8"?>
<gpx xmlns="http://www.topografix.com/GPX/1/1" xmlns:gpxtpx="http://www.garmin.com/xmlschemas/TrackPointExtension/v1" xmlns:xsi="http://www.w3.org/2001/XMLSchema-instance" xsi:schemaLocation="http://www.topografix.com/GPX/1/1 http://www.topografix.com/GPX/1/1/gpx.xsd" version="1.1" creator="gpx.py -- https://github.com/tkrajina/gpxpy">
  <trk>
    <name>gpx from codoon</name>
    <type>Run</type>
    <trkseg>
      <trkpt lat="39.8743382" lon="116.6724668">
        <ele>37.09535</ele>
        <time>2026-09-06T12:33:18.803000Z</time>
      </trkpt>
      <trkpt lat="39.8744013" lon="116.6723709">
        <ele>28.67149</ele>
        <time>2026-09-06T12:33:24.500000Z</time>
      </trkpt>
      <trkpt lat="39.8744883" lon="116.672288">
        <ele>25.70115</ele>
        <time>2026-09-06T12:33:29.477000Z</time>
      </trkpt>
      <trkpt lat="39.8745742" lon="116.6722154">
        <ele>25.00696</ele>
        <time>2026-09-06T12:33:33.458000Z</time>
      </trkpt>
      <trkpt lat="39.8746685" lon="116.6721511">
        <ele>24.74075</ele>
        <time>2026-09-06T12:33:37.440000Z</time>
      </trkpt>
      <trkpt lat="39.8747703" lon="116.6721068">
        <ele>24.58694</ele>
        <time>2026-09-06T12:33:41.421000Z</time>
      </trkpt>
      <trkpt lat="39.8748708" lon="116.6720613">
        <ele>24.48521</ele>
        <time>2026-09-06T12:33:45.403000Z</time>
      </trkpt>
      <trkpt lat="39.874947" lon="116.6719779">
        <ele>24.44347</ele>
        <time>2026-09-06T12:33:49.384000Z</time>
      </trkpt>
      <trkpt lat="39.8750159" lon="116.6719013">
        <ele>24.4503</ele>
        <time>2026-09-06T12:33:53.366000Z</time>
      </trkpt>
      <trkpt lat="39.8750908" lon="116.6718336">
        <ele>24.43444</ele>
        <time>2026-09-06T12:33:57.348000Z</time>
      </trkpt>
      <trkpt lat="39.8751745" lon="116.6717449">
        <ele>24.31781</ele>
        <time>2026-09-06T12:34:02.325000Z</time>
      </trkpt>
      <trkpt lat="39.8752479" lon="116.671664">
        <ele>24.18828</ele>
        <time>2026-09-06T12:34:06.306000Z</time>
      </trkpt>
      <trkpt lat="39.8753266" lon="116.6715826">
        <ele>24.12352</ele>
        <time>2026-09-06T12:34:10.288000Z</time>
      </trkpt>
      <trkpt lat="39.8754028" lon="116.6715028">
        <ele>24.14587</ele>
        <time>2026-09-06T12:34:14.269000Z</time>
      </trkpt>
      <trkpt lat="39.8754842" lon="116.6714225">
        <ele>24.213</ele>
        <time>2026-09-06T12:34:18.251000Z</time>
      </trkpt>
      <trkpt lat="39.8755615" lon="116.6713464">
        <ele>24.30831</ele>
        <time>2026-09-06T12:34:22.232000Z</time>
      </trkpt>
      <trkpt lat="39.8756369" lon="116.671261">
        <ele>24.40031</ele>
        <time>2026-09-06T12:34:26.214000Z</time>
      </trkpt>
      <trkpt lat="39.8757036" lon="116.6711779">
        <ele>24.46676</ele>
        <time>2026-09-06T12:34:30.195000Z</time>
      </trkpt>
      <trkpt lat="39.87577" lon="116.6710878">
        <ele>24.51975</ele>
        <time>2026-09-06T12:34:34.177000Z</time>
      </trkpt>
      <trkpt lat="39.8758418" lon="116.6709926">
        <ele>24.55271</ele>
        <time>2026-09-06T12:34:38.158000Z</time>
      </trkpt>
      <trkpt lat="39.875915" lon="116.6709065">
        <ele>24.60314</ele>
        <time>2026-09-06T12:34:42.001000Z</time>
      </trkpt>
      <trkpt lat="39.8760019" lon="116.6708295">
        <ele>24.71747</ele>
        <time>2026-09-06T12:34:46.122000Z</time>
      </trkpt>
      <trkpt lat="39.8760868" lon="116.6707515">
        <ele>24.83221</ele>
        <time>2026-09-06T12:34:50.103000Z</time>
      </trkpt>
      <trkpt lat="39.8761603" lon="116.6706671">
        <ele>24.83161</ele>
        <time>2026-09-06T12:34:54.085000Z</time>
      </trkpt>
      <trkpt lat="39.8762292" lon="116.6705749">
        <ele>24.71436</ele>
        <time>2026-09-06T12:34:58.066000Z</time>
      </trkpt>
      <trkpt lat="39.876294" lon="116.670481">
        <ele>24.57203</ele>
        <time>2026-09-06T12:35:02.001000Z</time>
      </trkpt>
      <trkpt lat="39.8763653" lon="116.6703835">
        <ele>24.42187</ele>
        <time>2026-09-06T12:35:06.029000Z</time>
      </trkpt>
      <trkpt lat="39.876437" lon="116.6702871">
        <ele>24.29993</ele>
        <time>2026-09-06T12:35:10.011000Z</time>
      </trkpt>
      <trkpt lat="39.8765096" lon="116.6701933">
        <ele>24.23763</ele>
        <time>2026-09-06T12:35:13.992000Z</time>
      </trkpt>
      <trkpt lat="39.8765788" lon="116.6701026">
        <ele>24.21083</ele>
        <time>2026-09-06T12:35:17.974000Z</time>
      </trkpt>
      <trkpt lat="39.8766469" lon="116.6700204">
        <ele>24.2013</ele>
        <time>2026-09-06T12:35:21.955000Z</time>
      </trkpt>
      <trkpt lat="39.8767188" lon="116.6699386">
        <ele>24.22497</ele>
        <time>2026-09-06T12:35:25.936000Z</time>
      </trkpt>
      <trkpt lat="39.8767873" lon="116.6698593">
        <ele>24.25272</ele>
        <time>2026-09-06T12:35:29.918000Z</time>
      </trkpt>
      <trkpt lat="39.8768528" lon="116.6697761">
        <ele>24.27696</ele>
        <time>2026-09-06T12:35:33.899000Z</time>
      </trkpt>
      <trkpt lat="39.8769242" lon="116.6696724">
        <ele>24.30663</ele>
        <time>2026-09-06T12:35:38.876000Z</time>
      </trkpt>
      <trkpt lat="39.8769528" lon="116.6695575">
        <ele>24.30564</ele>
        <time>2026-09-06T12:35:43.853000Z</time>
      </trkpt>
      <trkpt lat="39.8769153" lon="116.6694275">
        <ele>24.30052</ele>
        <time>2026-09-06T12:35:48.830000Z</time>
      </trkpt>
      <trkpt lat="39.8768433" lon="116.6693245">
        <ele>24.35334</ele>
        <time>2026-09-06T12:35:53.807000Z</time>
      </trkpt>
      <trkpt lat="39.8767844" lon="116.6692068">
        <ele>24.42642</ele>
        <time>2026-09-06T12:35:58.784000Z</time>
      </trkpt>
      <trkpt lat="39.8767396" lon="116.6690908">
        <ele>24.42201</ele>
        <time>2026-09-06T12:36:03.761000Z</time>
      </trkpt>
      <trkpt lat="39.8766789" lon="116.6689864">
        <ele>24.32034</ele>
        <time>2026-09-06T12:36:08.738000Z</time>
      </trkpt>
      <trkpt lat="39.8766087" lon="116.6688865">
        <ele>24.11781</ele>
        <time>2026-09-06T12:36:13.714000Z</time>
      </trkpt>
      <trkpt lat="39.8765248" lon="116.6687951">
        <ele>23.82208</ele>
        <time>2026-09-06T12:36:18.691000Z</time>
      </trkpt>
      <trkpt lat="39.8764422" lon="116.6686985">
        <ele>23.53141</ele>
        <time>2026-09-06T12:36:23.668000Z</time>
      </trkpt>
      <trkpt lat="39.8763624" lon="116.6686019">
        <ele>23.33963</ele>
        <time>2026-09-06T12:36:28.645000Z</time>
      </trkpt>
      <trkpt lat="39.8762836" lon="116.6685078">
        <ele>23.27483</ele>
        <time>2026-09-06T12:36:33.622000Z</time>
      </trkpt>
      <trkpt lat="39.8762033" lon="116.6684203">
        <ele>23.27901</ele>
        <time>2026-09-06T12:36:38.599000Z</time>
      </trkpt>
      <trkpt lat="39.8761212" lon="116.6683301">
        <ele>23.32897</ele>
        <time>2026-09-06T12:36:43.575000Z</time>
      </trkpt>
      <trkpt lat="39.8760433" lon="116.6682376">
        <ele>23.38101</ele>
        <time>2026-09-06T12:36:48.552000Z</time>
      </trkpt>
      <trkpt lat="39.875968" lon="116.6681644">
        <ele>23.42581</ele>
        <time>2026-09-06T12:36:53.529000Z</time>
      </trkpt>
      <trkpt lat="39.8759394" lon="116.6681603">
        <ele>23.47744</ele>
        <time>2026-09-06T12:36:57.511000Z</time>
      </trkpt>
      <trkpt lat="39.8758297" lon="116.668154">
        <ele>23.68425</ele>
        <time>2026-09-06T12:37:04.478000Z</time>
      </trkpt>
      <trkpt lat="39.8757305" lon="116.6681568">
        <ele>23.78398</ele>
        <time>2026-09-06T12:37:09.455000Z</time>
      </trkpt>
      <trkpt lat="39.8756263" lon="116.6681619">
        <ele>23.70447</ele>
        <time>2026-09-06T12:37:14.432000Z</time>
      </trkpt>
      <trkpt lat="39.8755203" lon="116.6681425">
        <ele>23.44821</ele>
        <time>2026-09-06T12:37:19.408000Z</time>
      </trkpt>
      <trkpt lat="39.8754169" lon="116.6680979">
        <ele>23.15624</ele>
        <time>2026-09-06T12:37:24.385000Z</time>
      </trkpt>
      <trkpt lat="39.8753109" lon="116.668052">
        <ele>22.93889</ele>
        <time>2026-09-06T12:37:29.362000Z</time>
      </trkpt>
      <trkpt lat="39.8752133" lon="116.6679808">
        <ele>22.80282</ele>
        <time>2026-09-06T12:37:34.339000Z</time>
      </trkpt>
      <trkpt lat="39.8751591" lon="116.6678868">
        <ele>22.67929</ele>
        <time>2026-09-06T12:37:38.320000Z</time>
      </trkpt>
      <trkpt lat="39.8750952" lon="116.667774">
        <ele>22.47715</ele>
        <time>2026-09-06T12:37:43.297000Z</time>
      </trkpt>
      <trkpt lat="39.8750216" lon="116.6676786">
        <ele>22.27183</ele>
        <time>2026-09-06T12:37:48.274000Z</time>
      </trkpt>
      <trkpt lat="39.8749254" lon="116.6676168">
        <ele>22.1393</ele>
        <time>2026-09-06T12:37:53.251000Z</time>
      </trkpt>
      <trkpt lat="39.8748217" lon="116.6675826">
        <ele>22.09912</ele>
        <time>2026-09-06T12:37:58.227000Z</time>
      </trkpt>
      <trkpt lat="39.8747208" lon="116.6675515">
        <ele>22.1176</ele>
        <time>2026-09-06T12:38:03.204000Z</time>
      </trkpt>
      <trkpt lat="39.8746263" lon="116.667523">
        <ele>22.11957</ele>
        <time>2026-09-06T12:38:08Z</time>
      </trkpt>
      <trkpt lat="39.8745242" lon="116.6675121">
        <ele>22.0836</ele>
        <time>2026-09-06T12:38:13Z</time>
      </trkpt>
      <trkpt lat="39.8744251" lon="116.6675295">
        <ele>22.02987</ele>
        <time>2026-09-06T12:38:18Z</time>
      </trkpt>
      <trkpt lat="39.8743323" lon="116.6675683">
        <ele>21.96249</ele>
        <time>2026-09-06T12:38:23Z</time>
      </trkpt>
      <trkpt lat="39.8742437" lon="116.6676206">
        <ele>21.88665</ele>
        <time>2026-09-06T12:38:28Z</time>
      </trkpt>
      <trkpt lat="39.8741575" lon="116.6676877">
        <ele>21.814</ele>
        <time>2026-09-06T12:38:33Z</time>
      </trkpt>
      <trkpt lat="39.8740723" lon="116.667756">
        <ele>21.74712</ele>
        <time>2026-09-06T12:38:38Z</time>
      </trkpt>
      <trkpt lat="39.8739835" lon="116.6678039">
        <ele>21.66501</ele>
        <time>2026-09-06T12:38:43Z</time>
      </trkpt>
      <trkpt lat="39.8738861" lon="116.6678243">
        <ele>21.54502</ele>
        <time>2026-09-06T12:38:47.995000Z</time>
      </trkpt>
      <trkpt lat="39.8737858" lon="116.6678231">
        <ele>21.46228</ele>
        <time>2026-09-06T12:38:52.971000Z</time>
      </trkpt>
      <trkpt lat="39.8736844" lon="116.667808">
        <ele>21.48596</ele>
        <time>2026-09-06T12:38:57.948000Z</time>
      </trkpt>
      <trkpt lat="39.873586" lon="116.6677853">
        <ele>21.58413</ele>
        <time>2026-09-06T12:39:02.925000Z</time>
      </trkpt>
      <trkpt lat="39.8734885" lon="116.6677547">
        <ele>21.69177</ele>
        <time>2026-09-06T12:39:07.902000Z</time>
      </trkpt>
      <trkpt lat="39.8733898" lon="116.6677383">
        <ele>21.76028</ele>
        <time>2026-09-06T12:39:12.878000Z</time>
      </trkpt>
      <trkpt lat="39.8732932" lon="116.6677651">
        <ele>21.77693</ele>
        <time>2026-09-06T12:39:17.855000Z</time>
      </trkpt>
      <trkpt lat="39.873209" lon="116.6678161">
        <ele>21.76716</ele>
        <time>2026-09-06T12:39:22.832000Z</time>
      </trkpt>
      <trkpt lat="39.8731216" lon="116.6678653">
        <ele>21.73744</ele>
        <time>2026-09-06T12:39:27.808000Z</time>
      </trkpt>
      <trkpt lat="39.873025" lon="116.6678865">
        <ele>21.68812</ele>
        <time>2026-09-06T12:39:32.785000Z</time>
      </trkpt>
      <trkpt lat="39.8729289" lon="116.6678713">
        <ele>21.64574</ele>
        <time>2026-09-06T12:39:37.762000Z</time>
      </trkpt>
      <trkpt lat="39.8728361" lon="116.6678299">
        <ele>21.61158</ele>
        <time>2026-09-06T12:39:42.739000Z</time>
      </trkpt>
      <trkpt lat="39.8727452" lon="116.6677854">
        <ele>21.6025</ele>
        <time>2026-09-06T12:39:47.715000Z</time>
      </trkpt>
      <trkpt lat="39.8726487" lon="116.6677578">
        <ele>21.60933</ele>
        <time>2026-09-06T12:39:52.692000Z</time>
      </trkpt>
      <trkpt lat="39.8725494" lon="116.6677392">
        <ele>21.61117</ele>
        <time>2026-09-06T12:39:57.669000Z</time>
      </trkpt>
      <trkpt lat="39.8724476" lon="116.6677354">
        <ele>21.57201</ele>
        <time>2026-09-06T12:40:02.645000Z</time>
      </trkpt>
      <trkpt lat="39.8723444" lon="116.6677485">
        <ele>21.4607</ele>
        <time>2026-09-06T12:40:07.622000Z</time>
      </trkpt>
      <trkpt lat="39.8722449" lon="116.6677599">
        <ele>21.28286</ele>
        <time>2026-09-06T12:40:12.599000Z</time>
      </trkpt>
      <trkpt lat="39.8721481" lon="116.6677586">
        <ele>21.04771</ele>
        <time>2026-09-06T12:40:17.575000Z</time>
      </trkpt>
      <trkpt lat="39.8720561" lon="116.6677464">
        <ele>20.82614</ele>
        <time>2026-09-06T12:40:22.552000Z</time>
      </trkpt>
      <trkpt lat="39.8719679" lon="116.6677096">
        <ele>20.56424</ele>
        <time>2026-09-06T12:40:31Z</time>
      </trkpt>
      <trkpt lat="39.8718776" lon="116.667661">
        <ele>20.33024</ele>
        <time>2026-09-06T12:40:42Z</time>
      </trkpt>
      <trkpt lat="39.8717876" lon="116.6676068">
        <ele>20.1905</ele>
        <time>2026-09-06T12:40:52Z</time>
      </trkpt>
      <trkpt lat="39.8716892" lon="116.6675547">
        <ele>20.11523</ele>
        <time>2026-09-06T12:40:59Z</time>
      </trkpt>
      <trkpt lat="39.8715894" lon="116.6675219">
        <ele>20.07496</ele>
        <time>2026-09-06T12:41:04Z</time>
      </trkpt>
      <trkpt lat="39.8714776" lon="116.6675219">
        <ele>20.04866</ele>
        <time>2026-09-06T12:41:09Z</time>
      </trkpt>
      <trkpt lat="39.8713717" lon="116.6675236">
        <ele>20.04722</ele>
        <time>2026-09-06T12:41:14Z</time>
      </trkpt>
      <trkpt lat="39.871269" lon="116.6675276">
        <ele>20.085</ele>
        <time>2026-09-06T12:41:19Z</time>
      </trkpt>
      <trkpt lat="39.8711624" lon="116.6675405">
        <ele>20.16918</ele>
        <time>2026-09-06T12:41:24Z</time>
      </trkpt>
      <trkpt lat="39.8710687" lon="116.6675897">
        <ele>20.29429</ele>
        <time>2026-09-06T12:41:29Z</time>
      </trkpt>
      <trkpt lat="39.871017" lon="116.6677035">
        <ele>20.43916</ele>
        <time>2026-09-06T12:41:34Z</time>
      </trkpt>
      <trkpt lat="39.8709727" lon="116.6678249">
        <ele>20.57916</ele>
        <time>2026-09-06T12:41:39Z</time>
      </trkpt>
      <trkpt lat="39.8708785" lon="116.6678785">
        <ele>20.68477</ele>
        <time>2026-09-06T12:41:44Z</time>
      </trkpt>
      <trkpt lat="39.8707853" lon="116.6678843">
        <ele>20.73327</ele>
        <time>2026-09-06T12:41:48Z</time>
      </trkpt>
      <trkpt lat="39.8706925" lon="116.6678861">
        <ele>20.76118</ele>
        <time>2026-09-06T12:41:52Z</time>
      </trkpt>
      <trkpt lat="39.8706001" lon="116.6678884">
        <ele>20.78861</ele>
        <time>2026-09-06T12:41:56Z</time>
      </trkpt>
      <trkpt lat="39.8704884" lon="116.6678919">
        <ele>20.83726</ele>
        <time>2026-09-06T12:42:01Z</time>
      </trkpt>
      <trkpt lat="39.870378" lon="116.6678759">
        <ele>20.89431</ele>
        <time>2026-09-06T12:42:06Z</time>
      </trkpt>
      <trkpt lat="39.8702772" lon="116.6678182">
        <ele>20.94083</ele>
        <time>2026-09-06T12:42:11Z</time>
      </trkpt>
      <trkpt lat="39.8701744" lon="116.6678024">
        <ele>20.96365</ele>
        <time>2026-09-06T12:42:16Z</time>
      </trkpt>
      <trkpt lat="39.8700701" lon="116.6678208">
        <ele>20.95186</ele>
        <time>2026-09-06T12:42:20.999000Z</time>
      </trkpt>
      <trkpt lat="39.8699659" lon="116.6678132">
        <ele>20.89429</ele>
        <time>2026-09-06T12:42:25.976000Z</time>
      </trkpt>
      <trkpt lat="39.8698638" lon="116.6677812">
        <ele>20.82154</ele>
        <time>2026-09-06T12:42:30.953000Z</time>
      </trkpt>
      <trkpt lat="39.869761" lon="116.6677582">
        <ele>20.78013</ele>
        <time>2026-09-06T12:42:35.929000Z</time>
      </trkpt>
      <trkpt lat="39.8696599" lon="116.6677635">
        <ele>20.79963</ele>
        <time>2026-09-06T12:42:40.906000Z</time>
      </trkpt>
      <trkpt lat="39.869569" lon="116.6678055">
        <ele>20.90076</ele>
        <time>2026-09-06T12:42:45.883000Z</time>
      </trkpt>
      <trkpt lat="39.8695002" lon="116.6678954">
        <ele>21.09568</ele>
        <time>2026-09-06T12:42:50.860000Z</time>
      </trkpt>
      <trkpt lat="39.8694701" lon="116.6680163">
        <ele>21.29104</ele>
        <time>2026-09-06T12:42:55.836000Z</time>
      </trkpt>
      <trkpt lat="39.8694723" lon="116.6681452">
        <ele>21.4199</ele>
        <time>2026-09-06T12:43:00.813000Z</time>
      </trkpt>
      <trkpt lat="39.8695059" lon="116.6682644">
        <ele>21.4556</ele>
        <time>2026-09-06T12:43:05.790000Z</time>
      </trkpt>
      <trkpt lat="39.8695767" lon="116.6683501">
        <ele>21.38426</ele>
        <time>2026-09-06T12:43:10.767000Z</time>
      </trkpt>
      <trkpt lat="39.8696691" lon="116.6683765">
        <ele>21.22781</ele>
        <time>2026-09-06T12:43:15.743000Z</time>
      </trkpt>
      <trkpt lat="39.8697675" lon="116.6683496">
        <ele>21.01325</ele>
        <time>2026-09-06T12:43:20.720000Z</time>
      </trkpt>
      <trkpt lat="39.8698643" lon="116.6683091">
        <ele>20.82523</ele>
        <time>2026-09-06T12:43:25.697000Z</time>
      </trkpt>
      <trkpt lat="39.8699643" lon="116.6682947">
        <ele>20.70059</ele>
        <time>2026-09-06T12:43:30.674000Z</time>
      </trkpt>
      <trkpt lat="39.8700652" lon="116.6682964">
        <ele>20.6438</ele>
        <time>2026-09-06T12:43:35.650000Z</time>
      </trkpt>
      <trkpt lat="39.8701638" lon="116.6682849">
        <ele>20.65046</ele>
        <time>2026-09-06T12:43:40.627000Z</time>
      </trkpt>
      <trkpt lat="39.8702595" lon="116.6682492">
        <ele>20.66745</ele>
        <time>2026-09-06T12:43:45.604000Z</time>
      </trkpt>
      <trkpt lat="39.8703475" lon="116.6681916">
        <ele>20.60594</ele>
        <time>2026-09-06T12:43:50.581000Z</time>
      </trkpt>
      <trkpt lat="39.8704375" lon="116.6681287">
        <ele>20.48373</ele>
        <time>2026-09-06T12:43:55.557000Z</time>
      </trkpt>
      <trkpt lat="39.8705339" lon="116.6680938">
        <ele>20.40078</ele>
        <time>2026-09-06T12:44:00.534000Z</time>
      </trkpt>
      <trkpt lat="39.8706282" lon="116.6680953">
        <ele>20.43755</ele>
        <time>2026-09-06T12:44:05.511000Z</time>
      </trkpt>
      <trkpt lat="39.8707256" lon="116.6681018">
        <ele>20.57752</ele>
        <time>2026-09-06T12:44:10.488000Z</time>
      </trkpt>
      <trkpt lat="39.870826" lon="116.6681275">
        <ele>20.79466</ele>
        <time>2026-09-06T12:44:15.464000Z</time>
      </trkpt>
      <trkpt lat="39.8709315" lon="116.6681135">
        <ele>21.02336</ele>
        <time>2026-09-06T12:44:20.441000Z</time>
      </trkpt>
      <trkpt lat="39.8710319" lon="116.6680753">
        <ele>21.20202</ele>
        <time>2026-09-06T12:44:25.418000Z</time>
      </trkpt>
      <trkpt lat="39.8711275" lon="116.6680422">
        <ele>21.29016</ele>
        <time>2026-09-06T12:44:30.395000Z</time>
      </trkpt>
      <trkpt lat="39.8712147" lon="116.6679841">
        <ele>21.23969</ele>
        <time>2026-09-06T12:44:35.371000Z</time>
      </trkpt>
      <trkpt lat="39.8713038" lon="116.6679355">
        <ele>21.07087</ele>
        <time>2026-09-06T12:44:40.348000Z</time>
      </trkpt>
      <trkpt lat="39.8714082" lon="116.6679214">
        <ele>20.85998</ele>
        <time>2026-09-06T12:44:45.325000Z</time>
      </trkpt>
      <trkpt lat="39.8714978" lon="116.6679361">
        <ele>20.71344</ele>
        <time>2026-09-06T12:44:49.306000Z</time>
      </trkpt>
      <trkpt lat="39.8716026" lon="116.6679769">
        <ele>20.61515</ele>
        <time>2026-09-06T12:44:54.283000Z</time>
      </trkpt>
      <trkpt lat="39.8717033" lon="116.668039">
        <ele>20.621</ele>
        <time>2026-09-06T12:44:59.260000Z</time>
      </trkpt>
      <trkpt lat="39.8717965" lon="116.6681128">
        <ele>20.6975</ele>
        <time>2026-09-06T12:45:04.237000Z</time>
      </trkpt>
      <trkpt lat="39.8718934" lon="116.668167">
        <ele>20.81994</ele>
        <time>2026-09-06T12:45:09.213000Z</time>
      </trkpt>
      <trkpt lat="39.8719891" lon="116.6681956">
        <ele>20.94542</ele>
        <time>2026-09-06T12:45:14Z</time>
      </trkpt>
      <trkpt lat="39.8720872" lon="116.668204">
        <ele>21.03988</ele>
        <time>2026-09-06T12:45:19Z</time>
      </trkpt>
      <trkpt lat="39.8721929" lon="116.6681995">
        <ele>21.10715</ele>
        <time>2026-09-06T12:45:24.144000Z</time>
      </trkpt>
      <trkpt lat="39.8722951" lon="116.668213">
        <ele>21.17391</ele>
        <time>2026-09-06T12:45:29.120000Z</time>
      </trkpt>
      <trkpt lat="39.8723929" lon="116.668259">
        <ele>21.26016</ele>
        <time>2026-09-06T12:45:34.097000Z</time>
      </trkpt>
      <trkpt lat="39.8724715" lon="116.668343">
        <ele>21.30544</ele>
        <time>2026-09-06T12:45:39.074000Z</time>
      </trkpt>
      <trkpt lat="39.8725319" lon="116.6684512">
        <ele>21.29303</ele>
        <time>2026-09-06T12:45:44Z</time>
      </trkpt>
      <trkpt lat="39.8725818" lon="116.6685701">
        <ele>21.27621</ele>
        <time>2026-09-06T12:45:49Z</time>
      </trkpt>
      <trkpt lat="39.8726113" lon="116.6686975">
        <ele>21.263</ele>
        <time>2026-09-06T12:45:54Z</time>
      </trkpt>
      <trkpt lat="39.8726186" lon="116.6688335">
        <ele>21.2345</ele>
        <time>2026-09-06T12:45:58.981000Z</time>
      </trkpt>
      <trkpt lat="39.8726048" lon="116.6689668">
        <ele>21.19121</ele>
        <time>2026-09-06T12:46:03.958000Z</time>
      </trkpt>
      <trkpt lat="39.8725745" lon="116.6690929">
        <ele>21.14472</ele>
        <time>2026-09-06T12:46:08.934000Z</time>
      </trkpt>
      <trkpt lat="39.8725399" lon="116.6692163">
        <ele>21.15187</ele>
        <time>2026-09-06T12:46:13.911000Z</time>
      </trkpt>
      <trkpt lat="39.872515" lon="116.6693389">
        <ele>21.22344</ele>
        <time>2026-09-06T12:46:18.888000Z</time>
      </trkpt>
      <trkpt lat="39.8724998" lon="116.6694691">
        <ele>21.321</ele>
        <time>2026-09-06T12:46:23.865000Z</time>
      </trkpt>
      <trkpt lat="39.8724974" lon="116.6696023">
        <ele>21.42504</ele>
        <time>2026-09-06T12:46:28.841000Z</time>
      </trkpt>
      <trkpt lat="39.8725213" lon="116.6697302">
        <ele>21.48832</ele>
        <time>2026-09-06T12:46:33.818000Z</time>
      </trkpt>
      <trkpt lat="39.8725564" lon="116.6698509">
        <ele>21.51167</ele>
        <time>2026-09-06T12:46:38.795000Z</time>
      </trkpt>
      <trkpt lat="39.8726136" lon="116.6699552">
        <ele>21.53287</ele>
        <time>2026-09-06T12:46:43.772000Z</time>
      </trkpt>
      <trkpt lat="39.8726885" lon="116.6700324">
        <ele>21.53323</ele>
        <time>2026-09-06T12:46:48.748000Z</time>
      </trkpt>
      <trkpt lat="39.8727746" lon="116.6700886">
        <ele>21.491</ele>
        <time>2026-09-06T12:46:53.725000Z</time>
      </trkpt>
      <trkpt lat="39.8728679" lon="116.6701348">
        <ele>21.40182</ele>
        <time>2026-09-06T12:46:58.702000Z</time>
      </trkpt>
      <trkpt lat="39.8729648" lon="116.6701619">
        <ele>21.26913</ele>
        <time>2026-09-06T12:47:03.679000Z</time>
      </trkpt>
      <trkpt lat="39.8730695" lon="116.6701661">
        <ele>21.16075</ele>
        <time>2026-09-06T12:47:08.656000Z</time>
      </trkpt>
      <trkpt lat="39.8731728" lon="116.670153">
        <ele>21.09812</ele>
        <time>2026-09-06T12:47:13.632000Z</time>
      </trkpt>
      <trkpt lat="39.8732748" lon="116.6701293">
        <ele>21.02618</ele>
        <time>2026-09-06T12:47:18.609000Z</time>
      </trkpt>
      <trkpt lat="39.8733763" lon="116.6700983">
        <ele>20.90927</ele>
        <time>2026-09-06T12:47:23.586000Z</time>
      </trkpt>
      <trkpt lat="39.8734692" lon="116.6700427">
        <ele>20.7619</ele>
        <time>2026-09-06T12:47:28.563000Z</time>
      </trkpt>
      <trkpt lat="39.8735521" lon="116.6699652">
        <ele>20.64327</ele>
        <time>2026-09-06T12:47:33.539000Z</time>
      </trkpt>
      <trkpt lat="39.8736304" lon="116.6698814">
        <ele>20.60047</ele>
        <time>2026-09-06T12:47:38.516000Z</time>
      </trkpt>
      <trkpt lat="39.8737131" lon="116.6698121">
        <ele>20.62075</ele>
        <time>2026-09-06T12:47:43.493000Z</time>
      </trkpt>
      <trkpt lat="39.8738088" lon="116.6697832">
        <ele>20.65615</ele>
        <time>2026-09-06T12:47:48.470000Z</time>
      </trkpt>
      <trkpt lat="39.8739171" lon="116.6697972">
        <ele>20.7144</ele>
        <time>2026-09-06T12:47:53.446000Z</time>
      </trkpt>
      <trkpt lat="39.8740189" lon="116.6698162">
        <ele>20.78683</ele>
        <time>2026-09-06T12:47:57.428000Z</time>
      </trkpt>
      <trkpt lat="39.8741204" lon="116.6698223">
        <ele>20.83508</ele>
        <time>2026-09-06T12:48:01.409000Z</time>
      </trkpt>
      <trkpt lat="39.8742189" lon="116.6698024">
        <ele>20.82268</ele>
        <time>2026-09-06T12:48:05.391000Z</time>
      </trkpt>
      <trkpt lat="39.8743084" lon="116.6697416">
        <ele>20.7918</ele>
        <time>2026-09-06T12:48:09.372000Z</time>
      </trkpt>
      <trkpt lat="39.8743842" lon="116.6696548">
        <ele>20.82149</ele>
        <time>2026-09-06T12:48:13.353000Z</time>
      </trkpt>
      <trkpt lat="39.8744555" lon="116.669564">
        <ele>20.94232</ele>
        <time>2026-09-06T12:48:17.334000Z</time>
      </trkpt>
      <trkpt lat="39.8745392" lon="116.6694937">
        <ele>21.15436</ele>
        <time>2026-09-06T12:48:21.315000Z</time>
      </trkpt>
      <trkpt lat="39.8746348" lon="116.6694736">
        <ele>21.44369</ele>
        <time>2026-09-06T12:48:25.296000Z</time>
      </trkpt>
      <trkpt lat="39.8747262" lon="116.6694947">
        <ele>21.77668</ele>
        <time>2026-09-06T12:48:29.277000Z</time>
      </trkpt>
      <trkpt lat="39.8748151" lon="116.6695378">
        <ele>22.11543</ele>
        <time>2026-09-06T12:48:33.258000Z</time>
      </trkpt>
      <trkpt lat="39.8749071" lon="116.6695661">
        <ele>22.42463</ele>
        <time>2026-09-06T12:48:37.239000Z</time>
      </trkpt>
      <trkpt lat="39.874999" lon="116.669591">
        <ele>22.70397</ele>
        <time>2026-09-06T12:48:41.220000Z</time>
      </trkpt>
      <trkpt lat="39.8750912" lon="116.6696015">
        <ele>22.95542</ele>
        <time>2026-09-06T12:48:45.202000Z</time>
      </trkpt>
      <trkpt lat="39.8751835" lon="116.6695702">
        <ele>23.17029</ele>
        <time>2026-09-06T12:48:49.183000Z</time>
      </trkpt>
      <trkpt lat="39.8752674" lon="116.6695144">
        <ele>23.33976</ele>
        <time>2026-09-06T12:48:53.164000Z</time>
      </trkpt>
      <trkpt lat="39.8753521" lon="116.669466">
        <ele>23.44552</ele>
        <time>2026-09-06T12:48:57.146000Z</time>
      </trkpt>
      <trkpt lat="39.8754578" lon="116.6694238">
        <ele>23.49335</ele>
        <time>2026-09-06T12:49:02.122000Z</time>
      </trkpt>
      <trkpt lat="39.8755389" lon="116.6693712">
        <ele>23.47355</ele>
        <time>2026-09-06T12:49:06.104000Z</time>
      </trkpt>
      <trkpt lat="39.8756094" lon="116.6692638">
        <ele>23.40871</ele>
        <time>2026-09-06T12:49:11.080000Z</time>
      </trkpt>
      <trkpt lat="39.8756413" lon="116.6691279">
        <ele>23.32201</ele>
        <time>2026-09-06T12:49:16.057000Z</time>
      </trkpt>
      <trkpt lat="39.8756293" lon="116.6689974">
        <ele>23.20841</ele>
        <time>2026-09-06T12:49:21.034000Z</time>
      </trkpt>
      <trkpt lat="39.8755832" lon="116.6688808">
        <ele>23.11725</ele>
        <time>2026-09-06T12:49:25.996000Z</time>
      </trkpt>
      <trkpt lat="39.8755113" lon="116.668782">
        <ele>23.04988</ele>
        <time>2026-09-06T12:49:30.987000Z</time>
      </trkpt>
      <trkpt lat="39.8754421" lon="116.668705">
        <ele>23.00431</ele>
        <time>2026-09-06T12:49:34.969000Z</time>
      </trkpt>
      <trkpt lat="39.8753782" lon="116.6686173">
        <ele>22.92675</ele>
        <time>2026-09-06T12:49:38.950000Z</time>
      </trkpt>
      <trkpt lat="39.8753303" lon="116.6685156">
        <ele>22.81248</ele>
        <time>2026-09-06T12:49:42.932000Z</time>
      </trkpt>
      <trkpt lat="39.8753014" lon="116.6684021">
        <ele>22.69292</ele>
        <time>2026-09-06T12:49:46.913000Z</time>
      </trkpt>
      <trkpt lat="39.875275" lon="116.6682845">
        <ele>22.60466</ele>
        <time>2026-09-06T12:49:50.894000Z</time>
      </trkpt>
      <trkpt lat="39.8752509" lon="116.6681654">
        <ele>22.57063</ele>
        <time>2026-09-06T12:49:54.876000Z</time>
      </trkpt>
      <trkpt lat="39.8752235" lon="116.6680526">
        <ele>22.5677</ele>
        <time>2026-09-06T12:49:58.857000Z</time>
      </trkpt>
      <trkpt lat="39.8751837" lon="116.6679456">
        <ele>22.55893</ele>
        <time>2026-09-06T12:50:02.839000Z</time>
      </trkpt>
      <trkpt lat="39.8751362" lon="116.6678448">
        <ele>22.5271</ele>
        <time>2026-09-06T12:50:06.820000Z</time>
      </trkpt>
      <trkpt lat="39.8750744" lon="116.6677552">
        <ele>22.46678</ele>
        <time>2026-09-06T12:50:10.802000Z</time>
      </trkpt>
      <trkpt lat="39.8750033" lon="116.6676795">
        <ele>22.3762</ele>
        <time>2026-09-06T12:50:14.784000Z</time>
      </trkpt>
      <trkpt lat="39.8749195" lon="116.6676186">
        <ele>22.27155</ele>
        <time>2026-09-06T12:50:18.766000Z</time>
      </trkpt>
      <trkpt lat="39.8748324" lon="116.6675758">
        <ele>22.17677</ele>
        <time>2026-09-06T12:50:22.748000Z</time>
      </trkpt>
      <trkpt lat="39.8747457" lon="116.6675431">
        <ele>22.10695</ele>
        <time>2026-09-06T12:50:26.730000Z</time>
      </trkpt>
      <trkpt lat="39.8746385" lon="116.6675051">
        <ele>22.09246</ele>
        <time>2026-09-06T12:50:31.707000Z</time>
      </trkpt>
      <trkpt lat="39.8745338" lon="116.6674798">
        <ele>22.14759</ele>
        <time>2026-09-06T12:50:36.684000Z</time>
      </trkpt>
      <trkpt lat="39.8744318" lon="116.6674934">
        <ele>22.19153</ele>
        <time>2026-09-06T12:50:41.660000Z</time>
      </trkpt>
      <trkpt lat="39.8743401" lon="116.6675436">
        <ele>22.16253</ele>
        <time>2026-09-06T12:50:46.637000Z</time>
      </trkpt>
      <trkpt lat="39.8742473" lon="116.6676072">
        <ele>22.03915</ele>
        <time>2026-09-06T12:50:51.614000Z</time>
      </trkpt>
      <trkpt lat="39.8741517" lon="116.667666">
        <ele>21.86461</ele>
        <time>2026-09-06T12:50:56.591000Z</time>
      </trkpt>
      <trkpt lat="39.8740518" lon="116.6677246">
        <ele>21.70535</ele>
        <time>2026-09-06T12:51:01.568000Z</time>
      </trkpt>
      <trkpt lat="39.8739509" lon="116.6677656">
        <ele>21.58959</ele>
        <time>2026-09-06T12:51:06.545000Z</time>
      </trkpt>
      <trkpt lat="39.8738469" lon="116.6677971">
        <ele>21.49923</ele>
        <time>2026-09-06T12:51:11.521000Z</time>
      </trkpt>
      <trkpt lat="39.873737" lon="116.6677921">
        <ele>21.43029</ele>
        <time>2026-09-06T12:51:16.498000Z</time>
      </trkpt>
      <trkpt lat="39.8736466" lon="116.667777">
        <ele>21.39095</ele>
        <time>2026-09-06T12:51:20.480000Z</time>
      </trkpt>
      <trkpt lat="39.8735564" lon="116.66776">
        <ele>21.38738</ele>
        <time>2026-09-06T12:51:24.461000Z</time>
      </trkpt>
      <trkpt lat="39.8734619" lon="116.6677428">
        <ele>21.40243</ele>
        <time>2026-09-06T12:51:28.442000Z</time>
      </trkpt>
      <trkpt lat="39.8733662" lon="116.6677368">
        <ele>21.42348</ele>
        <time>2026-09-06T12:51:32.424000Z</time>
      </trkpt>
      <trkpt lat="39.8732744" lon="116.6677573">
        <ele>21.46032</ele>
        <time>2026-09-06T12:51:36.405000Z</time>
      </trkpt>
      <trkpt lat="39.8731886" lon="116.6678027">
        <ele>21.50079</ele>
        <time>2026-09-06T12:51:40.387000Z</time>
      </trkpt>
      <trkpt lat="39.8731026" lon="116.667843">
        <ele>21.51528</ele>
        <time>2026-09-06T12:51:44.368000Z</time>
      </trkpt>
      <trkpt lat="39.8730119" lon="116.6678584">
        <ele>21.49234</ele>
        <time>2026-09-06T12:51:48.349000Z</time>
      </trkpt>
      <trkpt lat="39.8729206" lon="116.6678452">
        <ele>21.45625</ele>
        <time>2026-09-06T12:51:52.331000Z</time>
      </trkpt>
      <trkpt lat="39.8728154" lon="116.6677952">
        <ele>21.42956</ele>
        <time>2026-09-06T12:51:57.308000Z</time>
      </trkpt>
      <trkpt lat="39.8727135" lon="116.6677443">
        <ele>21.46042</ele>
        <time>2026-09-06T12:52:02.284000Z</time>
      </trkpt>
      <trkpt lat="39.872607" lon="116.6677097">
        <ele>21.52945</ele>
        <time>2026-09-06T12:52:07.261000Z</time>
      </trkpt>
      <trkpt lat="39.8724976" lon="116.6676998">
        <ele>21.57151</ele>
        <time>2026-09-06T12:52:12.238000Z</time>
      </trkpt>
      <trkpt lat="39.872394" lon="116.6677016">
        <ele>21.52306</ele>
        <time>2026-09-06T12:52:17.215000Z</time>
      </trkpt>
      <trkpt lat="39.8722943" lon="116.6677138">
        <ele>21.36321</ele>
        <time>2026-09-06T12:52:22Z</time>
      </trkpt>
      <trkpt lat="39.8721869" lon="116.6677251">
        <ele>21.18242</ele>
        <time>2026-09-06T12:52:27Z</time>
      </trkpt>
      <trkpt lat="39.8720754" lon="116.6677201">
        <ele>21.02311</ele>
        <time>2026-09-06T12:52:32Z</time>
      </trkpt>
      <trkpt lat="39.8719674" lon="116.6676973">
        <ele>20.85966</ele>
        <time>2026-09-06T12:52:37Z</time>
      </trkpt>
      <trkpt lat="39.8718627" lon="116.6676486">
        <ele>20.70279</ele>
        <time>2026-09-06T12:52:42Z</time>
      </trkpt>
      <trkpt lat="39.8717606" lon="116.6675914">
        <ele>20.56921</ele>
        <time>2026-09-06T12:52:47Z</time>
      </trkpt>
      <trkpt lat="39.8716553" lon="116.6675501">
        <ele>20.4612</ele>
        <time>2026-09-06T12:52:52Z</time>
      </trkpt>
      <trkpt lat="39.8715464" lon="116.6675209">
        <ele>20.38444</ele>
        <time>2026-09-06T12:52:57.029000Z</time>
      </trkpt>
      <trkpt lat="39.8714397" lon="116.6675087">
        <ele>20.31928</ele>
        <time>2026-09-06T12:53:02Z</time>
      </trkpt>
      <trkpt lat="39.8713314" lon="116.6675123">
        <ele>20.247</ele>
        <time>2026-09-06T12:53:06.982000Z</time>
      </trkpt>
      <trkpt lat="39.8712277" lon="116.6675249">
        <ele>20.22725</ele>
        <time>2026-09-06T12:53:11.959000Z</time>
      </trkpt>
      <trkpt lat="39.8711219" lon="116.6675465">
        <ele>20.20103</ele>
        <time>2026-09-06T12:53:16.936000Z</time>
      </trkpt>
      <trkpt lat="39.87103" lon="116.6675952">
        <ele>20.17308</ele>
        <time>2026-09-06T12:53:21.912000Z</time>
      </trkpt>
      <trkpt lat="39.8709912" lon="116.6677097">
        <ele>20.27295</ele>
        <time>2026-09-06T12:53:26.889000Z</time>
      </trkpt>
      <trkpt lat="39.87095" lon="116.6678335">
        <ele>20.52267</ele>
        <time>2026-09-06T12:53:31.866000Z</time>
      </trkpt>
      <trkpt lat="39.8708462" lon="116.6678804">
        <ele>20.77954</ele>
        <time>2026-09-06T12:53:36.843000Z</time>
      </trkpt>
      <trkpt lat="39.8707521" lon="116.6678809">
        <ele>20.9076</ele>
        <time>2026-09-06T12:53:40.824000Z</time>
      </trkpt>
      <trkpt lat="39.8706602" lon="116.6678806">
        <ele>20.99394</ele>
        <time>2026-09-06T12:53:44.805000Z</time>
      </trkpt>
      <trkpt lat="39.8705511" lon="116.6678814">
        <ele>21.10554</ele>
        <time>2026-09-06T12:53:49.782000Z</time>
      </trkpt>
      <trkpt lat="39.8704603" lon="116.6678797">
        <ele>21.20507</ele>
        <time>2026-09-06T12:53:53.764000Z</time>
      </trkpt>
      <trkpt lat="39.8703688" lon="116.6678647">
        <ele>21.30644</ele>
        <time>2026-09-06T12:53:57.745000Z</time>
      </trkpt>
      <trkpt lat="39.870267" lon="116.6678101">
        <ele>21.39234</ele>
        <time>2026-09-06T12:54:02.722000Z</time>
      </trkpt>
      <trkpt lat="39.8701627" lon="116.6678043">
        <ele>21.40499</ele>
        <time>2026-09-06T12:54:07.699000Z</time>
      </trkpt>
      <trkpt lat="39.8700603" lon="116.667808">
        <ele>21.33313</ele>
        <time>2026-09-06T12:54:12.675000Z</time>
      </trkpt>
      <trkpt lat="39.8699552" lon="116.6677911">
        <ele>21.21956</ele>
        <time>2026-09-06T12:54:17.652000Z</time>
      </trkpt>
      <trkpt lat="39.86985" lon="116.6677609">
        <ele>21.1295</ele>
        <time>2026-09-06T12:54:22.629000Z</time>
      </trkpt>
      <trkpt lat="39.8697449" lon="116.6677351">
        <ele>21.08566</ele>
        <time>2026-09-06T12:54:27.606000Z</time>
      </trkpt>
      <trkpt lat="39.8696415" lon="116.6677402">
        <ele>21.06208</ele>
        <time>2026-09-06T12:54:32.582000Z</time>
      </trkpt>
      <trkpt lat="39.8695459" lon="116.667787">
        <ele>21.05081</ele>
        <time>2026-09-06T12:54:37.559000Z</time>
      </trkpt>
      <trkpt lat="39.8694766" lon="116.6678865">
        <ele>21.08754</ele>
        <time>2026-09-06T12:54:42.536000Z</time>
      </trkpt>
      <trkpt lat="39.869457" lon="116.6680257">
        <ele>21.17431</ele>
        <time>2026-09-06T12:54:47.513000Z</time>
      </trkpt>
      <trkpt lat="39.869473" lon="116.6681642">
        <ele>21.30838</ele>
        <time>2026-09-06T12:54:52.490000Z</time>
      </trkpt>
      <trkpt lat="39.8695256" lon="116.6682894">
        <ele>21.40735</ele>
        <time>2026-09-06T12:54:57.466000Z</time>
      </trkpt>
      <trkpt lat="39.8696134" lon="116.6683765">
        <ele>21.40465</ele>
        <time>2026-09-06T12:55:02.443000Z</time>
      </trkpt>
      <trkpt lat="39.8697218" lon="116.668399">
        <ele>21.28765</ele>
        <time>2026-09-06T12:55:07.420000Z</time>
      </trkpt>
      <trkpt lat="39.8698298" lon="116.668369">
        <ele>21.10327</ele>
        <time>2026-09-06T12:55:12.397000Z</time>
      </trkpt>
      <trkpt lat="39.8699379" lon="116.6683331">
        <ele>20.94366</ele>
        <time>2026-09-06T12:55:17.373000Z</time>
      </trkpt>
      <trkpt lat="39.8700286" lon="116.6683235">
        <ele>20.88546</ele>
        <time>2026-09-06T12:55:21.355000Z</time>
      </trkpt>
      <trkpt lat="39.8701404" lon="116.6683215">
        <ele>20.90636</ele>
        <time>2026-09-06T12:55:26.332000Z</time>
      </trkpt>
      <trkpt lat="39.8702489" lon="116.6682944">
        <ele>20.94816</ele>
        <time>2026-09-06T12:55:31.308000Z</time>
      </trkpt>
      <trkpt lat="39.8703499" lon="116.6682411">
        <ele>20.87947</ele>
        <time>2026-09-06T12:55:36.285000Z</time>
      </trkpt>
      <trkpt lat="39.8704418" lon="116.6681724">
        <ele>20.65162</ele>
        <time>2026-09-06T12:55:41.262000Z</time>
      </trkpt>
      <trkpt lat="39.8705367" lon="116.66811">
        <ele>20.35935</ele>
        <time>2026-09-06T12:55:46.239000Z</time>
      </trkpt>
      <trkpt lat="39.8706405" lon="116.6680827">
        <ele>20.14569</ele>
        <time>2026-09-06T12:55:51.215000Z</time>
      </trkpt>
      <trkpt lat="39.8707437" lon="116.6680916">
        <ele>20.09563</ele>
        <time>2026-09-06T12:55:56.192000Z</time>
      </trkpt>
      <trkpt lat="39.8708468" lon="116.6681028">
        <ele>20.15035</ele>
        <time>2026-09-06T12:56:01.169000Z</time>
      </trkpt>
      <trkpt lat="39.8709539" lon="116.6680989">
        <ele>20.23223</ele>
        <time>2026-09-06T12:56:06.146000Z</time>
      </trkpt>
      <trkpt lat="39.8710558" lon="116.6680565">
        <ele>20.35751</ele>
        <time>2026-09-06T12:56:11.122000Z</time>
      </trkpt>
      <trkpt lat="39.8711525" lon="116.6680007">
        <ele>20.52995</ele>
        <time>2026-09-06T12:56:16.099000Z</time>
      </trkpt>
      <trkpt lat="39.8712473" lon="116.667948">
        <ele>20.66654</ele>
        <time>2026-09-06T12:56:21.076000Z</time>
      </trkpt>
      <trkpt lat="39.8713448" lon="116.6679005">
        <ele>20.67428</ele>
        <time>2026-09-06T12:56:26.053000Z</time>
      </trkpt>
      <trkpt lat="39.8714404" lon="116.6678718">
        <ele>20.58984</ele>
        <time>2026-09-06T12:56:31.030000Z</time>
      </trkpt>
      <trkpt lat="39.8715414" lon="116.6679067">
        <ele>20.52208</ele>
        <time>2026-09-06T12:56:36.006000Z</time>
      </trkpt>
      <trkpt lat="39.871635" lon="116.6679695">
        <ele>20.4775</ele>
        <time>2026-09-06T12:56:40.983000Z</time>
      </trkpt>
      <trkpt lat="39.8717276" lon="116.6680537">
        <ele>20.457</ele>
        <time>2026-09-06T12:56:45.960000Z</time>
      </trkpt>
      <trkpt lat="39.8718111" lon="116.6681186">
        <ele>20.47474</ele>
        <time>2026-09-06T12:56:49.941000Z</time>
      </trkpt>
      <trkpt lat="39.8719007" lon="116.6681658">
        <ele>20.55185</ele>
        <time>2026-09-06T12:56:53.923000Z</time>
      </trkpt>
      <trkpt lat="39.871992" lon="116.6681871">
        <ele>20.67615</ele>
        <time>2026-09-06T12:56:57.904000Z</time>
      </trkpt>
      <trkpt lat="39.8720871" lon="116.6681886">
        <ele>20.81436</ele>
        <time>2026-09-06T12:57:01.886000Z</time>
      </trkpt>
      <trkpt lat="39.8721821" lon="116.6681854">
        <ele>20.92317</ele>
        <time>2026-09-06T12:57:05.867000Z</time>
      </trkpt>
      <trkpt lat="39.8722755" lon="116.6682027">
        <ele>20.99547</ele>
        <time>2026-09-06T12:57:09.849000Z</time>
      </trkpt>
      <trkpt lat="39.8723612" lon="116.6682527">
        <ele>21.04088</ele>
        <time>2026-09-06T12:57:13.830000Z</time>
      </trkpt>
      <trkpt lat="39.8724363" lon="116.6683297">
        <ele>21.06265</ele>
        <time>2026-09-06T12:57:17.811000Z</time>
      </trkpt>
      <trkpt lat="39.8724998" lon="116.668424">
        <ele>21.07231</ele>
        <time>2026-09-06T12:57:21.793000Z</time>
      </trkpt>
      <trkpt lat="39.8725565" lon="116.6685279">
        <ele>21.07704</ele>
        <time>2026-09-06T12:57:25.774000Z</time>
      </trkpt>
      <trkpt lat="39.8725965" lon="116.6686375">
        <ele>21.08178</ele>
        <time>2026-09-06T12:57:29.756000Z</time>
      </trkpt>
      <trkpt lat="39.8726153" lon="116.6687546">
        <ele>21.09586</ele>
        <time>2026-09-06T12:57:33.737000Z</time>
      </trkpt>
      <trkpt lat="39.8726177" lon="116.6688723">
        <ele>21.12454</ele>
        <time>2026-09-06T12:57:37.719000Z</time>
      </trkpt>
      <trkpt lat="39.8725959" lon="116.669015">
        <ele>21.17205</ele>
        <time>2026-09-06T12:57:42.695000Z</time>
      </trkpt>
      <trkpt lat="39.8725625" lon="116.6691529">
        <ele>21.22765</ele>
        <time>2026-09-06T12:57:47.672000Z</time>
      </trkpt>
      <trkpt lat="39.8725294" lon="116.6692845">
        <ele>21.28857</ele>
        <time>2026-09-06T12:57:52.649000Z</time>
      </trkpt>
      <trkpt lat="39.8725069" lon="116.6694227">
        <ele>21.29448</ele>
        <time>2026-09-06T12:57:57.626000Z</time>
      </trkpt>
      <trkpt lat="39.8725038" lon="116.6695654">
        <ele>21.22562</ele>
        <time>2026-09-06T12:58:02.602000Z</time>
      </trkpt>
      <trkpt lat="39.8725172" lon="116.6697045">
        <ele>21.15599</ele>
        <time>2026-09-06T12:58:07.579000Z</time>
      </trkpt>
      <trkpt lat="39.8725523" lon="116.6698392">
        <ele>21.14673</ele>
        <time>2026-09-06T12:58:12.556000Z</time>
      </trkpt>
      <trkpt lat="39.8726123" lon="116.6699583">
        <ele>21.19315</ele>
        <time>2026-09-06T12:58:17.533000Z</time>
      </trkpt>
      <trkpt lat="39.8726953" lon="116.670045">
        <ele>21.28859</ele>
        <time>2026-09-06T12:58:22.509000Z</time>
      </trkpt>
      <trkpt lat="39.8727939" lon="116.6700978">
        <ele>21.35141</ele>
        <time>2026-09-06T12:58:27.486000Z</time>
      </trkpt>
      <trkpt lat="39.8728966" lon="116.6701345">
        <ele>21.33681</ele>
        <time>2026-09-06T12:58:32.463000Z</time>
      </trkpt>
      <trkpt lat="39.8730006" lon="116.6701562">
        <ele>21.25241</ele>
        <time>2026-09-06T12:58:37.440000Z</time>
      </trkpt>
      <trkpt lat="39.8731065" lon="116.6701524">
        <ele>21.15508</ele>
        <time>2026-09-06T12:58:42.417000Z</time>
      </trkpt>
      <trkpt lat="39.873211" lon="116.6701279">
        <ele>21.08384</ele>
        <time>2026-09-06T12:58:47.393000Z</time>
      </trkpt>
      <trkpt lat="39.8733127" lon="116.6700892">
        <ele>21.03542</ele>
        <time>2026-09-06T12:58:52.370000Z</time>
      </trkpt>
      <trkpt lat="39.8734113" lon="116.6700448">
        <ele>20.9371</ele>
        <time>2026-09-06T12:58:57.347000Z</time>
      </trkpt>
      <trkpt lat="39.8735043" lon="116.6699946">
        <ele>20.80535</ele>
        <time>2026-09-06T12:59:02.324000Z</time>
      </trkpt>
      <trkpt lat="39.8735862" lon="116.6699165">
        <ele>20.70738</ele>
        <time>2026-09-06T12:59:07.300000Z</time>
      </trkpt>
      <trkpt lat="39.8736714" lon="116.6698425">
        <ele>20.69118</ele>
        <time>2026-09-06T12:59:12.277000Z</time>
      </trkpt>
      <trkpt lat="39.8737687" lon="116.6697975">
        <ele>20.77891</ele>
        <time>2026-09-06T12:59:17.254000Z</time>
      </trkpt>
      <trkpt lat="39.8738693" lon="116.6697924">
        <ele>20.92907</ele>
        <time>2026-09-06T12:59:22.231000Z</time>
      </trkpt>
      <trkpt lat="39.8739674" lon="116.6698251">
        <ele>21.08641</ele>
        <time>2026-09-06T12:59:27.207000Z</time>
      </trkpt>
      <trkpt lat="39.8740618" lon="116.6698428">
        <ele>21.2271</ele>
        <time>2026-09-06T12:59:32Z</time>
      </trkpt>
      <trkpt lat="39.874164" lon="116.6698413">
        <ele>21.33531</ele>
        <time>2026-09-06T12:59:37Z</time>
      </trkpt>
      <trkpt lat="39.8742633" lon="116.6698221">
        <ele>21.41865</ele>
        <time>2026-09-06T12:59:42Z</time>
      </trkpt>
      <trkpt lat="39.8743488" lon="116.6697363">
        <ele>21.50237</ele>
        <time>2026-09-06T12:59:47Z</time>
      </trkpt>
      <trkpt lat="39.8744081" lon="116.6696476">
        <ele>21.58174</ele>
        <time>2026-09-06T12:59:51Z</time>
      </trkpt>
      <trkpt lat="39.8744712" lon="116.6695627">
        <ele>21.67815</ele>
        <time>2026-09-06T12:59:55Z</time>
      </trkpt>
      <trkpt lat="39.8745489" lon="116.6695033">
        <ele>21.78541</ele>
        <time>2026-09-06T12:59:59Z</time>
      </trkpt>
      <trkpt lat="39.8746372" lon="116.669477">
        <ele>21.89381</ele>
        <time>2026-09-06T13:00:03Z</time>
      </trkpt>
      <trkpt lat="39.8747297" lon="116.6694834">
        <ele>22.00407</ele>
        <time>2026-09-06T13:00:07Z</time>
      </trkpt>
      <trkpt lat="39.8748184" lon="116.6695139">
        <ele>22.12702</ele>
        <time>2026-09-06T13:00:11Z</time>
      </trkpt>
      <trkpt lat="39.8749215" lon="116.6695696">
        <ele>22.29823</ele>
        <time>2026-09-06T13:00:15.980000Z</time>
      </trkpt>
      <trkpt lat="39.8750209" lon="116.669635">
        <ele>22.46022</ele>
        <time>2026-09-06T13:00:20.956000Z</time>
      </trkpt>
      <trkpt lat="39.8751224" lon="116.6696707">
        <ele>22.61381</ele>
        <time>2026-09-06T13:00:25.933000Z</time>
      </trkpt>
      <trkpt lat="39.8752172" lon="116.6696269">
        <ele>22.75192</ele>
        <time>2026-09-06T13:00:30.910000Z</time>
      </trkpt>
      <trkpt lat="39.8752961" lon="116.6695503">
        <ele>22.84413</ele>
        <time>2026-09-06T13:00:35.887000Z</time>
      </trkpt>
      <trkpt lat="39.8753841" lon="116.6695226">
        <ele>22.86974</ele>
        <time>2026-09-06T13:00:40.863000Z</time>
      </trkpt>
      <trkpt lat="39.8754879" lon="116.669517">
        <ele>22.89186</ele>
        <time>2026-09-06T13:00:45.840000Z</time>
      </trkpt>
      <trkpt lat="39.8755843" lon="116.6694446">
        <ele>22.93015</ele>
        <time>2026-09-06T13:00:50.817000Z</time>
      </trkpt>
      <trkpt lat="39.8756463" lon="116.6693243">
        <ele>22.98379</ele>
        <time>2026-09-06T13:00:55.794000Z</time>
      </trkpt>
      <trkpt lat="39.8756647" lon="116.6692094">
        <ele>23.05118</ele>
        <time>2026-09-06T13:00:59.775000Z</time>
      </trkpt>
      <trkpt lat="39.8756564" lon="116.6690671">
        <ele>23.15643</ele>
        <time>2026-09-06T13:01:04.752000Z</time>
      </trkpt>
      <trkpt lat="39.8756213" lon="116.6689423">
        <ele>23.30715</ele>
        <time>2026-09-06T13:01:09.729000Z</time>
      </trkpt>
      <trkpt lat="39.875556" lon="116.6688346">
        <ele>23.43033</ele>
        <time>2026-09-06T13:01:14.705000Z</time>
      </trkpt>
      <trkpt lat="39.8754876" lon="116.6687585">
        <ele>23.44273</ele>
        <time>2026-09-06T13:01:18.687000Z</time>
      </trkpt>
      <trkpt lat="39.875406" lon="116.6686604">
        <ele>23.3243</ele>
        <time>2026-09-06T13:01:23.664000Z</time>
      </trkpt>
      <trkpt lat="39.8753516" lon="116.6685635">
        <ele>23.16497</ele>
        <time>2026-09-06T13:01:27.645000Z</time>
      </trkpt>
      <trkpt lat="39.8753165" lon="116.6684516">
        <ele>23.00702</ele>
        <time>2026-09-06T13:01:31.626000Z</time>
      </trkpt>
      <trkpt lat="39.8752896" lon="116.6683391">
        <ele>22.90527</ele>
        <time>2026-09-06T13:01:35.608000Z</time>
      </trkpt>
      <trkpt lat="39.8752621" lon="116.6682247">
        <ele>22.87644</ele>
        <time>2026-09-06T13:01:39.589000Z</time>
      </trkpt>
      <trkpt lat="39.8752343" lon="116.6681109">
        <ele>22.90458</ele>
        <time>2026-09-06T13:01:43.571000Z</time>
      </trkpt>
      <trkpt lat="39.8751984" lon="116.6679727">
        <ele>22.99037</ele>
        <time>2026-09-06T13:01:48.547000Z</time>
      </trkpt>
      <trkpt lat="39.8751616" lon="116.6678641">
        <ele>23.05278</ele>
        <time>2026-09-06T13:01:52.529000Z</time>
      </trkpt>
      <trkpt lat="39.8750952" lon="116.66775">
        <ele>23.06706</ele>
        <time>2026-09-06T13:01:57.506000Z</time>
      </trkpt>
      <trkpt lat="39.8750133" lon="116.6676608">
        <ele>22.99551</ele>
        <time>2026-09-06T13:02:02.482000Z</time>
      </trkpt>
      <trkpt lat="39.8749138" lon="116.6675947">
        <ele>22.86143</ele>
        <time>2026-09-06T13:02:07.459000Z</time>
      </trkpt>
      <trkpt lat="39.8748105" lon="116.6675455">
        <ele>22.69666</ele>
        <time>2026-09-06T13:02:12.436000Z</time>
      </trkpt>
      <trkpt lat="39.8747051" lon="116.6675153">
        <ele>22.51613</ele>
        <time>2026-09-06T13:02:17.413000Z</time>
      </trkpt>
      <trkpt lat="39.8745979" lon="116.6674964">
        <ele>22.33421</ele>
        <time>2026-09-06T13:02:22.389000Z</time>
      </trkpt>
      <trkpt lat="39.8744898" lon="116.6674964">
        <ele>22.17518</ele>
        <time>2026-09-06T13:02:27.366000Z</time>
      </trkpt>
      <trkpt lat="39.874386" lon="116.6675205">
        <ele>22.05103</ele>
        <time>2026-09-06T13:02:32.343000Z</time>
      </trkpt>
      <trkpt lat="39.8742838" lon="116.6675643">
        <ele>21.91077</ele>
        <time>2026-09-06T13:02:37.319000Z</time>
      </trkpt>
      <trkpt lat="39.8741859" lon="116.6676246">
        <ele>21.73666</ele>
        <time>2026-09-06T13:02:42.296000Z</time>
      </trkpt>
      <trkpt lat="39.8740934" lon="116.6676941">
        <ele>21.58558</ele>
        <time>2026-09-06T13:02:47.273000Z</time>
      </trkpt>
      <trkpt lat="39.8740001" lon="116.6677561">
        <ele>21.50561</ele>
        <time>2026-09-06T13:02:52.250000Z</time>
      </trkpt>
      <trkpt lat="39.8738942" lon="116.6677896">
        <ele>21.49793</ele>
        <time>2026-09-06T13:02:57.226000Z</time>
      </trkpt>
      <trkpt lat="39.8737843" lon="116.6677911">
        <ele>21.50897</ele>
        <time>2026-09-06T13:03:02.203000Z</time>
      </trkpt>
      <trkpt lat="39.8736766" lon="116.6677775">
        <ele>21.51288</ele>
        <time>2026-09-06T13:03:07Z</time>
      </trkpt>
      <trkpt lat="39.8735659" lon="116.6677488">
        <ele>21.50451</ele>
        <time>2026-09-06T13:03:12Z</time>
      </trkpt>
      <trkpt lat="39.8734734" lon="116.6677269">
        <ele>21.49203</ele>
        <time>2026-09-06T13:03:16Z</time>
      </trkpt>
      <trkpt lat="39.8733649" lon="116.6677249">
        <ele>21.4662</ele>
        <time>2026-09-06T13:03:21Z</time>
      </trkpt>
      <trkpt lat="39.8732605" lon="116.6677617">
        <ele>21.4472</ele>
        <time>2026-09-06T13:03:26.091000Z</time>
      </trkpt>
      <trkpt lat="39.8731636" lon="116.6678127">
        <ele>21.46409</ele>
        <time>2026-09-06T13:03:31.068000Z</time>
      </trkpt>
      <trkpt lat="39.873064" lon="116.6678514">
        <ele>21.5009</ele>
        <time>2026-09-06T13:03:36.045000Z</time>
      </trkpt>
      <trkpt lat="39.872958" lon="116.6678446">
        <ele>21.52356</ele>
        <time>2026-09-06T13:03:41Z</time>
      </trkpt>
      <trkpt lat="39.8728543" lon="116.6678047">
        <ele>21.53637</ele>
        <time>2026-09-06T13:03:45.998000Z</time>
      </trkpt>
      <trkpt lat="39.8727545" lon="116.6677706">
        <ele>21.53983</ele>
        <time>2026-09-06T13:03:50.975000Z</time>
      </trkpt>
      <trkpt lat="39.8726618" lon="116.6678114">
        <ele>21.5686</ele>
        <time>2026-09-06T13:03:55.952000Z</time>
      </trkpt>
      <trkpt lat="39.8725836" lon="116.6678939">
        <ele>21.63874</ele>
        <time>2026-09-06T13:04:00.929000Z</time>
      </trkpt>
      <trkpt lat="39.872539" lon="116.6680045">
        <ele>21.67721</ele>
        <time>2026-09-06T13:04:05.905000Z</time>
      </trkpt>
      <trkpt lat="39.87255" lon="116.6681395">
        <ele>21.67227</ele>
        <time>2026-09-06T13:04:10.882000Z</time>
      </trkpt>
      <trkpt lat="39.8725568" lon="116.6682758">
        <ele>21.60833</ele>
        <time>2026-09-06T13:04:15.859000Z</time>
      </trkpt>
      <trkpt lat="39.8725361" lon="116.6684058">
        <ele>21.49873</ele>
        <time>2026-09-06T13:04:20.836000Z</time>
      </trkpt>
      <trkpt lat="39.8725651" lon="116.6685341">
        <ele>21.3929</ele>
        <time>2026-09-06T13:04:25.812000Z</time>
      </trkpt>
      <trkpt lat="39.8726152" lon="116.668658">
        <ele>21.33634</ele>
        <time>2026-09-06T13:04:30.789000Z</time>
      </trkpt>
      <trkpt lat="39.8726424" lon="116.6687934">
        <ele>21.32823</ele>
        <time>2026-09-06T13:04:35.766000Z</time>
      </trkpt>
      <trkpt lat="39.8726405" lon="116.6689324">
        <ele>21.34958</ele>
        <time>2026-09-06T13:04:40.743000Z</time>
      </trkpt>
      <trkpt lat="39.8726146" lon="116.669068">
        <ele>21.39561</ele>
        <time>2026-09-06T13:04:45.719000Z</time>
      </trkpt>
      <trkpt lat="39.8725775" lon="116.669204">
        <ele>21.42894</ele>
        <time>2026-09-06T13:04:50.696000Z</time>
      </trkpt>
      <trkpt lat="39.8725466" lon="116.669338">
        <ele>21.40697</ele>
        <time>2026-09-06T13:04:55.673000Z</time>
      </trkpt>
      <trkpt lat="39.8725345" lon="116.6694672">
        <ele>21.35142</ele>
        <time>2026-09-06T13:05:00.650000Z</time>
      </trkpt>
      <trkpt lat="39.8725377" lon="116.6696001">
        <ele>21.30269</ele>
        <time>2026-09-06T13:05:05.626000Z</time>
      </trkpt>
      <trkpt lat="39.8725473" lon="116.6697284">
        <ele>21.26822</ele>
        <time>2026-09-06T13:05:10.603000Z</time>
      </trkpt>
      <trkpt lat="39.8725772" lon="116.6698584">
        <ele>21.2602</ele>
        <time>2026-09-06T13:05:15.580000Z</time>
      </trkpt>
      <trkpt lat="39.8726377" lon="116.6699765">
        <ele>21.2732</ele>
        <time>2026-09-06T13:05:20.557000Z</time>
      </trkpt>
      <trkpt lat="39.8727201" lon="116.6700623">
        <ele>21.29221</ele>
        <time>2026-09-06T13:05:25.533000Z</time>
      </trkpt>
      <trkpt lat="39.8728165" lon="116.6701193">
        <ele>21.27575</ele>
        <time>2026-09-06T13:05:30.510000Z</time>
      </trkpt>
      <trkpt lat="39.8729132" lon="116.6701589">
        <ele>21.20178</ele>
        <time>2026-09-06T13:05:35.487000Z</time>
      </trkpt>
      <trkpt lat="39.8730095" lon="116.6701718">
        <ele>21.10848</ele>
        <time>2026-09-06T13:05:40.464000Z</time>
      </trkpt>
      <trkpt lat="39.8731115" lon="116.6701582">
        <ele>21.05658</ele>
        <time>2026-09-06T13:05:45.441000Z</time>
      </trkpt>
      <trkpt lat="39.8732046" lon="116.6701363">
        <ele>21.03923</ele>
        <time>2026-09-06T13:05:49.422000Z</time>
      </trkpt>
      <trkpt lat="39.8733023" lon="116.6701062">
        <ele>21.00802</ele>
        <time>2026-09-06T13:05:53.403000Z</time>
      </trkpt>
      <trkpt lat="39.8733957" lon="116.6700606">
        <ele>20.941</ele>
        <time>2026-09-06T13:05:57.385000Z</time>
      </trkpt>
      <trkpt lat="39.8734812" lon="116.6699962">
        <ele>20.84113</ele>
        <time>2026-09-06T13:06:01.366000Z</time>
      </trkpt>
      <trkpt lat="39.8735587" lon="116.6699158">
        <ele>20.76288</ele>
        <time>2026-09-06T13:06:05.348000Z</time>
      </trkpt>
      <trkpt lat="39.8736368" lon="116.6698397">
        <ele>20.7552</ele>
        <time>2026-09-06T13:06:09.329000Z</time>
      </trkpt>
      <trkpt lat="39.8737267" lon="116.669789">
        <ele>20.78868</ele>
        <time>2026-09-06T13:06:13.310000Z</time>
      </trkpt>
      <trkpt lat="39.8738262" lon="116.6697796">
        <ele>20.8352</ele>
        <time>2026-09-06T13:06:17.292000Z</time>
      </trkpt>
      <trkpt lat="39.873925" lon="116.6697969">
        <ele>20.86252</ele>
        <time>2026-09-06T13:06:21.273000Z</time>
      </trkpt>
      <trkpt lat="39.8740268" lon="116.6698157">
        <ele>20.86614</ele>
        <time>2026-09-06T13:06:25.255000Z</time>
      </trkpt>
      <trkpt lat="39.8741304" lon="116.6698157">
        <ele>20.87245</ele>
        <time>2026-09-06T13:06:29.236000Z</time>
      </trkpt>
      <trkpt lat="39.8742275" lon="116.6697897">
        <ele>20.91345</ele>
        <time>2026-09-06T13:06:33.217000Z</time>
      </trkpt>
      <trkpt lat="39.8743142" lon="116.6697313">
        <ele>21.011</ele>
        <time>2026-09-06T13:06:37.199000Z</time>
      </trkpt>
      <trkpt lat="39.8743832" lon="116.669652">
        <ele>21.1538</ele>
        <time>2026-09-06T13:06:41Z</time>
      </trkpt>
      <trkpt lat="39.8744542" lon="116.6695557">
        <ele>21.37274</ele>
        <time>2026-09-06T13:06:45Z</time>
      </trkpt>
      <trkpt lat="39.8745472" lon="116.6694814">
        <ele>21.65536</ele>
        <time>2026-09-06T13:06:49.143000Z</time>
      </trkpt>
      <trkpt lat="39.8746513" lon="116.6694708">
        <ele>21.91228</ele>
        <time>2026-09-06T13:06:53.125000Z</time>
      </trkpt>
      <trkpt lat="39.8747509" lon="116.669511">
        <ele>22.15207</ele>
        <time>2026-09-06T13:06:57.106000Z</time>
      </trkpt>
      <trkpt lat="39.8748491" lon="116.669565">
        <ele>22.38862</ele>
        <time>2026-09-06T13:07:01.087000Z</time>
      </trkpt>
      <trkpt lat="39.8749435" lon="116.6696201">
        <ele>22.61878</ele>
        <time>2026-09-06T13:07:05.069000Z</time>
      </trkpt>
      <trkpt lat="39.8750405" lon="116.6696548">
        <ele>22.83248</ele>
        <time>2026-09-06T13:07:09.050000Z</time>
      </trkpt>
      <trkpt lat="39.8751383" lon="116.6696319">
        <ele>23.03331</ele>
        <time>2026-09-06T13:07:13.032000Z</time>
      </trkpt>
      <trkpt lat="39.8752276" lon="116.6695759">
        <ele>23.2262</ele>
        <time>2026-09-06T13:07:17.013000Z</time>
      </trkpt>
      <trkpt lat="39.8753176" lon="116.6695241">
        <ele>23.42526</ele>
        <time>2026-09-06T13:07:20.994000Z</time>
      </trkpt>
      <trkpt lat="39.8754075" lon="116.6694865">
        <ele>23.6233</ele>
        <time>2026-09-06T13:07:24.976000Z</time>
      </trkpt>
      <trkpt lat="39.8754914" lon="116.6694366">
        <ele>23.79642</ele>
        <time>2026-09-06T13:07:28.957000Z</time>
      </trkpt>
      <trkpt lat="39.8755613" lon="116.6693614">
        <ele>23.92904</ele>
        <time>2026-09-06T13:07:32.939000Z</time>
      </trkpt>
      <trkpt lat="39.875614" lon="116.669238">
        <ele>24.0188</ele>
        <time>2026-09-06T13:07:37.916000Z</time>
      </trkpt>
      <trkpt lat="39.8756217" lon="116.6691059">
        <ele>24.06</ele>
        <time>2026-09-06T13:07:42.892000Z</time>
      </trkpt>
    </trkseg>
  </trk>
</gpx>