<?xml version="1.0" encoding="UTF-8"?>
<gpx xmlns="http://www.topografix.com/GPX/1/1" xmlns:gpxtpx="http://www.garmin.com/xmlschemas/TrackPointExtension/v1" xmlns:xsi="http://www.w3.org/2001/XMLSchema-instance" xsi:schemaLocation="http://www.topografix.com/GPX/1/1 http://www.topografix.com/GPX/1/1/gpx.xsd" version="1.1" creator="gpx.py -- https://github.com/tkrajina/gpxpy">
  <trk>
    <name>gpx from codoon</name>
    <type>Run</type>
    <trkseg>
      <trkpt lat="39.8727836" lon="116.6655516">
        <ele>23.39982</ele>
        <time>2026-09-08T22:52:42.002000Z</time>
      </trkpt>
      <trkpt lat="39.8728807" lon="116.6655702">
        <ele>23.50464</ele>
        <time>2026-09-08T22:52:47.124000Z</time>
      </trkpt>
      <trkpt lat="39.872984" lon="116.6655867">
        <ele>23.4635</ele>
        <time>2026-09-08T22:52:51.105000Z</time>
      </trkpt>
      <trkpt lat="39.8730798" lon="116.6656187">
        <ele>23.32882</ele>
        <time>2026-09-08T22:52:55.086000Z</time>
      </trkpt>
      <trkpt lat="39.8731692" lon="116.6656944">
        <ele>23.1659</ele>
        <time>2026-09-08T22:52:59.067000Z</time>
      </trkpt>
      <trkpt lat="39.8732708" lon="116.6657699">
        <ele>23.02318</ele>
        <time>2026-09-08T22:53:03.049000Z</time>
      </trkpt>
      <trkpt lat="39.8733809" lon="116.6658149">
        <ele>22.93903</ele>
        <time>2026-09-08T22:53:07.030000Z</time>
      </trkpt>
      <trkpt lat="39.8734928" lon="116.665839">
        <ele>22.91445</ele>
        <time>2026-09-08T22:53:11.011000Z</time>
      </trkpt>
      <trkpt lat="39.8736023" lon="116.6658172">
        <ele>22.91755</ele>
        <time>2026-09-08T22:53:14.992000Z</time>
      </trkpt>
      <trkpt lat="39.8737019" lon="116.665769">
        <ele>22.937</ele>
        <time>2026-09-08T22:53:18.973000Z</time>
      </trkpt>
      <trkpt lat="39.8737941" lon="116.6657088">
        <ele>23.00166</ele>
        <time>2026-09-08T22:53:22.955000Z</time>
      </trkpt>
      <trkpt lat="39.8738913" lon="116.665636">
        <ele>23.14317</ele>
        <time>2026-09-08T22:53:26.936000Z</time>
      </trkpt>
      <trkpt lat="39.8739926" lon="116.6655618">
        <ele>23.36372</ele>
        <time>2026-09-08T22:53:30.917000Z</time>
      </trkpt>
      <trkpt lat="39.8740964" lon="116.6654984">
        <ele>23.61547</ele>
        <time>2026-09-08T22:53:34.898000Z</time>
      </trkpt>
      <trkpt lat="39.8741808" lon="116.6654512">
        <ele>23.77427</ele>
        <time>2026-09-08T22:53:37.884000Z</time>
      </trkpt>
      <trkpt lat="39.8742687" lon="116.6654086">
        <ele>23.88132</ele>
        <time>2026-09-08T22:53:40.870000Z</time>
      </trkpt>
      <trkpt lat="39.8743852" lon="116.6653947">
        <ele>23.97109</ele>
        <time>2026-09-08T22:53:44.851000Z</time>
      </trkpt>
      <trkpt lat="39.8744751" lon="116.6654799">
        <ele>24.04587</ele>
        <time>2026-09-08T22:53:48.832000Z</time>
      </trkpt>
      <trkpt lat="39.8745249" lon="116.6655801">
        <ele>24.04513</ele>
        <time>2026-09-08T22:53:51.818000Z</time>
      </trkpt>
      <trkpt lat="39.8745691" lon="116.6656839">
        <ele>23.97636</ele>
        <time>2026-09-08T22:53:54.804000Z</time>
      </trkpt>
      <trkpt lat="39.8746133" lon="116.6657902">
        <ele>23.85676</ele>
        <time>2026-09-08T22:53:57.790000Z</time>
      </trkpt>
      <trkpt lat="39.8746588" lon="116.6659005">
        <ele>23.70215</ele>
        <time>2026-09-08T22:54:00.776000Z</time>
      </trkpt>
      <trkpt lat="39.8747016" lon="116.666012">
        <ele>23.53236</ele>
        <time>2026-09-08T22:54:03.762000Z</time>
      </trkpt>
      <trkpt lat="39.8747439" lon="116.6661195">
        <ele>23.35495</ele>
        <time>2026-09-08T22:54:06.748000Z</time>
      </trkpt>
      <trkpt lat="39.8748057" lon="116.6662518">
        <ele>23.12769</ele>
        <time>2026-09-08T22:54:10.729000Z</time>
      </trkpt>
      <trkpt lat="39.8748732" lon="116.6663761">
        <ele>22.96486</ele>
        <time>2026-09-08T22:54:14.710000Z</time>
      </trkpt>
      <trkpt lat="39.8749397" lon="116.6665062">
        <ele>22.88724</ele>
        <time>2026-09-08T22:54:18.691000Z</time>
      </trkpt>
      <trkpt lat="39.8749936" lon="116.6666031">
        <ele>22.87749</ele>
        <time>2026-09-08T22:54:21.677000Z</time>
      </trkpt>
      <trkpt lat="39.8750496" lon="116.6666969">
        <ele>22.90117</ele>
        <time>2026-09-08T22:54:24.663000Z</time>
      </trkpt>
      <trkpt lat="39.8751096" lon="116.6667877">
        <ele>22.94994</ele>
        <time>2026-09-08T22:54:27.649000Z</time>
      </trkpt>
      <trkpt lat="39.8751717" lon="116.6668767">
        <ele>23.00846</ele>
        <time>2026-09-08T22:54:30.634000Z</time>
      </trkpt>
      <trkpt lat="39.8752318" lon="116.6669638">
        <ele>23.05255</ele>
        <time>2026-09-08T22:54:33.620000Z</time>
      </trkpt>
      <trkpt lat="39.8753085" lon="116.6670758">
        <ele>23.07305</ele>
        <time>2026-09-08T22:54:37.601000Z</time>
      </trkpt>
      <trkpt lat="39.8753829" lon="116.6671898">
        <ele>23.09013</ele>
        <time>2026-09-08T22:54:41.582000Z</time>
      </trkpt>
      <trkpt lat="39.8754681" lon="116.667302">
        <ele>23.1623</ele>
        <time>2026-09-08T22:54:45.564000Z</time>
      </trkpt>
      <trkpt lat="39.8755336" lon="116.6673899">
        <ele>23.25293</ele>
        <time>2026-09-08T22:54:48.549000Z</time>
      </trkpt>
      <trkpt lat="39.8755942" lon="116.66748">
        <ele>23.36125</ele>
        <time>2026-09-08T22:54:51.535000Z</time>
      </trkpt>
      <trkpt lat="39.87565" lon="116.6675728">
        <ele>23.46799</ele>
        <time>2026-09-08T22:54:54.521000Z</time>
      </trkpt>
      <trkpt lat="39.875718" lon="116.6676899">
        <ele>23.58654</ele>
        <time>2026-09-08T22:54:58.502000Z</time>
      </trkpt>
      <trkpt lat="39.8757677" lon="116.6677961">
        <ele>23.65208</ele>
        <time>2026-09-08T22:55:02.483000Z</time>
      </trkpt>
      <trkpt lat="39.8757147" lon="116.667892">
        <ele>23.64629</ele>
        <time>2026-09-08T22:55:07.459000Z</time>
      </trkpt>
      <trkpt lat="39.8756607" lon="116.6679859">
        <ele>23.56778</ele>
        <time>2026-09-08T22:55:11.441000Z</time>
      </trkpt>
      <trkpt lat="39.875595" lon="116.6680969">
        <ele>23.33704</ele>
        <time>2026-09-08T22:55:16.417000Z</time>
      </trkpt>
      <trkpt lat="39.8754952" lon="116.6680937">
        <ele>23.05975</ele>
        <time>2026-09-08T22:55:20.398000Z</time>
      </trkpt>
      <trkpt lat="39.8753827" lon="116.668044">
        <ele>22.77551</ele>
        <time>2026-09-08T22:55:24.379000Z</time>
      </trkpt>
      <trkpt lat="39.8752968" lon="116.6679896">
        <ele>22.58523</ele>
        <time>2026-09-08T22:55:27.365000Z</time>
      </trkpt>
      <trkpt lat="39.8752242" lon="116.6679152">
        <ele>22.41552</ele>
        <time>2026-09-08T22:55:30.350000Z</time>
      </trkpt>
      <trkpt lat="39.8751653" lon="116.6678243">
        <ele>22.2634</ele>
        <time>2026-09-08T22:55:33.336000Z</time>
      </trkpt>
      <trkpt lat="39.8751052" lon="116.6677339">
        <ele>22.12442</ele>
        <time>2026-09-08T22:55:36.322000Z</time>
      </trkpt>
      <trkpt lat="39.8750344" lon="116.6676585">
        <ele>22.00336</ele>
        <time>2026-09-08T22:55:39.308000Z</time>
      </trkpt>
      <trkpt lat="39.8749231" lon="116.6676078">
        <ele>21.86788</ele>
        <time>2026-09-08T22:55:43.289000Z</time>
      </trkpt>
      <trkpt lat="39.8748055" lon="116.6675786">
        <ele>21.75502</ele>
        <time>2026-09-08T22:55:47.270000Z</time>
      </trkpt>
      <trkpt lat="39.8747156" lon="116.6675572">
        <ele>21.68466</ele>
        <time>2026-09-08T22:55:50.255000Z</time>
      </trkpt>
      <trkpt lat="39.8746242" lon="116.6675435">
        <ele>21.64169</ele>
        <time>2026-09-08T22:55:53.241000Z</time>
      </trkpt>
      <trkpt lat="39.8745328" lon="116.6675418">
        <ele>21.63382</ele>
        <time>2026-09-08T22:55:56.227000Z</time>
      </trkpt>
      <trkpt lat="39.8744434" lon="116.667557">
        <ele>21.66213</ele>
        <time>2026-09-08T22:55:59.213000Z</time>
      </trkpt>
      <trkpt lat="39.8743561" lon="116.6675889">
        <ele>21.72777</ele>
        <time>2026-09-08T22:56:02.198000Z</time>
      </trkpt>
      <trkpt lat="39.8742717" lon="116.6676322">
        <ele>21.82059</ele>
        <time>2026-09-08T22:56:05.184000Z</time>
      </trkpt>
      <trkpt lat="39.8741892" lon="116.66768">
        <ele>21.90475</ele>
        <time>2026-09-08T22:56:08.170000Z</time>
      </trkpt>
      <trkpt lat="39.8740799" lon="116.6677403">
        <ele>21.89501</ele>
        <time>2026-09-08T22:56:12Z</time>
      </trkpt>
      <trkpt lat="39.8739866" lon="116.6677778">
        <ele>21.74404</ele>
        <time>2026-09-08T22:56:15.136000Z</time>
      </trkpt>
      <trkpt lat="39.8738951" lon="116.6677985">
        <ele>21.56329</ele>
        <time>2026-09-08T22:56:18.122000Z</time>
      </trkpt>
      <trkpt lat="39.873804" lon="116.6678053">
        <ele>21.42151</ele>
        <time>2026-09-08T22:56:21.108000Z</time>
      </trkpt>
      <trkpt lat="39.8736848" lon="116.6677948">
        <ele>21.30522</ele>
        <time>2026-09-08T22:56:25.089000Z</time>
      </trkpt>
      <trkpt lat="39.8735953" lon="116.6677782">
        <ele>21.2484</ele>
        <time>2026-09-08T22:56:28.074000Z</time>
      </trkpt>
      <trkpt lat="39.8735052" lon="116.6677609">
        <ele>21.20663</ele>
        <time>2026-09-08T22:56:31.060000Z</time>
      </trkpt>
      <trkpt lat="39.8733874" lon="116.6677653">
        <ele>21.1463</ele>
        <time>2026-09-08T22:56:35.041000Z</time>
      </trkpt>
      <trkpt lat="39.8732775" lon="116.6678074">
        <ele>21.06356</ele>
        <time>2026-09-08T22:56:39.022000Z</time>
      </trkpt>
      <trkpt lat="39.87317" lon="116.6678547">
        <ele>20.93656</ele>
        <time>2026-09-08T22:56:43.003000Z</time>
      </trkpt>
      <trkpt lat="39.8730535" lon="116.667861">
        <ele>20.79028</ele>
        <time>2026-09-08T22:56:46.984000Z</time>
      </trkpt>
      <trkpt lat="39.8729635" lon="116.6678463">
        <ele>20.72249</ele>
        <time>2026-09-08T22:56:49.970000Z</time>
      </trkpt>
      <trkpt lat="39.8728493" lon="116.6678125">
        <ele>20.74111</ele>
        <time>2026-09-08T22:56:53.950000Z</time>
      </trkpt>
      <trkpt lat="39.8727356" lon="116.6677776">
        <ele>20.87744</ele>
        <time>2026-09-08T22:56:57.931000Z</time>
      </trkpt>
      <trkpt lat="39.8726221" lon="116.6677538">
        <ele>21.05232</ele>
        <time>2026-09-08T22:57:01.912000Z</time>
      </trkpt>
      <trkpt lat="39.872508" lon="116.6677428">
        <ele>21.15329</ele>
        <time>2026-09-08T22:57:05.893000Z</time>
      </trkpt>
      <trkpt lat="39.872398" lon="116.6677392">
        <ele>21.11295</ele>
        <time>2026-09-08T22:57:09.884000Z</time>
      </trkpt>
      <trkpt lat="39.8722944" lon="116.6677428">
        <ele>20.97855</ele>
        <time>2026-09-08T22:57:13.865000Z</time>
      </trkpt>
      <trkpt lat="39.872192" lon="116.6677403">
        <ele>20.80317</ele>
        <time>2026-09-08T22:57:17.846000Z</time>
      </trkpt>
      <trkpt lat="39.8720866" lon="116.6677239">
        <ele>20.6169</ele>
        <time>2026-09-08T22:57:21.827000Z</time>
      </trkpt>
      <trkpt lat="39.8719805" lon="116.6676938">
        <ele>20.45267</ele>
        <time>2026-09-08T22:57:25.808000Z</time>
      </trkpt>
      <trkpt lat="39.8718779" lon="116.6676477">
        <ele>20.34098</ele>
        <time>2026-09-08T22:57:29.788000Z</time>
      </trkpt>
      <trkpt lat="39.8717783" lon="116.667594">
        <ele>20.30016</ele>
        <time>2026-09-08T22:57:33.769000Z</time>
      </trkpt>
      <trkpt lat="39.8716734" lon="116.667553">
        <ele>20.34098</ele>
        <time>2026-09-08T22:57:37.750000Z</time>
      </trkpt>
      <trkpt lat="39.8715631" lon="116.6675258">
        <ele>20.42801</ele>
        <time>2026-09-08T22:57:41.731000Z</time>
      </trkpt>
      <trkpt lat="39.8714493" lon="116.6675157">
        <ele>20.49249</ele>
        <time>2026-09-08T22:57:45.712000Z</time>
      </trkpt>
      <trkpt lat="39.8713384" lon="116.6675208">
        <ele>20.4923</ele>
        <time>2026-09-08T22:57:49.693000Z</time>
      </trkpt>
      <trkpt lat="39.8712304" lon="116.6675345">
        <ele>20.41256</ele>
        <time>2026-09-08T22:57:53.674000Z</time>
      </trkpt>
      <trkpt lat="39.8711255" lon="116.6675545">
        <ele>20.27262</ele>
        <time>2026-09-08T22:57:57.655000Z</time>
      </trkpt>
      <trkpt lat="39.8710403" lon="116.6676064">
        <ele>20.11262</ele>
        <time>2026-09-08T22:58:01.635000Z</time>
      </trkpt>
      <trkpt lat="39.8709956" lon="116.6677191">
        <ele>19.99889</ele>
        <time>2026-09-08T22:58:05.616000Z</time>
      </trkpt>
      <trkpt lat="39.870944" lon="116.6678323">
        <ele>19.9885</ele>
        <time>2026-09-08T22:58:09.597000Z</time>
      </trkpt>
      <trkpt lat="39.8708537" lon="116.6678807">
        <ele>20.0828</ele>
        <time>2026-09-08T22:58:13.578000Z</time>
      </trkpt>
      <trkpt lat="39.8707452" lon="116.6678732">
        <ele>20.25062</ele>
        <time>2026-09-08T22:58:17.559000Z</time>
      </trkpt>
      <trkpt lat="39.8706302" lon="116.6678652">
        <ele>20.46323</ele>
        <time>2026-09-08T22:58:21.540000Z</time>
      </trkpt>
      <trkpt lat="39.8705181" lon="116.667859">
        <ele>20.68833</ele>
        <time>2026-09-08T22:58:25.520000Z</time>
      </trkpt>
      <trkpt lat="39.8704064" lon="116.6678409">
        <ele>20.88654</ele>
        <time>2026-09-08T22:58:29.501000Z</time>
      </trkpt>
      <trkpt lat="39.8703023" lon="116.6677941">
        <ele>21.00913</ele>
        <time>2026-09-08T22:58:33.482000Z</time>
      </trkpt>
      <trkpt lat="39.8701979" lon="116.6677648">
        <ele>21.00452</ele>
        <time>2026-09-08T22:58:37.463000Z</time>
      </trkpt>
      <trkpt lat="39.8700876" lon="116.667772">
        <ele>20.90928</ele>
        <time>2026-09-08T22:58:41.444000Z</time>
      </trkpt>
      <trkpt lat="39.8699767" lon="116.6677688">
        <ele>20.81358</ele>
        <time>2026-09-08T22:58:45.425000Z</time>
      </trkpt>
      <trkpt lat="39.869866" lon="116.6677544">
        <ele>20.76509</ele>
        <time>2026-09-08T22:58:49.405000Z</time>
      </trkpt>
      <trkpt lat="39.8697577" lon="116.6677369">
        <ele>20.76253</ele>
        <time>2026-09-08T22:58:53.386000Z</time>
      </trkpt>
      <trkpt lat="39.8696533" lon="116.6677494">
        <ele>20.78637</ele>
        <time>2026-09-08T22:58:57.367000Z</time>
      </trkpt>
      <trkpt lat="39.8695633" lon="116.6678051">
        <ele>20.82442</ele>
        <time>2026-09-08T22:59:01.348000Z</time>
      </trkpt>
      <trkpt lat="39.8694954" lon="116.667894">
        <ele>20.86994</ele>
        <time>2026-09-08T22:59:05.329000Z</time>
      </trkpt>
      <trkpt lat="39.8694647" lon="116.6680186">
        <ele>20.9156</ele>
        <time>2026-09-08T22:59:09.310000Z</time>
      </trkpt>
      <trkpt lat="39.8694692" lon="116.6681534">
        <ele>20.96629</ele>
        <time>2026-09-08T22:59:13.290000Z</time>
      </trkpt>
      <trkpt lat="39.8695102" lon="116.6682793">
        <ele>20.99914</ele>
        <time>2026-09-08T22:59:17.271000Z</time>
      </trkpt>
      <trkpt lat="39.8695877" lon="116.6683683">
        <ele>20.94937</ele>
        <time>2026-09-08T22:59:21.252000Z</time>
      </trkpt>
      <trkpt lat="39.8696924" lon="116.6683966">
        <ele>20.83407</ele>
        <time>2026-09-08T22:59:25.233000Z</time>
      </trkpt>
      <trkpt lat="39.8697992" lon="116.6683684">
        <ele>20.72132</ele>
        <time>2026-09-08T22:59:29.214000Z</time>
      </trkpt>
      <trkpt lat="39.8699061" lon="116.6683324">
        <ele>20.66811</ele>
        <time>2026-09-08T22:59:33.194000Z</time>
      </trkpt>
      <trkpt lat="39.8700158" lon="116.6683189">
        <ele>20.67445</ele>
        <time>2026-09-08T22:59:37.175000Z</time>
      </trkpt>
      <trkpt lat="39.8701254" lon="116.6683069">
        <ele>20.70868</ele>
        <time>2026-09-08T22:59:41.156000Z</time>
      </trkpt>
      <trkpt lat="39.8702302" lon="116.6682726">
        <ele>20.70895</ele>
        <time>2026-09-08T22:59:45.137000Z</time>
      </trkpt>
      <trkpt lat="39.8703272" lon="116.6682092">
        <ele>20.68821</ele>
        <time>2026-09-08T22:59:49.118000Z</time>
      </trkpt>
      <trkpt lat="39.8704213" lon="116.6681421">
        <ele>20.68601</ele>
        <time>2026-09-08T22:59:53Z</time>
      </trkpt>
      <trkpt lat="39.8705275" lon="116.6680953">
        <ele>20.66123</ele>
        <time>2026-09-08T22:59:57.079000Z</time>
      </trkpt>
      <trkpt lat="39.8706382" lon="116.6680928">
        <ele>20.62971</ele>
        <time>2026-09-08T23:00:01.060000Z</time>
      </trkpt>
      <trkpt lat="39.8707463" lon="116.6681175">
        <ele>20.61465</ele>
        <time>2026-09-08T23:00:05.041000Z</time>
      </trkpt>
      <trkpt lat="39.8708559" lon="116.6681367">
        <ele>20.64609</ele>
        <time>2026-09-08T23:00:09.022000Z</time>
      </trkpt>
      <trkpt lat="39.8709666" lon="116.6681226">
        <ele>20.72426</ele>
        <time>2026-09-08T23:00:13.002000Z</time>
      </trkpt>
      <trkpt lat="39.8710723" lon="116.6680821">
        <ele>20.80403</ele>
        <time>2026-09-08T23:00:16.983000Z</time>
      </trkpt>
      <trkpt lat="39.87117" lon="116.6680249">
        <ele>20.83979</ele>
        <time>2026-09-08T23:00:20.964000Z</time>
      </trkpt>
      <trkpt lat="39.8712665" lon="116.6679663">
        <ele>20.80521</ele>
        <time>2026-09-08T23:00:24.945000Z</time>
      </trkpt>
      <trkpt lat="39.8713675" lon="116.6679307">
        <ele>20.7254</ele>
        <time>2026-09-08T23:00:28.926000Z</time>
      </trkpt>
      <trkpt lat="39.8714756" lon="116.6679259">
        <ele>20.62987</ele>
        <time>2026-09-08T23:00:32.906000Z</time>
      </trkpt>
      <trkpt lat="39.8715772" lon="116.6679512">
        <ele>20.55102</ele>
        <time>2026-09-08T23:00:36.887000Z</time>
      </trkpt>
      <trkpt lat="39.8716769" lon="116.6679887">
        <ele>20.51527</ele>
        <time>2026-09-08T23:00:40.868000Z</time>
      </trkpt>
      <trkpt lat="39.871773" lon="116.6680415">
        <ele>20.5505</ele>
        <time>2026-09-08T23:00:44.849000Z</time>
      </trkpt>
      <trkpt lat="39.8718673" lon="116.6681007">
        <ele>20.66173</ele>
        <time>2026-09-08T23:00:48.829000Z</time>
      </trkpt>
      <trkpt lat="39.871968" lon="116.668148">
        <ele>20.82801</ele>
        <time>2026-09-08T23:00:52.810000Z</time>
      </trkpt>
      <trkpt lat="39.8720711" lon="116.6681742">
        <ele>21.00977</ele>
        <time>2026-09-08T23:00:56.791000Z</time>
      </trkpt>
      <trkpt lat="39.8721778" lon="116.6681881">
        <ele>21.1661</ele>
        <time>2026-09-08T23:01:00.772000Z</time>
      </trkpt>
      <trkpt lat="39.8722822" lon="116.6682149">
        <ele>21.26126</ele>
        <time>2026-09-08T23:01:04.752000Z</time>
      </trkpt>
      <trkpt lat="39.872381" lon="116.6682719">
        <ele>21.29009</ele>
        <time>2026-09-08T23:01:08.733000Z</time>
      </trkpt>
      <trkpt lat="39.872468" lon="116.6683621">
        <ele>21.28481</ele>
        <time>2026-09-08T23:01:12.714000Z</time>
      </trkpt>
      <trkpt lat="39.872536" lon="116.6684779">
        <ele>21.28389</ele>
        <time>2026-09-08T23:01:16.694000Z</time>
      </trkpt>
      <trkpt lat="39.8725907" lon="116.6686085">
        <ele>21.30447</ele>
        <time>2026-09-08T23:01:20.675000Z</time>
      </trkpt>
      <trkpt lat="39.8726173" lon="116.6687501">
        <ele>21.34355</ele>
        <time>2026-09-08T23:01:24.656000Z</time>
      </trkpt>
      <trkpt lat="39.8726151" lon="116.6689004">
        <ele>21.39101</ele>
        <time>2026-09-08T23:01:28.637000Z</time>
      </trkpt>
      <trkpt lat="39.8725862" lon="116.669044">
        <ele>21.46752</ele>
        <time>2026-09-08T23:01:32.617000Z</time>
      </trkpt>
      <trkpt lat="39.8725431" lon="116.6691856">
        <ele>21.55508</ele>
        <time>2026-09-08T23:01:36.598000Z</time>
      </trkpt>
      <trkpt lat="39.8725092" lon="116.6693317">
        <ele>21.61355</ele>
        <time>2026-09-08T23:01:40.579000Z</time>
      </trkpt>
      <trkpt lat="39.8724975" lon="116.6694813">
        <ele>21.63397</ele>
        <time>2026-09-08T23:01:44.560000Z</time>
      </trkpt>
      <trkpt lat="39.8725064" lon="116.6696275">
        <ele>21.63158</ele>
        <time>2026-09-08T23:01:48.540000Z</time>
      </trkpt>
      <trkpt lat="39.8725368" lon="116.6697712">
        <ele>21.59765</ele>
        <time>2026-09-08T23:01:52.521000Z</time>
      </trkpt>
      <trkpt lat="39.8725939" lon="116.6698971">
        <ele>21.50026</ele>
        <time>2026-09-08T23:01:56.502000Z</time>
      </trkpt>
      <trkpt lat="39.8726826" lon="116.6699986">
        <ele>21.36701</ele>
        <time>2026-09-08T23:02:00.482000Z</time>
      </trkpt>
      <trkpt lat="39.8727881" lon="116.6700721">
        <ele>21.23523</ele>
        <time>2026-09-08T23:02:04.463000Z</time>
      </trkpt>
      <trkpt lat="39.8728756" lon="116.6701107">
        <ele>21.15464</ele>
        <time>2026-09-08T23:02:07.449000Z</time>
      </trkpt>
      <trkpt lat="39.8729654" lon="116.6701343">
        <ele>21.09755</ele>
        <time>2026-09-08T23:02:10.434000Z</time>
      </trkpt>
      <trkpt lat="39.8730586" lon="116.6701432">
        <ele>21.05672</ele>
        <time>2026-09-08T23:02:13.420000Z</time>
      </trkpt>
      <trkpt lat="39.8731546" lon="116.6701393">
        <ele>21.01764</ele>
        <time>2026-09-08T23:02:16.405000Z</time>
      </trkpt>
      <trkpt lat="39.8732459" lon="116.6701222">
        <ele>20.95974</ele>
        <time>2026-09-08T23:02:19.391000Z</time>
      </trkpt>
      <trkpt lat="39.8733329" lon="116.6700886">
        <ele>20.88108</ele>
        <time>2026-09-08T23:02:22.376000Z</time>
      </trkpt>
      <trkpt lat="39.8734342" lon="116.6700068">
        <ele>20.77391</ele>
        <time>2026-09-08T23:02:26.357000Z</time>
      </trkpt>
      <trkpt lat="39.8735321" lon="116.6699173">
        <ele>20.70413</ele>
        <time>2026-09-08T23:02:30.338000Z</time>
      </trkpt>
      <trkpt lat="39.8736113" lon="116.6698571">
        <ele>20.68159</ele>
        <time>2026-09-08T23:02:33.323000Z</time>
      </trkpt>
      <trkpt lat="39.8736966" lon="116.6698108">
        <ele>20.6806</ele>
        <time>2026-09-08T23:02:36.309000Z</time>
      </trkpt>
      <trkpt lat="39.8737866" lon="116.669794">
        <ele>20.70644</ele>
        <time>2026-09-08T23:02:39.294000Z</time>
      </trkpt>
      <trkpt lat="39.8738806" lon="116.669805">
        <ele>20.75523</ele>
        <time>2026-09-08T23:02:42.280000Z</time>
      </trkpt>
      <trkpt lat="39.8739729" lon="116.6698275">
        <ele>20.82788</ele>
        <time>2026-09-08T23:02:45.265000Z</time>
      </trkpt>
      <trkpt lat="39.8740644" lon="116.6698445">
        <ele>20.91972</ele>
        <time>2026-09-08T23:02:48.251000Z</time>
      </trkpt>
      <trkpt lat="39.8741546" lon="116.6698466">
        <ele>21.01818</ele>
        <time>2026-09-08T23:02:51.236000Z</time>
      </trkpt>
      <trkpt lat="39.8742684" lon="116.669811">
        <ele>21.19143</ele>
        <time>2026-09-08T23:02:55.217000Z</time>
      </trkpt>
      <trkpt lat="39.874358" lon="116.6697239">
        <ele>21.435</ele>
        <time>2026-09-08T23:02:59.198000Z</time>
      </trkpt>
      <trkpt lat="39.8744332" lon="116.6696189">
        <ele>21.69344</ele>
        <time>2026-09-08T23:03:03Z</time>
      </trkpt>
      <trkpt lat="39.8745239" lon="116.6695335">
        <ele>21.9165</ele>
        <time>2026-09-08T23:03:07Z</time>
      </trkpt>
      <trkpt lat="39.8746274" lon="116.669497">
        <ele>22.0388</ele>
        <time>2026-09-08T23:03:11Z</time>
      </trkpt>
      <trkpt lat="39.8747325" lon="116.6695043">
        <ele>22.16802</ele>
        <time>2026-09-08T23:03:15.120000Z</time>
      </trkpt>
      <trkpt lat="39.8748274" lon="116.6695653">
        <ele>22.34512</ele>
        <time>2026-09-08T23:03:19.101000Z</time>
      </trkpt>
      <trkpt lat="39.8749261" lon="116.6696387">
        <ele>22.55593</ele>
        <time>2026-09-08T23:03:23.081000Z</time>
      </trkpt>
      <trkpt lat="39.8750323" lon="116.6696896">
        <ele>22.7861</ele>
        <time>2026-09-08T23:03:27.062000Z</time>
      </trkpt>
      <trkpt lat="39.8751387" lon="116.6696706">
        <ele>22.99946</ele>
        <time>2026-09-08T23:03:31.043000Z</time>
      </trkpt>
      <trkpt lat="39.8752338" lon="116.6696">
        <ele>23.1553</ele>
        <time>2026-09-08T23:03:35.023000Z</time>
      </trkpt>
      <trkpt lat="39.8753298" lon="116.6695437">
        <ele>23.22295</ele>
        <time>2026-09-08T23:03:39.004000Z</time>
      </trkpt>
      <trkpt lat="39.8754325" lon="116.669507">
        <ele>23.19973</ele>
        <time>2026-09-08T23:03:42.985000Z</time>
      </trkpt>
      <trkpt lat="39.8755319" lon="116.669451">
        <ele>23.14835</ele>
        <time>2026-09-08T23:03:46.965000Z</time>
      </trkpt>
      <trkpt lat="39.8756098" lon="116.6693538">
        <ele>23.14073</ele>
        <time>2026-09-08T23:03:50.946000Z</time>
      </trkpt>
      <trkpt lat="39.8756552" lon="116.6692273">
        <ele>23.20896</ele>
        <time>2026-09-08T23:03:54.927000Z</time>
      </trkpt>
      <trkpt lat="39.8756674" lon="116.6690909">
        <ele>23.31869</ele>
        <time>2026-09-08T23:03:58.907000Z</time>
      </trkpt>
      <trkpt lat="39.8756453" lon="116.6689599">
        <ele>23.40376</ele>
        <time>2026-09-08T23:04:02.888000Z</time>
      </trkpt>
      <trkpt lat="39.8755939" lon="116.6688428">
        <ele>23.42149</ele>
        <time>2026-09-08T23:04:06.869000Z</time>
      </trkpt>
      <trkpt lat="39.8755248" lon="116.668736">
        <ele>23.37108</ele>
        <time>2026-09-08T23:04:10.849000Z</time>
      </trkpt>
      <trkpt lat="39.8754464" lon="116.668635">
        <ele>23.27168</ele>
        <time>2026-09-08T23:04:14.830000Z</time>
      </trkpt>
      <trkpt lat="39.8753789" lon="116.6685268">
        <ele>23.13954</ele>
        <time>2026-09-08T23:04:18.810000Z</time>
      </trkpt>
      <trkpt lat="39.8753363" lon="116.6684021">
        <ele>23.0041</ele>
        <time>2026-09-08T23:04:22.791000Z</time>
      </trkpt>
      <trkpt lat="39.8753071" lon="116.6682662">
        <ele>22.88769</ele>
        <time>2026-09-08T23:04:26.772000Z</time>
      </trkpt>
      <trkpt lat="39.8752764" lon="116.6681302">
        <ele>22.76638</ele>
        <time>2026-09-08T23:04:30.752000Z</time>
      </trkpt>
      <trkpt lat="39.8752343" lon="116.6679992">
        <ele>22.62905</ele>
        <time>2026-09-08T23:04:34.733000Z</time>
      </trkpt>
      <trkpt lat="39.875192" lon="116.6678687">
        <ele>22.49799</ele>
        <time>2026-09-08T23:04:38.713000Z</time>
      </trkpt>
      <trkpt lat="39.8751383" lon="116.6677454">
        <ele>22.37776</ele>
        <time>2026-09-08T23:04:42.694000Z</time>
      </trkpt>
      <trkpt lat="39.8750587" lon="116.6676438">
        <ele>22.25503</ele>
        <time>2026-09-08T23:04:46.675000Z</time>
      </trkpt>
      <trkpt lat="39.8749636" lon="116.6675668">
        <ele>22.1316</ele>
        <time>2026-09-08T23:04:50.655000Z</time>
      </trkpt>
      <trkpt lat="39.8748579" lon="116.6675116">
        <ele>21.99999</ele>
        <time>2026-09-08T23:04:54.636000Z</time>
      </trkpt>
      <trkpt lat="39.8747499" lon="116.6674733">
        <ele>21.87758</ele>
        <time>2026-09-08T23:04:58.617000Z</time>
      </trkpt>
      <trkpt lat="39.8746411" lon="116.6674511">
        <ele>21.7701</ele>
        <time>2026-09-08T23:05:02.597000Z</time>
      </trkpt>
      <trkpt lat="39.8745329" lon="116.6674527">
        <ele>21.66489</ele>
        <time>2026-09-08T23:05:06.578000Z</time>
      </trkpt>
      <trkpt lat="39.8744271" lon="116.6674801">
        <ele>21.55346</ele>
        <time>2026-09-08T23:05:10.558000Z</time>
      </trkpt>
      <trkpt lat="39.8743256" lon="116.6675339">
        <ele>21.43116</ele>
        <time>2026-09-08T23:05:14.539000Z</time>
      </trkpt>
      <trkpt lat="39.8742277" lon="116.6675941">
        <ele>21.28934</ele>
        <time>2026-09-08T23:05:18.520000Z</time>
      </trkpt>
      <trkpt lat="39.8741312" lon="116.6676541">
        <ele>21.13622</ele>
        <time>2026-09-08T23:05:22.500000Z</time>
      </trkpt>
      <trkpt lat="39.8740356" lon="116.6677161">
        <ele>21.00438</ele>
        <time>2026-09-08T23:05:26.481000Z</time>
      </trkpt>
      <trkpt lat="39.8739353" lon="116.6677651">
        <ele>20.92571</ele>
        <time>2026-09-08T23:05:30.461000Z</time>
      </trkpt>
      <trkpt lat="39.8738262" lon="116.6677832">
        <ele>20.90677</ele>
        <time>2026-09-08T23:05:34.442000Z</time>
      </trkpt>
      <trkpt lat="39.8737161" lon="116.667774">
        <ele>20.9463</ele>
        <time>2026-09-08T23:05:38.423000Z</time>
      </trkpt>
      <trkpt lat="39.8736111" lon="116.6677437">
        <ele>21.04301</ele>
        <time>2026-09-08T23:05:42.403000Z</time>
      </trkpt>
      <trkpt lat="39.8735064" lon="116.6677178">
        <ele>21.20629</ele>
        <time>2026-09-08T23:05:46.384000Z</time>
      </trkpt>
      <trkpt lat="39.8734024" lon="116.6677166">
        <ele>21.40332</ele>
        <time>2026-09-08T23:05:50.365000Z</time>
      </trkpt>
      <trkpt lat="39.8733022" lon="116.66775">
        <ele>21.55304</ele>
        <time>2026-09-08T23:05:54.345000Z</time>
      </trkpt>
      <trkpt lat="39.8732083" lon="116.6678083">
        <ele>21.57506</ele>
        <time>2026-09-08T23:05:58.326000Z</time>
      </trkpt>
      <trkpt lat="39.8731108" lon="116.6678603">
        <ele>21.49061</ele>
        <time>2026-09-08T23:06:02.306000Z</time>
      </trkpt>
      <trkpt lat="39.8730083" lon="116.6678746">
        <ele>21.39917</ele>
        <time>2026-09-08T23:06:06.287000Z</time>
      </trkpt>
      <trkpt lat="39.8729054" lon="116.6678536">
        <ele>21.34701</ele>
        <time>2026-09-08T23:06:10.268000Z</time>
      </trkpt>
      <trkpt lat="39.8728015" lon="116.6678145">
        <ele>21.30971</ele>
        <time>2026-09-08T23:06:14.248000Z</time>
      </trkpt>
      <trkpt lat="39.8726983" lon="116.6677788">
        <ele>21.29237</ele>
        <time>2026-09-08T23:06:18.229000Z</time>
      </trkpt>
      <trkpt lat="39.8725946" lon="116.6677525">
        <ele>21.29561</ele>
        <time>2026-09-08T23:06:22.209000Z</time>
      </trkpt>
      <trkpt lat="39.8724995" lon="116.6677414">
        <ele>21.27316</ele>
        <time>2026-09-08T23:06:26Z</time>
      </trkpt>
      <trkpt lat="39.872398" lon="116.667742">
        <ele>21.20323</ele>
        <time>2026-09-08T23:06:30Z</time>
      </trkpt>
      <trkpt lat="39.8722962" lon="116.6677495">
        <ele>21.10567</ele>
        <time>2026-09-08T23:06:34Z</time>
      </trkpt>
      <trkpt lat="39.872196" lon="116.667745">
        <ele>21.01409</ele>
        <time>2026-09-08T23:06:38Z</time>
      </trkpt>
      <trkpt lat="39.8720934" lon="116.667729">
        <ele>20.92807</ele>
        <time>2026-09-08T23:06:42Z</time>
      </trkpt>
      <trkpt lat="39.8719936" lon="116.6677025">
        <ele>20.82488</ele>
        <time>2026-09-08T23:06:46Z</time>
      </trkpt>
      <trkpt lat="39.8718945" lon="116.6676673">
        <ele>20.71505</ele>
        <time>2026-09-08T23:06:50Z</time>
      </trkpt>
      <trkpt lat="39.8717962" lon="116.667625">
        <ele>20.59445</ele>
        <time>2026-09-08T23:06:54.054000Z</time>
      </trkpt>
      <trkpt lat="39.8716995" lon="116.667591">
        <ele>20.48997</ele>
        <time>2026-09-08T23:06:58.035000Z</time>
      </trkpt>
      <trkpt lat="39.8716035" lon="116.6675612">
        <ele>20.44528</ele>
        <time>2026-09-08T23:07:02.015000Z</time>
      </trkpt>
      <trkpt lat="39.8715023" lon="116.667541">
        <ele>20.44958</ele>
        <time>2026-09-08T23:07:05.996000Z</time>
      </trkpt>
      <trkpt lat="39.8713968" lon="116.6675389">
        <ele>20.49648</ele>
        <time>2026-09-08T23:07:09.977000Z</time>
      </trkpt>
      <trkpt lat="39.8712932" lon="116.6675512">
        <ele>20.55675</ele>
        <time>2026-09-08T23:07:13.957000Z</time>
      </trkpt>
      <trkpt lat="39.8711942" lon="116.6675679">
        <ele>20.58338</ele>
        <time>2026-09-08T23:07:17.938000Z</time>
      </trkpt>
      <trkpt lat="39.8711003" lon="116.6675864">
        <ele>20.51697</ele>
        <time>2026-09-08T23:07:21.918000Z</time>
      </trkpt>
      <trkpt lat="39.8710111" lon="116.6676546">
        <ele>20.36285</ele>
        <time>2026-09-08T23:07:26.894000Z</time>
      </trkpt>
      <trkpt lat="39.8709754" lon="116.6677623">
        <ele>20.28125</ele>
        <time>2026-09-08T23:07:30.875000Z</time>
      </trkpt>
      <trkpt lat="39.8709123" lon="116.6678792">
        <ele>20.25663</ele>
        <time>2026-09-08T23:07:35.851000Z</time>
      </trkpt>
      <trkpt lat="39.8708215" lon="116.6678953">
        <ele>20.25736</ele>
        <time>2026-09-08T23:07:39.831000Z</time>
      </trkpt>
      <trkpt lat="39.8707216" lon="116.6678868">
        <ele>20.27456</ele>
        <time>2026-09-08T23:07:43.812000Z</time>
      </trkpt>
      <trkpt lat="39.8706202" lon="116.6678812">
        <ele>20.32916</ele>
        <time>2026-09-08T23:07:47.792000Z</time>
      </trkpt>
      <trkpt lat="39.8705202" lon="116.6678766">
        <ele>20.41852</ele>
        <time>2026-09-08T23:07:51.773000Z</time>
      </trkpt>
      <trkpt lat="39.8704213" lon="116.667866">
        <ele>20.49852</ele>
        <time>2026-09-08T23:07:55.753000Z</time>
      </trkpt>
      <trkpt lat="39.8703258" lon="116.6678275">
        <ele>20.53327</ele>
        <time>2026-09-08T23:07:59.734000Z</time>
      </trkpt>
      <trkpt lat="39.8702363" lon="116.6677823">
        <ele>20.53382</ele>
        <time>2026-09-08T23:08:03.715000Z</time>
      </trkpt>
      <trkpt lat="39.8701359" lon="116.6677867">
        <ele>20.50679</ele>
        <time>2026-09-08T23:08:07.695000Z</time>
      </trkpt>
      <trkpt lat="39.8700364" lon="116.6677984">
        <ele>20.45361</ele>
        <time>2026-09-08T23:08:11.676000Z</time>
      </trkpt>
      <trkpt lat="39.8699356" lon="116.6677928">
        <ele>20.38863</ele>
        <time>2026-09-08T23:08:15.656000Z</time>
      </trkpt>
      <trkpt lat="39.8698315" lon="116.6677723">
        <ele>20.33382</ele>
        <time>2026-09-08T23:08:19.637000Z</time>
      </trkpt>
      <trkpt lat="39.869732" lon="116.6677468">
        <ele>20.32066</ele>
        <time>2026-09-08T23:08:23.618000Z</time>
      </trkpt>
      <trkpt lat="39.8696356" lon="116.6677523">
        <ele>20.37302</ele>
        <time>2026-09-08T23:08:27.598000Z</time>
      </trkpt>
      <trkpt lat="39.8695518" lon="116.6678035">
        <ele>20.49572</ele>
        <time>2026-09-08T23:08:31.579000Z</time>
      </trkpt>
      <trkpt lat="39.8694919" lon="116.6678951">
        <ele>20.65177</ele>
        <time>2026-09-08T23:08:35.559000Z</time>
      </trkpt>
      <trkpt lat="39.8694652" lon="116.6680182">
        <ele>20.81574</ele>
        <time>2026-09-08T23:08:39.540000Z</time>
      </trkpt>
      <trkpt lat="39.8694715" lon="116.6681454">
        <ele>20.96778</ele>
        <time>2026-09-08T23:08:43.521000Z</time>
      </trkpt>
      <trkpt lat="39.8695083" lon="116.6682627">
        <ele>21.05519</ele>
        <time>2026-09-08T23:08:47.501000Z</time>
      </trkpt>
      <trkpt lat="39.8695759" lon="116.6683567">
        <ele>21.03748</ele>
        <time>2026-09-08T23:08:51.482000Z</time>
      </trkpt>
      <trkpt lat="39.869667" lon="116.6683954">
        <ele>20.93744</ele>
        <time>2026-09-08T23:08:55.462000Z</time>
      </trkpt>
      <trkpt lat="39.8697653" lon="116.6683705">
        <ele>20.82164</ele>
        <time>2026-09-08T23:08:59.443000Z</time>
      </trkpt>
      <trkpt lat="39.8698611" lon="116.6683231">
        <ele>20.74751</ele>
        <time>2026-09-08T23:09:03.424000Z</time>
      </trkpt>
      <trkpt lat="39.8699619" lon="116.6683038">
        <ele>20.71015</ele>
        <time>2026-09-08T23:09:07.404000Z</time>
      </trkpt>
      <trkpt lat="39.870062" lon="116.6683021">
        <ele>20.67243</ele>
        <time>2026-09-08T23:09:11.395000Z</time>
      </trkpt>
      <trkpt lat="39.8701594" lon="116.6682895">
        <ele>20.58257</ele>
        <time>2026-09-08T23:09:15.375000Z</time>
      </trkpt>
      <trkpt lat="39.8702563" lon="116.6682539">
        <ele>20.4419</ele>
        <time>2026-09-08T23:09:19.356000Z</time>
      </trkpt>
      <trkpt lat="39.8703437" lon="116.6681941">
        <ele>20.31448</ele>
        <time>2026-09-08T23:09:23.337000Z</time>
      </trkpt>
      <trkpt lat="39.870431" lon="116.6681296">
        <ele>20.21847</ele>
        <time>2026-09-08T23:09:27.317000Z</time>
      </trkpt>
      <trkpt lat="39.8705264" lon="116.6680941">
        <ele>20.14679</ele>
        <time>2026-09-08T23:09:31.298000Z</time>
      </trkpt>
      <trkpt lat="39.8706252" lon="116.6681016">
        <ele>20.10116</ele>
        <time>2026-09-08T23:09:35.278000Z</time>
      </trkpt>
      <trkpt lat="39.8707223" lon="116.6681261">
        <ele>20.08387</ele>
        <time>2026-09-08T23:09:39.259000Z</time>
      </trkpt>
      <trkpt lat="39.8708163" lon="116.668152">
        <ele>20.03404</ele>
        <time>2026-09-08T23:09:43.240000Z</time>
      </trkpt>
      <trkpt lat="39.8709113" lon="116.6681533">
        <ele>19.89169</ele>
        <time>2026-09-08T23:09:47.220000Z</time>
      </trkpt>
      <trkpt lat="39.8710031" lon="116.6681298">
        <ele>19.67373</ele>
        <time>2026-09-08T23:09:51.201000Z</time>
      </trkpt>
      <trkpt lat="39.8711086" lon="116.6680743">
        <ele>19.49508</ele>
        <time>2026-09-08T23:09:56Z</time>
      </trkpt>
      <trkpt lat="39.8711941" lon="116.6680122">
        <ele>19.57398</ele>
        <time>2026-09-08T23:10:00.157000Z</time>
      </trkpt>
      <trkpt lat="39.8712816" lon="116.667969">
        <ele>19.70967</ele>
        <time>2026-09-08T23:10:04Z</time>
      </trkpt>
      <trkpt lat="39.871377" lon="116.6679489">
        <ele>19.86111</ele>
        <time>2026-09-08T23:10:08Z</time>
      </trkpt>
      <trkpt lat="39.8714765" lon="116.6679538">
        <ele>20.02321</ele>
        <time>2026-09-08T23:10:12Z</time>
      </trkpt>
      <trkpt lat="39.8715767" lon="116.6679831">
        <ele>20.17598</ele>
        <time>2026-09-08T23:10:16Z</time>
      </trkpt>
      <trkpt lat="39.8716728" lon="116.6680395">
        <ele>20.28521</ele>
        <time>2026-09-08T23:10:20Z</time>
      </trkpt>
      <trkpt lat="39.8717657" lon="116.6681106">
        <ele>20.33782</ele>
        <time>2026-09-08T23:10:24Z</time>
      </trkpt>
      <trkpt lat="39.8718667" lon="116.6681677">
        <ele>20.37586</ele>
        <time>2026-09-08T23:10:28Z</time>
      </trkpt>
      <trkpt lat="39.8719687" lon="116.6682087">
        <ele>20.44431</ele>
        <time>2026-09-08T23:10:32Z</time>
      </trkpt>
      <trkpt lat="39.8720706" lon="116.6682264">
        <ele>20.52217</ele>
        <time>2026-09-08T23:10:35.983000Z</time>
      </trkpt>
      <trkpt lat="39.8721681" lon="116.6682346">
        <ele>20.5798</ele>
        <time>2026-09-08T23:10:39.963000Z</time>
      </trkpt>
      <trkpt lat="39.8722657" lon="116.6682488">
        <ele>20.62724</ele>
        <time>2026-09-08T23:10:43.944000Z</time>
      </trkpt>
      <trkpt lat="39.8723534" lon="116.6682958">
        <ele>20.69404</ele>
        <time>2026-09-08T23:10:47.924000Z</time>
      </trkpt>
      <trkpt lat="39.872431" lon="116.66837">
        <ele>20.80159</ele>
        <time>2026-09-08T23:10:51.905000Z</time>
      </trkpt>
      <trkpt lat="39.8724973" lon="116.6684639">
        <ele>20.93045</ele>
        <time>2026-09-08T23:10:55.886000Z</time>
      </trkpt>
      <trkpt lat="39.872561" lon="116.6685604">
        <ele>21.04685</ele>
        <time>2026-09-08T23:10:59.866000Z</time>
      </trkpt>
      <trkpt lat="39.8725993" lon="116.668676">
        <ele>21.15286</ele>
        <time>2026-09-08T23:11:03.847000Z</time>
      </trkpt>
      <trkpt lat="39.872614" lon="116.6688077">
        <ele>21.25817</ele>
        <time>2026-09-08T23:11:07.827000Z</time>
      </trkpt>
      <trkpt lat="39.8726117" lon="116.6689465">
        <ele>21.36335</ele>
        <time>2026-09-08T23:11:11.808000Z</time>
      </trkpt>
      <trkpt lat="39.872586" lon="116.6690768">
        <ele>21.45274</ele>
        <time>2026-09-08T23:11:15.789000Z</time>
      </trkpt>
      <trkpt lat="39.8725524" lon="116.6691976">
        <ele>21.49312</ele>
        <time>2026-09-08T23:11:19.769000Z</time>
      </trkpt>
      <trkpt lat="39.8725205" lon="116.669316">
        <ele>21.49425</ele>
        <time>2026-09-08T23:11:23.750000Z</time>
      </trkpt>
      <trkpt lat="39.8725015" lon="116.6694403">
        <ele>21.48034</ele>
        <time>2026-09-08T23:11:27.731000Z</time>
      </trkpt>
      <trkpt lat="39.8724993" lon="116.6695677">
        <ele>21.47134</ele>
        <time>2026-09-08T23:11:31.711000Z</time>
      </trkpt>
      <trkpt lat="39.8725139" lon="116.6696917">
        <ele>21.45156</ele>
        <time>2026-09-08T23:11:35.691000Z</time>
      </trkpt>
      <trkpt lat="39.8725434" lon="116.6698087">
        <ele>21.41646</ele>
        <time>2026-09-08T23:11:39.672000Z</time>
      </trkpt>
      <trkpt lat="39.8725915" lon="116.6699145">
        <ele>21.3619</ele>
        <time>2026-09-08T23:11:43.653000Z</time>
      </trkpt>
      <trkpt lat="39.8726547" lon="116.6700073">
        <ele>21.28453</ele>
        <time>2026-09-08T23:11:47.634000Z</time>
      </trkpt>
      <trkpt lat="39.8727297" lon="116.6700771">
        <ele>21.20148</ele>
        <time>2026-09-08T23:11:51.614000Z</time>
      </trkpt>
      <trkpt lat="39.872815" lon="116.6701269">
        <ele>21.10707</ele>
        <time>2026-09-08T23:11:55.595000Z</time>
      </trkpt>
      <trkpt lat="39.8729031" lon="116.6701621">
        <ele>21.00842</ele>
        <time>2026-09-08T23:11:59.576000Z</time>
      </trkpt>
      <trkpt lat="39.8729957" lon="116.6701733">
        <ele>20.9358</ele>
        <time>2026-09-08T23:12:03.556000Z</time>
      </trkpt>
      <trkpt lat="39.8730901" lon="116.6701673">
        <ele>20.89995</ele>
        <time>2026-09-08T23:12:07.537000Z</time>
      </trkpt>
      <trkpt lat="39.8731807" lon="116.670146">
        <ele>20.89226</ele>
        <time>2026-09-08T23:12:11.518000Z</time>
      </trkpt>
      <trkpt lat="39.8732708" lon="116.6701144">
        <ele>20.89213</ele>
        <time>2026-09-08T23:12:15.498000Z</time>
      </trkpt>
      <trkpt lat="39.8733596" lon="116.6700763">
        <ele>20.88499</ele>
        <time>2026-09-08T23:12:19.479000Z</time>
      </trkpt>
      <trkpt lat="39.8734442" lon="116.670021">
        <ele>20.82791</ele>
        <time>2026-09-08T23:12:23.460000Z</time>
      </trkpt>
      <trkpt lat="39.8735179" lon="116.66995">
        <ele>20.73478</ele>
        <time>2026-09-08T23:12:27.440000Z</time>
      </trkpt>
      <trkpt lat="39.8735925" lon="116.6698743">
        <ele>20.67121</ele>
        <time>2026-09-08T23:12:31.421000Z</time>
      </trkpt>
      <trkpt lat="39.8736735" lon="116.6698096">
        <ele>20.66665</ele>
        <time>2026-09-08T23:12:35.402000Z</time>
      </trkpt>
      <trkpt lat="39.8737658" lon="116.6697787">
        <ele>20.703</ele>
        <time>2026-09-08T23:12:39.382000Z</time>
      </trkpt>
      <trkpt lat="39.8738628" lon="116.6697902">
        <ele>20.72821</ele>
        <time>2026-09-08T23:12:43.363000Z</time>
      </trkpt>
      <trkpt lat="39.8739629" lon="116.669823">
        <ele>20.71913</ele>
        <time>2026-09-08T23:12:47.344000Z</time>
      </trkpt>
      <trkpt lat="39.8740663" lon="116.66985">
        <ele>20.66924</ele>
        <time>2026-09-08T23:12:51.324000Z</time>
      </trkpt>
      <trkpt lat="39.8741668" lon="116.6698521">
        <ele>20.58388</ele>
        <time>2026-09-08T23:12:55.305000Z</time>
      </trkpt>
      <trkpt lat="39.8742597" lon="116.6698176">
        <ele>20.4885</ele>
        <time>2026-09-08T23:12:59.286000Z</time>
      </trkpt>
      <trkpt lat="39.8743394" lon="116.6697469">
        <ele>20.46361</ele>
        <time>2026-09-08T23:13:03.266000Z</time>
      </trkpt>
      <trkpt lat="39.8744049" lon="116.6696544">
        <ele>20.5607</ele>
        <time>2026-09-08T23:13:07.247000Z</time>
      </trkpt>
      <trkpt lat="39.874474" lon="116.66956">
        <ele>20.76251</ele>
        <time>2026-09-08T23:13:11.228000Z</time>
      </trkpt>
      <trkpt lat="39.8745591" lon="116.669496">
        <ele>21.00674</ele>
        <time>2026-09-08T23:13:15.208000Z</time>
      </trkpt>
      <trkpt lat="39.8746522" lon="116.6694847">
        <ele>21.20306</ele>
        <time>2026-09-08T23:13:19Z</time>
      </trkpt>
      <trkpt lat="39.8747533" lon="116.6695139">
        <ele>21.31677</ele>
        <time>2026-09-08T23:13:23Z</time>
      </trkpt>
      <trkpt lat="39.8748503" lon="116.6695687">
        <ele>21.47401</ele>
        <time>2026-09-08T23:13:27.151000Z</time>
      </trkpt>
      <trkpt lat="39.8749384" lon="116.6696173">
        <ele>21.68516</ele>
        <time>2026-09-08T23:13:31Z</time>
      </trkpt>
      <trkpt lat="39.8750327" lon="116.6696563">
        <ele>21.93888</ele>
        <time>2026-09-08T23:13:35Z</time>
      </trkpt>
      <trkpt lat="39.8751317" lon="116.6696682">
        <ele>22.19188</ele>
        <time>2026-09-08T23:13:39Z</time>
      </trkpt>
      <trkpt lat="39.8752279" lon="116.6696213">
        <ele>22.4095</ele>
        <time>2026-09-08T23:13:43Z</time>
      </trkpt>
      <trkpt lat="39.8753178" lon="116.669563">
        <ele>22.57758</ele>
        <time>2026-09-08T23:13:47.054000Z</time>
      </trkpt>
      <trkpt lat="39.8754093" lon="116.6695258">
        <ele>22.66854</ele>
        <time>2026-09-08T23:13:51.035000Z</time>
      </trkpt>
      <trkpt lat="39.8755035" lon="116.6694873">
        <ele>22.71626</ele>
        <time>2026-09-08T23:13:55.015000Z</time>
      </trkpt>
      <trkpt lat="39.8755874" lon="116.6694167">
        <ele>22.78131</ele>
        <time>2026-09-08T23:13:58.996000Z</time>
      </trkpt>
      <trkpt lat="39.875644" lon="116.6693127">
        <ele>22.92352</ele>
        <time>2026-09-08T23:14:02.977000Z</time>
      </trkpt>
      <trkpt lat="39.8756636" lon="116.6691922">
        <ele>23.09004</ele>
        <time>2026-09-08T23:14:06.958000Z</time>
      </trkpt>
      <trkpt lat="39.8756543" lon="116.6690629">
        <ele>23.21356</ele>
        <time>2026-09-08T23:14:10.938000Z</time>
      </trkpt>
      <trkpt lat="39.8756217" lon="116.6689413">
        <ele>23.26585</ele>
        <time>2026-09-08T23:14:14.919000Z</time>
      </trkpt>
      <trkpt lat="39.8755664" lon="116.6688319">
        <ele>23.22626</ele>
        <time>2026-09-08T23:14:18.900000Z</time>
      </trkpt>
      <trkpt lat="39.8754985" lon="116.6687368">
        <ele>23.10649</ele>
        <time>2026-09-08T23:14:22.880000Z</time>
      </trkpt>
      <trkpt lat="39.875423" lon="116.6686474">
        <ele>22.93559</ele>
        <time>2026-09-08T23:14:26.861000Z</time>
      </trkpt>
      <trkpt lat="39.8753592" lon="116.6685466">
        <ele>22.76758</ele>
        <time>2026-09-08T23:14:30.842000Z</time>
      </trkpt>
      <trkpt lat="39.8753134" lon="116.6684373">
        <ele>22.63735</ele>
        <time>2026-09-08T23:14:34.822000Z</time>
      </trkpt>
      <trkpt lat="39.8752709" lon="116.6683214">
        <ele>22.55968</ele>
        <time>2026-09-08T23:14:38.803000Z</time>
      </trkpt>
      <trkpt lat="39.875249" lon="116.6681918">
        <ele>22.52796</ele>
        <time>2026-09-08T23:14:42.784000Z</time>
      </trkpt>
      <trkpt lat="39.8752236" lon="116.6680554">
        <ele>22.50293</ele>
        <time>2026-09-08T23:14:46.765000Z</time>
      </trkpt>
      <trkpt lat="39.8751878" lon="116.6679306">
        <ele>22.43284</ele>
        <time>2026-09-08T23:14:50.745000Z</time>
      </trkpt>
      <trkpt lat="39.8751332" lon="116.6678134">
        <ele>22.30506</ele>
        <time>2026-09-08T23:14:54.726000Z</time>
      </trkpt>
      <trkpt lat="39.8750632" lon="116.6677119">
        <ele>22.15167</ele>
        <time>2026-09-08T23:14:58.707000Z</time>
      </trkpt>
      <trkpt lat="39.874977" lon="116.6676301">
        <ele>22.00767</ele>
        <time>2026-09-08T23:15:02.688000Z</time>
      </trkpt>
      <trkpt lat="39.8748795" lon="116.6675749">
        <ele>21.90766</ele>
        <time>2026-09-08T23:15:06.668000Z</time>
      </trkpt>
      <trkpt lat="39.8747769" lon="116.6675452">
        <ele>21.84976</ele>
        <time>2026-09-08T23:15:10.649000Z</time>
      </trkpt>
      <trkpt lat="39.8746731" lon="116.6675188">
        <ele>21.80894</ele>
        <time>2026-09-08T23:15:14.630000Z</time>
      </trkpt>
      <trkpt lat="39.8745728" lon="116.6675009">
        <ele>21.73825</ele>
        <time>2026-09-08T23:15:18.610000Z</time>
      </trkpt>
      <trkpt lat="39.8744732" lon="116.6675058">
        <ele>21.63673</ele>
        <time>2026-09-08T23:15:22.591000Z</time>
      </trkpt>
      <trkpt lat="39.8743754" lon="116.6675429">
        <ele>21.52524</ele>
        <time>2026-09-08T23:15:26.572000Z</time>
      </trkpt>
      <trkpt lat="39.8742818" lon="116.6675965">
        <ele>21.41934</ele>
        <time>2026-09-08T23:15:30.553000Z</time>
      </trkpt>
      <trkpt lat="39.8741915" lon="116.6676529">
        <ele>21.32911</ele>
        <time>2026-09-08T23:15:34.533000Z</time>
      </trkpt>
      <trkpt lat="39.8741003" lon="116.6677127">
        <ele>21.25492</ele>
        <time>2026-09-08T23:15:38.514000Z</time>
      </trkpt>
      <trkpt lat="39.8740044" lon="116.6677564">
        <ele>21.20195</ele>
        <time>2026-09-08T23:15:42.495000Z</time>
      </trkpt>
      <trkpt lat="39.8739033" lon="116.6677799">
        <ele>21.18304</ele>
        <time>2026-09-08T23:15:46.476000Z</time>
      </trkpt>
      <trkpt lat="39.8737998" lon="116.6677909">
        <ele>21.17315</ele>
        <time>2026-09-08T23:15:50.456000Z</time>
      </trkpt>
      <trkpt lat="39.8736967" lon="116.6677887">
        <ele>21.14329</ele>
        <time>2026-09-08T23:15:54.437000Z</time>
      </trkpt>
      <trkpt lat="39.8735964" lon="116.6677711">
        <ele>21.11778</ele>
        <time>2026-09-08T23:15:58.418000Z</time>
      </trkpt>
      <trkpt lat="39.8734967" lon="116.6677448">
        <ele>21.1474</ele>
        <time>2026-09-08T23:16:02.399000Z</time>
      </trkpt>
      <trkpt lat="39.8733961" lon="116.6677397">
        <ele>21.23066</ele>
        <time>2026-09-08T23:16:06.379000Z</time>
      </trkpt>
      <trkpt lat="39.8732992" lon="116.6677749">
        <ele>21.33035</ele>
        <time>2026-09-08T23:16:10.360000Z</time>
      </trkpt>
      <trkpt lat="39.8732084" lon="116.6678295">
        <ele>21.41983</ele>
        <time>2026-09-08T23:16:14.341000Z</time>
      </trkpt>
      <trkpt lat="39.873115" lon="116.667873">
        <ele>21.48036</ele>
        <time>2026-09-08T23:16:18.322000Z</time>
      </trkpt>
      <trkpt lat="39.8730164" lon="116.6678868">
        <ele>21.47957</ele>
        <time>2026-09-08T23:16:22.303000Z</time>
      </trkpt>
      <trkpt lat="39.8729166" lon="116.6678613">
        <ele>21.45565</ele>
        <time>2026-09-08T23:16:26.283000Z</time>
      </trkpt>
      <trkpt lat="39.8728215" lon="116.6678231">
        <ele>21.45777</ele>
        <time>2026-09-08T23:16:30.264000Z</time>
      </trkpt>
      <trkpt lat="39.8727243" lon="116.6678158">
        <ele>21.50029</ele>
        <time>2026-09-08T23:16:34.245000Z</time>
      </trkpt>
      <trkpt lat="39.87264" lon="116.6678672">
        <ele>21.58518</ele>
        <time>2026-09-08T23:16:38.226000Z</time>
      </trkpt>
      <trkpt lat="39.8725718" lon="116.6679467">
        <ele>21.66882</ele>
        <time>2026-09-08T23:16:42.207000Z</time>
      </trkpt>
      <trkpt lat="39.8725598" lon="116.6680912">
        <ele>21.728</ele>
        <time>2026-09-08T23:16:47.183000Z</time>
      </trkpt>
      <trkpt lat="39.8725668" lon="116.6682181">
        <ele>21.74081</ele>
        <time>2026-09-08T23:16:51.163000Z</time>
      </trkpt>
      <trkpt lat="39.872555" lon="116.668349">
        <ele>21.70231</ele>
        <time>2026-09-08T23:16:55.144000Z</time>
      </trkpt>
      <trkpt lat="39.8725491" lon="116.6684762">
        <ele>21.60903</ele>
        <time>2026-09-08T23:16:59.125000Z</time>
      </trkpt>
      <trkpt lat="39.8725806" lon="116.6685999">
        <ele>21.48499</ele>
        <time>2026-09-08T23:17:03.106000Z</time>
      </trkpt>
      <trkpt lat="39.8726128" lon="116.6687285">
        <ele>21.343</ele>
        <time>2026-09-08T23:17:07.087000Z</time>
      </trkpt>
      <trkpt lat="39.872628" lon="116.6688595">
        <ele>21.18493</ele>
        <time>2026-09-08T23:17:11.068000Z</time>
      </trkpt>
      <trkpt lat="39.8726221" lon="116.6689903">
        <ele>21.04621</ele>
        <time>2026-09-08T23:17:15.048000Z</time>
      </trkpt>
      <trkpt lat="39.8725924" lon="116.6691211">
        <ele>20.96661</ele>
        <time>2026-09-08T23:17:19.029000Z</time>
      </trkpt>
      <trkpt lat="39.8725555" lon="116.6692492">
        <ele>20.94625</ele>
        <time>2026-09-08T23:17:23.010000Z</time>
      </trkpt>
      <trkpt lat="39.8725213" lon="116.6693714">
        <ele>20.94288</ele>
        <time>2026-09-08T23:17:26.991000Z</time>
      </trkpt>
      <trkpt lat="39.8725003" lon="116.6694958">
        <ele>20.94939</ele>
        <time>2026-09-08T23:17:30.972000Z</time>
      </trkpt>
      <trkpt lat="39.8724994" lon="116.6696223">
        <ele>20.9967</ele>
        <time>2026-09-08T23:17:34.953000Z</time>
      </trkpt>
      <trkpt lat="39.8725191" lon="116.6697453">
        <ele>21.06505</ele>
        <time>2026-09-08T23:17:38.933000Z</time>
      </trkpt>
      <trkpt lat="39.8725574" lon="116.6698584">
        <ele>21.1288</ele>
        <time>2026-09-08T23:17:42.914000Z</time>
      </trkpt>
      <trkpt lat="39.8726178" lon="116.669962">
        <ele>21.18971</ele>
        <time>2026-09-08T23:17:46.895000Z</time>
      </trkpt>
      <trkpt lat="39.8726934" lon="116.6700427">
        <ele>21.23324</ele>
        <time>2026-09-08T23:17:50.876000Z</time>
      </trkpt>
      <trkpt lat="39.8727805" lon="116.6700933">
        <ele>21.22936</ele>
        <time>2026-09-08T23:17:54.857000Z</time>
      </trkpt>
      <trkpt lat="39.8728721" lon="116.6701292">
        <ele>21.17655</ele>
        <time>2026-09-08T23:17:58.838000Z</time>
      </trkpt>
      <trkpt lat="39.8729681" lon="116.6701443">
        <ele>21.09786</ele>
        <time>2026-09-08T23:18:02.819000Z</time>
      </trkpt>
      <trkpt lat="39.8730664" lon="116.6701448">
        <ele>21.01422</ele>
        <time>2026-09-08T23:18:06.799000Z</time>
      </trkpt>
      <trkpt lat="39.8731662" lon="116.6701312">
        <ele>20.93308</ele>
        <time>2026-09-08T23:18:10.780000Z</time>
      </trkpt>
      <trkpt lat="39.8732663" lon="116.6701048">
        <ele>20.85501</ele>
        <time>2026-09-08T23:18:14.761000Z</time>
      </trkpt>
      <trkpt lat="39.873364" lon="116.6700732">
        <ele>20.77458</ele>
        <time>2026-09-08T23:18:18.742000Z</time>
      </trkpt>
      <trkpt lat="39.8734561" lon="116.6700219">
        <ele>20.69388</ele>
        <time>2026-09-08T23:18:22.723000Z</time>
      </trkpt>
      <trkpt lat="39.8735381" lon="116.6699468">
        <ele>20.6468</ele>
        <time>2026-09-08T23:18:26.704000Z</time>
      </trkpt>
      <trkpt lat="39.8736153" lon="116.6698684">
        <ele>20.67235</ele>
        <time>2026-09-08T23:18:30.685000Z</time>
      </trkpt>
      <trkpt lat="39.8736999" lon="116.6698103">
        <ele>20.77092</ele>
        <time>2026-09-08T23:18:34.666000Z</time>
      </trkpt>
      <trkpt lat="39.8737925" lon="116.6697838">
        <ele>20.91081</ele>
        <time>2026-09-08T23:18:38.646000Z</time>
      </trkpt>
      <trkpt lat="39.8738849" lon="116.6697917">
        <ele>21.04887</ele>
        <time>2026-09-08T23:18:42.627000Z</time>
      </trkpt>
      <trkpt lat="39.8739775" lon="116.6698174">
        <ele>21.13241</ele>
        <time>2026-09-08T23:18:46.608000Z</time>
      </trkpt>
      <trkpt lat="39.8740722" lon="116.6698233">
        <ele>21.12919</ele>
        <time>2026-09-08T23:18:50.589000Z</time>
      </trkpt>
      <trkpt lat="39.8741678" lon="116.6698178">
        <ele>21.04098</ele>
        <time>2026-09-08T23:18:54.570000Z</time>
      </trkpt>
      <trkpt lat="39.8742583" lon="116.669784">
        <ele>20.89993</ele>
        <time>2026-09-08T23:18:58.551000Z</time>
      </trkpt>
      <trkpt lat="39.8743382" lon="116.6697104">
        <ele>20.77824</ele>
        <time>2026-09-08T23:19:02.532000Z</time>
      </trkpt>
      <trkpt lat="39.8744098" lon="116.6696184">
        <ele>20.76809</ele>
        <time>2026-09-08T23:19:06.512000Z</time>
      </trkpt>
      <trkpt lat="39.8744848" lon="116.6695293">
        <ele>20.91167</ele>
        <time>2026-09-08T23:19:10.493000Z</time>
      </trkpt>
      <trkpt lat="39.8745774" lon="116.6694743">
        <ele>21.18364</ele>
        <time>2026-09-08T23:19:14.474000Z</time>
      </trkpt>
      <trkpt lat="39.8746793" lon="116.6694705">
        <ele>21.52859</ele>
        <time>2026-09-08T23:19:18.455000Z</time>
      </trkpt>
      <trkpt lat="39.8747819" lon="116.6695045">
        <ele>21.89061</ele>
        <time>2026-09-08T23:19:22.436000Z</time>
      </trkpt>
      <trkpt lat="39.8748809" lon="116.6695497">
        <ele>22.21568</ele>
        <time>2026-09-08T23:19:26.417000Z</time>
      </trkpt>
      <trkpt lat="39.8749727" lon="116.6696075">
        <ele>22.46796</ele>
        <time>2026-09-08T23:19:30.398000Z</time>
      </trkpt>
      <trkpt lat="39.8750688" lon="116.6696601">
        <ele>22.61617</ele>
        <time>2026-09-08T23:19:34.378000Z</time>
      </trkpt>
      <trkpt lat="39.8751634" lon="116.6696443">
        <ele>22.67991</ele>
        <time>2026-09-08T23:19:38.359000Z</time>
      </trkpt>
      <trkpt lat="39.8752461" lon="116.6695731">
        <ele>22.70084</ele>
        <time>2026-09-08T23:19:42.340000Z</time>
      </trkpt>
      <trkpt lat="39.875327" lon="116.6695116">
        <ele>22.68726</ele>
        <time>2026-09-08T23:19:46.321000Z</time>
      </trkpt>
      <trkpt lat="39.875416" lon="116.6694872">
        <ele>22.63862</ele>
        <time>2026-09-08T23:19:50.302000Z</time>
      </trkpt>
      <trkpt lat="39.875506" lon="116.6694515">
        <ele>22.60117</ele>
        <time>2026-09-08T23:19:54.283000Z</time>
      </trkpt>
      <trkpt lat="39.8755867" lon="116.66938">
        <ele>22.62666</ele>
        <time>2026-09-08T23:19:58.264000Z</time>
      </trkpt>
      <trkpt lat="39.8756417" lon="116.6692848">
        <ele>22.69743</ele>
        <time>2026-09-08T23:20:02.244000Z</time>
      </trkpt>
      <trkpt lat="39.8756628" lon="116.6691448">
        <ele>22.76514</ele>
        <time>2026-09-08T23:20:07.220000Z</time>
      </trkpt>
      <trkpt lat="39.8756448" lon="116.6690057">
        <ele>22.8278</ele>
        <time>2026-09-08T23:20:12.196000Z</time>
      </trkpt>
      <trkpt lat="39.875602" lon="116.6688979">
        <ele>22.90089</ele>
        <time>2026-09-08T23:20:16.177000Z</time>
      </trkpt>
      <trkpt lat="39.8755417" lon="116.6688076">
        <ele>22.96592</ele>
        <time>2026-09-08T23:20:20Z</time>
      </trkpt>
      <trkpt lat="39.8754695" lon="116.6687204">
        <ele>22.98623</ele>
        <time>2026-09-08T23:20:24Z</time>
      </trkpt>
      <trkpt lat="39.8753976" lon="116.6686265">
        <ele>22.96081</ele>
        <time>2026-09-08T23:20:28Z</time>
      </trkpt>
      <trkpt lat="39.875337" lon="116.6685203">
        <ele>22.90589</ele>
        <time>2026-09-08T23:20:32Z</time>
      </trkpt>
      <trkpt lat="39.8752977" lon="116.6683997">
        <ele>22.8761</ele>
        <time>2026-09-08T23:20:36.082000Z</time>
      </trkpt>
      <trkpt lat="39.8752799" lon="116.6682719">
        <ele>22.89957</ele>
        <time>2026-09-08T23:20:40Z</time>
      </trkpt>
    </trkseg>
  </trk>
</gpx>