<?xml version="1.0" encoding="UTF-8"?>
<gpx xmlns="http://www.topografix.com/GPX/1/1" xmlns:gpxtpx="http://www.garmin.com/xmlschemas/TrackPointExtension/v1" xmlns:xsi="http://www.w3.org/2001/XMLSchema-instance" xsi:schemaLocation="http://www.topografix.com/GPX/1/1 http://www.topografix.com/GPX/1/1/gpx.xsd" version="1.1" creator="gpx.py -- https://github.com/tkrajina/gpxpy">
  <trk>
    <name>gpx from codoon</name>
    <type>Run</type>
    <trkseg>
      <trkpt lat="39.8731949" lon="116.6656429">
        <ele>22.94519</ele>
        <time>2026-09-20T22:48:19.953000Z</time>
      </trkpt>
      <trkpt lat="39.8732673" lon="116.6657289">
        <ele>22.82267</ele>
        <time>2026-09-20T22:48:25.490000Z</time>
      </trkpt>
      <trkpt lat="39.8733426" lon="116.6658042">
        <ele>22.5695</ele>
        <time>2026-09-20T22:48:30.546000Z</time>
      </trkpt>
      <trkpt lat="39.8734485" lon="116.6658458">
        <ele>22.40589</ele>
        <time>2026-09-20T22:48:35.523000Z</time>
      </trkpt>
      <trkpt lat="39.8735471" lon="116.6658414">
        <ele>22.38125</ele>
        <time>2026-09-20T22:48:39.504000Z</time>
      </trkpt>
      <trkpt lat="39.8736427" lon="116.6657954">
        <ele>22.43378</ele>
        <time>2026-09-20T22:48:43.486000Z</time>
      </trkpt>
      <trkpt lat="39.8737382" lon="116.6657315">
        <ele>22.55603</ele>
        <time>2026-09-20T22:48:47.467000Z</time>
      </trkpt>
      <trkpt lat="39.8738356" lon="116.6656632">
        <ele>22.73195</ele>
        <time>2026-09-20T22:48:51.448000Z</time>
      </trkpt>
      <trkpt lat="39.8739385" lon="116.6655916">
        <ele>22.92169</ele>
        <time>2026-09-20T22:48:55.429000Z</time>
      </trkpt>
      <trkpt lat="39.8740407" lon="116.665532">
        <ele>23.0988</ele>
        <time>2026-09-20T22:48:59.411000Z</time>
      </trkpt>
      <trkpt lat="39.8741479" lon="116.6654812">
        <ele>23.26415</ele>
        <time>2026-09-20T22:49:03.392000Z</time>
      </trkpt>
      <trkpt lat="39.8742546" lon="116.665436">
        <ele>23.37973</ele>
        <time>2026-09-20T22:49:07.373000Z</time>
      </trkpt>
      <trkpt lat="39.874365" lon="116.6654163">
        <ele>23.41964</ele>
        <time>2026-09-20T22:49:11.354000Z</time>
      </trkpt>
      <trkpt lat="39.8744556" lon="116.665487">
        <ele>23.40331</ele>
        <time>2026-09-20T22:49:15.336000Z</time>
      </trkpt>
      <trkpt lat="39.8745043" lon="116.6655917">
        <ele>23.34973</ele>
        <time>2026-09-20T22:49:18.321000Z</time>
      </trkpt>
      <trkpt lat="39.8745487" lon="116.6656973">
        <ele>23.2582</ele>
        <time>2026-09-20T22:49:21.307000Z</time>
      </trkpt>
      <trkpt lat="39.8745935" lon="116.6658031">
        <ele>23.14474</ele>
        <time>2026-09-20T22:49:24.293000Z</time>
      </trkpt>
      <trkpt lat="39.8746355" lon="116.6659082">
        <ele>23.02691</ele>
        <time>2026-09-20T22:49:27.279000Z</time>
      </trkpt>
      <trkpt lat="39.8746891" lon="116.6660454">
        <ele>22.92184</ele>
        <time>2026-09-20T22:49:31.260000Z</time>
      </trkpt>
      <trkpt lat="39.8747455" lon="116.6661797">
        <ele>22.95783</ele>
        <time>2026-09-20T22:49:35.241000Z</time>
      </trkpt>
      <trkpt lat="39.8748035" lon="116.6663092">
        <ele>23.21487</ele>
        <time>2026-09-20T22:49:39.223000Z</time>
      </trkpt>
      <trkpt lat="39.8748694" lon="116.666433">
        <ele>23.69818</ele>
        <time>2026-09-20T22:49:43.204000Z</time>
      </trkpt>
      <trkpt lat="39.8749406" lon="116.6665402">
        <ele>24.15697</ele>
        <time>2026-09-20T22:49:47Z</time>
      </trkpt>
      <trkpt lat="39.8750185" lon="116.6666487">
        <ele>24.35997</ele>
        <time>2026-09-20T22:49:51Z</time>
      </trkpt>
      <trkpt lat="39.8750989" lon="116.6667549">
        <ele>24.39647</ele>
        <time>2026-09-20T22:49:55Z</time>
      </trkpt>
      <trkpt lat="39.8751734" lon="116.6668655">
        <ele>24.37265</ele>
        <time>2026-09-20T22:49:59Z</time>
      </trkpt>
      <trkpt lat="39.8752382" lon="116.6669885">
        <ele>24.34124</ele>
        <time>2026-09-20T22:50:03Z</time>
      </trkpt>
      <trkpt lat="39.8753071" lon="116.6670932">
        <ele>24.28589</ele>
        <time>2026-09-20T22:50:07Z</time>
      </trkpt>
      <trkpt lat="39.8753943" lon="116.667195">
        <ele>24.22008</ele>
        <time>2026-09-20T22:50:11.072000Z</time>
      </trkpt>
      <trkpt lat="39.875478" lon="116.6672997">
        <ele>24.24507</ele>
        <time>2026-09-20T22:50:15Z</time>
      </trkpt>
      <trkpt lat="39.8755582" lon="116.6674069">
        <ele>24.24104</ele>
        <time>2026-09-20T22:50:19Z</time>
      </trkpt>
      <trkpt lat="39.8756355" lon="116.6675163">
        <ele>24.18285</ele>
        <time>2026-09-20T22:50:23Z</time>
      </trkpt>
      <trkpt lat="39.8757054" lon="116.6676224">
        <ele>24.03081</ele>
        <time>2026-09-20T22:50:26.996000Z</time>
      </trkpt>
      <trkpt lat="39.8757771" lon="116.6677283">
        <ele>23.83314</ele>
        <time>2026-09-20T22:50:30.977000Z</time>
      </trkpt>
      <trkpt lat="39.8758534" lon="116.6678322">
        <ele>23.69791</ele>
        <time>2026-09-20T22:50:34.958000Z</time>
      </trkpt>
      <trkpt lat="39.8759315" lon="116.6679373">
        <ele>23.61935</ele>
        <time>2026-09-20T22:50:38.939000Z</time>
      </trkpt>
      <trkpt lat="39.8760079" lon="116.6680449">
        <ele>23.57738</ele>
        <time>2026-09-20T22:50:42.921000Z</time>
      </trkpt>
      <trkpt lat="39.8760881" lon="116.6681478">
        <ele>23.55258</ele>
        <time>2026-09-20T22:50:46.902000Z</time>
      </trkpt>
      <trkpt lat="39.876169" lon="116.6682401">
        <ele>23.54442</ele>
        <time>2026-09-20T22:50:50.883000Z</time>
      </trkpt>
      <trkpt lat="39.8762544" lon="116.6683295">
        <ele>23.54257</ele>
        <time>2026-09-20T22:50:54.864000Z</time>
      </trkpt>
      <trkpt lat="39.8763442" lon="116.6684265">
        <ele>23.5496</ele>
        <time>2026-09-20T22:50:58.845000Z</time>
      </trkpt>
      <trkpt lat="39.8764266" lon="116.6685339">
        <ele>23.56969</ele>
        <time>2026-09-20T22:51:02.826000Z</time>
      </trkpt>
      <trkpt lat="39.8765008" lon="116.6686411">
        <ele>23.60637</ele>
        <time>2026-09-20T22:51:06.807000Z</time>
      </trkpt>
      <trkpt lat="39.8765737" lon="116.6687488">
        <ele>23.7063</ele>
        <time>2026-09-20T22:51:10.788000Z</time>
      </trkpt>
      <trkpt lat="39.8766487" lon="116.668858">
        <ele>23.89928</ele>
        <time>2026-09-20T22:51:14.769000Z</time>
      </trkpt>
      <trkpt lat="39.8767265" lon="116.668962">
        <ele>24.13573</ele>
        <time>2026-09-20T22:51:18.750000Z</time>
      </trkpt>
      <trkpt lat="39.8768037" lon="116.6690615">
        <ele>24.3115</ele>
        <time>2026-09-20T22:51:22.731000Z</time>
      </trkpt>
      <trkpt lat="39.8768733" lon="116.6691622">
        <ele>24.38016</ele>
        <time>2026-09-20T22:51:26.712000Z</time>
      </trkpt>
      <trkpt lat="39.8769377" lon="116.6692656">
        <ele>24.37644</ele>
        <time>2026-09-20T22:51:30.693000Z</time>
      </trkpt>
      <trkpt lat="39.8769962" lon="116.6693785">
        <ele>24.33334</ele>
        <time>2026-09-20T22:51:34.674000Z</time>
      </trkpt>
      <trkpt lat="39.8770331" lon="116.6695057">
        <ele>24.28596</ele>
        <time>2026-09-20T22:51:38.655000Z</time>
      </trkpt>
      <trkpt lat="39.8770205" lon="116.6696367">
        <ele>24.2466</ele>
        <time>2026-09-20T22:51:42.636000Z</time>
      </trkpt>
      <trkpt lat="39.8769688" lon="116.6697479">
        <ele>24.1768</ele>
        <time>2026-09-20T22:51:46.617000Z</time>
      </trkpt>
      <trkpt lat="39.8768965" lon="116.6698388">
        <ele>24.08554</ele>
        <time>2026-09-20T22:51:50.598000Z</time>
      </trkpt>
      <trkpt lat="39.8768166" lon="116.6699309">
        <ele>24.01545</ele>
        <time>2026-09-20T22:51:54.579000Z</time>
      </trkpt>
      <trkpt lat="39.8767358" lon="116.6700287">
        <ele>23.99304</ele>
        <time>2026-09-20T22:51:58.560000Z</time>
      </trkpt>
      <trkpt lat="39.8766562" lon="116.6701267">
        <ele>24.01364</ele>
        <time>2026-09-20T22:52:02.541000Z</time>
      </trkpt>
      <trkpt lat="39.8765774" lon="116.670224">
        <ele>24.05661</ele>
        <time>2026-09-20T22:52:06.522000Z</time>
      </trkpt>
      <trkpt lat="39.8764988" lon="116.6703244">
        <ele>24.13216</ele>
        <time>2026-09-20T22:52:10.503000Z</time>
      </trkpt>
      <trkpt lat="39.8764224" lon="116.670416">
        <ele>24.2432</ele>
        <time>2026-09-20T22:52:14.484000Z</time>
      </trkpt>
      <trkpt lat="39.8763467" lon="116.6705017">
        <ele>24.34236</ele>
        <time>2026-09-20T22:52:18.465000Z</time>
      </trkpt>
      <trkpt lat="39.8762732" lon="116.6705841">
        <ele>24.4011</ele>
        <time>2026-09-20T22:52:22.446000Z</time>
      </trkpt>
      <trkpt lat="39.8762014" lon="116.6706628">
        <ele>24.42403</ele>
        <time>2026-09-20T22:52:26.427000Z</time>
      </trkpt>
      <trkpt lat="39.8761309" lon="116.6707422">
        <ele>24.43008</ele>
        <time>2026-09-20T22:52:30.409000Z</time>
      </trkpt>
      <trkpt lat="39.8760653" lon="116.6708334">
        <ele>24.43201</ele>
        <time>2026-09-20T22:52:34.390000Z</time>
      </trkpt>
      <trkpt lat="39.8760029" lon="116.670951">
        <ele>24.38252</ele>
        <time>2026-09-20T22:52:39.366000Z</time>
      </trkpt>
      <trkpt lat="39.8759233" lon="116.6710515">
        <ele>24.26338</ele>
        <time>2026-09-20T22:52:44.342000Z</time>
      </trkpt>
      <trkpt lat="39.8758458" lon="116.6711364">
        <ele>24.2045</ele>
        <time>2026-09-20T22:52:48.323000Z</time>
      </trkpt>
      <trkpt lat="39.8757662" lon="116.6712369">
        <ele>24.21603</ele>
        <time>2026-09-20T22:52:52.304000Z</time>
      </trkpt>
      <trkpt lat="39.8756869" lon="116.6713403">
        <ele>24.25804</ele>
        <time>2026-09-20T22:52:56.285000Z</time>
      </trkpt>
      <trkpt lat="39.875612" lon="116.6714458">
        <ele>24.29451</ele>
        <time>2026-09-20T22:53:00.266000Z</time>
      </trkpt>
      <trkpt lat="39.8755341" lon="116.6715545">
        <ele>24.30692</ele>
        <time>2026-09-20T22:53:04.247000Z</time>
      </trkpt>
      <trkpt lat="39.8754558" lon="116.6716615">
        <ele>24.29537</ele>
        <time>2026-09-20T22:53:08.228000Z</time>
      </trkpt>
      <trkpt lat="39.875377" lon="116.6717665">
        <ele>24.29492</ele>
        <time>2026-09-20T22:53:12.209000Z</time>
      </trkpt>
      <trkpt lat="39.8752937" lon="116.6718655">
        <ele>24.31671</ele>
        <time>2026-09-20T22:53:16.190000Z</time>
      </trkpt>
      <trkpt lat="39.8751971" lon="116.6719468">
        <ele>24.33209</ele>
        <time>2026-09-20T22:53:20.171000Z</time>
      </trkpt>
      <trkpt lat="39.8750821" lon="116.6719873">
        <ele>24.33045</ele>
        <time>2026-09-20T22:53:24.152000Z</time>
      </trkpt>
      <trkpt lat="39.8749699" lon="116.6720005">
        <ele>24.33363</ele>
        <time>2026-09-20T22:53:28Z</time>
      </trkpt>
      <trkpt lat="39.8748797" lon="116.6719986">
        <ele>24.34004</ele>
        <time>2026-09-20T22:53:31Z</time>
      </trkpt>
      <trkpt lat="39.8747657" lon="116.6719698">
        <ele>24.33685</ele>
        <time>2026-09-20T22:53:35Z</time>
      </trkpt>
      <trkpt lat="39.874678" lon="116.6718854">
        <ele>24.32968</ele>
        <time>2026-09-20T22:53:39Z</time>
      </trkpt>
      <trkpt lat="39.8746752" lon="116.6717484">
        <ele>24.30372</ele>
        <time>2026-09-20T22:53:43Z</time>
      </trkpt>
      <trkpt lat="39.8747371" lon="116.6716214">
        <ele>24.27236</ele>
        <time>2026-09-20T22:53:47Z</time>
      </trkpt>
      <trkpt lat="39.8748147" lon="116.6715096">
        <ele>24.25293</ele>
        <time>2026-09-20T22:53:51Z</time>
      </trkpt>
      <trkpt lat="39.8748727" lon="116.6713883">
        <ele>24.25504</ele>
        <time>2026-09-20T22:53:55Z</time>
      </trkpt>
      <trkpt lat="39.8748931" lon="116.6712515">
        <ele>24.22569</ele>
        <time>2026-09-20T22:53:58.986000Z</time>
      </trkpt>
      <trkpt lat="39.8748959" lon="116.6711138">
        <ele>24.16796</ele>
        <time>2026-09-20T22:54:02.967000Z</time>
      </trkpt>
      <trkpt lat="39.8749019" lon="116.6709773">
        <ele>24.08198</ele>
        <time>2026-09-20T22:54:06.948000Z</time>
      </trkpt>
      <trkpt lat="39.8749273" lon="116.6708441">
        <ele>23.93904</ele>
        <time>2026-09-20T22:54:10.929000Z</time>
      </trkpt>
      <trkpt lat="39.8749478" lon="116.6707215">
        <ele>23.76487</ele>
        <time>2026-09-20T22:54:14.910000Z</time>
      </trkpt>
      <trkpt lat="39.874929" lon="116.6706052">
        <ele>23.62898</ele>
        <time>2026-09-20T22:54:18.891000Z</time>
      </trkpt>
      <trkpt lat="39.8748512" lon="116.6705349">
        <ele>23.56479</ele>
        <time>2026-09-20T22:54:22.872000Z</time>
      </trkpt>
      <trkpt lat="39.8747496" lon="116.6705242">
        <ele>23.54346</ele>
        <time>2026-09-20T22:54:26.853000Z</time>
      </trkpt>
      <trkpt lat="39.8746482" lon="116.6705369">
        <ele>23.53705</ele>
        <time>2026-09-20T22:54:30.834000Z</time>
      </trkpt>
      <trkpt lat="39.874545" lon="116.6705524">
        <ele>23.53287</ele>
        <time>2026-09-20T22:54:34.815000Z</time>
      </trkpt>
      <trkpt lat="39.8744389" lon="116.670562">
        <ele>23.53508</ele>
        <time>2026-09-20T22:54:38.796000Z</time>
      </trkpt>
      <trkpt lat="39.8743339" lon="116.6705773">
        <ele>23.5582</ele>
        <time>2026-09-20T22:54:42.777000Z</time>
      </trkpt>
      <trkpt lat="39.8742292" lon="116.6705833">
        <ele>23.57174</ele>
        <time>2026-09-20T22:54:46.758000Z</time>
      </trkpt>
      <trkpt lat="39.8741219" lon="116.6705886">
        <ele>23.57427</ele>
        <time>2026-09-20T22:54:50.739000Z</time>
      </trkpt>
      <trkpt lat="39.8740146" lon="116.6705956">
        <ele>23.59713</ele>
        <time>2026-09-20T22:54:54.720000Z</time>
      </trkpt>
      <trkpt lat="39.873909" lon="116.6706003">
        <ele>23.65627</ele>
        <time>2026-09-20T22:54:58.701000Z</time>
      </trkpt>
      <trkpt lat="39.8738021" lon="116.6706126">
        <ele>23.70913</ele>
        <time>2026-09-20T22:55:02.682000Z</time>
      </trkpt>
      <trkpt lat="39.8736924" lon="116.6706223">
        <ele>23.69949</ele>
        <time>2026-09-20T22:55:06.663000Z</time>
      </trkpt>
      <trkpt lat="39.8735831" lon="116.6706263">
        <ele>23.62654</ele>
        <time>2026-09-20T22:55:10.644000Z</time>
      </trkpt>
      <trkpt lat="39.8734768" lon="116.6706307">
        <ele>23.56723</ele>
        <time>2026-09-20T22:55:14.625000Z</time>
      </trkpt>
      <trkpt lat="39.8733684" lon="116.6706372">
        <ele>23.56001</ele>
        <time>2026-09-20T22:55:18.606000Z</time>
      </trkpt>
      <trkpt lat="39.8732599" lon="116.6706447">
        <ele>23.54992</ele>
        <time>2026-09-20T22:55:22.586000Z</time>
      </trkpt>
      <trkpt lat="39.8731494" lon="116.6706478">
        <ele>23.51241</ele>
        <time>2026-09-20T22:55:26.567000Z</time>
      </trkpt>
      <trkpt lat="39.8730389" lon="116.670653">
        <ele>23.47702</ele>
        <time>2026-09-20T22:55:30.548000Z</time>
      </trkpt>
      <trkpt lat="39.8729419" lon="116.6706824">
        <ele>23.46957</ele>
        <time>2026-09-20T22:55:34.529000Z</time>
      </trkpt>
      <trkpt lat="39.8728864" lon="116.6707803">
        <ele>23.46469</ele>
        <time>2026-09-20T22:55:38.510000Z</time>
      </trkpt>
      <trkpt lat="39.8728484" lon="116.6708901">
        <ele>23.41626</ele>
        <time>2026-09-20T22:55:42.491000Z</time>
      </trkpt>
      <trkpt lat="39.8727556" lon="116.6709274">
        <ele>23.3445</ele>
        <time>2026-09-20T22:55:46.472000Z</time>
      </trkpt>
      <trkpt lat="39.8726465" lon="116.6709137">
        <ele>23.27035</ele>
        <time>2026-09-20T22:55:50.453000Z</time>
      </trkpt>
      <trkpt lat="39.8725407" lon="116.6709062">
        <ele>23.20883</ele>
        <time>2026-09-20T22:55:54.434000Z</time>
      </trkpt>
      <trkpt lat="39.8724422" lon="116.67093">
        <ele>23.13211</ele>
        <time>2026-09-20T22:55:58.415000Z</time>
      </trkpt>
      <trkpt lat="39.8723659" lon="116.6710094">
        <ele>23.07132</ele>
        <time>2026-09-20T22:56:02.395000Z</time>
      </trkpt>
      <trkpt lat="39.8723215" lon="116.6711276">
        <ele>23.03991</ele>
        <time>2026-09-20T22:56:06.376000Z</time>
      </trkpt>
      <trkpt lat="39.8723015" lon="116.6712542">
        <ele>23.03329</ele>
        <time>2026-09-20T22:56:10.357000Z</time>
      </trkpt>
      <trkpt lat="39.872298" lon="116.6713803">
        <ele>23.04615</ele>
        <time>2026-09-20T22:56:14.338000Z</time>
      </trkpt>
      <trkpt lat="39.8723024" lon="116.6715097">
        <ele>23.06931</ele>
        <time>2026-09-20T22:56:18.319000Z</time>
      </trkpt>
      <trkpt lat="39.8723076" lon="116.6716443">
        <ele>23.08689</ele>
        <time>2026-09-20T22:56:22.300000Z</time>
      </trkpt>
      <trkpt lat="39.8723127" lon="116.6717767">
        <ele>23.12062</ele>
        <time>2026-09-20T22:56:26.281000Z</time>
      </trkpt>
      <trkpt lat="39.8723076" lon="116.6719131">
        <ele>23.21527</ele>
        <time>2026-09-20T22:56:30.261000Z</time>
      </trkpt>
      <trkpt lat="39.872282" lon="116.6720481">
        <ele>23.35481</ele>
        <time>2026-09-20T22:56:34.242000Z</time>
      </trkpt>
      <trkpt lat="39.8722348" lon="116.6721729">
        <ele>23.45963</ele>
        <time>2026-09-20T22:56:38.223000Z</time>
      </trkpt>
      <trkpt lat="39.8721819" lon="116.6722892">
        <ele>23.54933</ele>
        <time>2026-09-20T22:56:42.204000Z</time>
      </trkpt>
      <trkpt lat="39.8721355" lon="116.6723992">
        <ele>23.64209</ele>
        <time>2026-09-20T22:56:46Z</time>
      </trkpt>
      <trkpt lat="39.8720971" lon="116.6725151">
        <ele>23.66857</ele>
        <time>2026-09-20T22:56:50Z</time>
      </trkpt>
      <trkpt lat="39.8720642" lon="116.6726409">
        <ele>23.61814</ele>
        <time>2026-09-20T22:56:54Z</time>
      </trkpt>
      <trkpt lat="39.8720424" lon="116.672768">
        <ele>23.54673</ele>
        <time>2026-09-20T22:56:58Z</time>
      </trkpt>
      <trkpt lat="39.8720351" lon="116.6728986">
        <ele>23.49393</ele>
        <time>2026-09-20T22:57:02Z</time>
      </trkpt>
      <trkpt lat="39.8720451" lon="116.6730314">
        <ele>23.46353</ele>
        <time>2026-09-20T22:57:06Z</time>
      </trkpt>
      <trkpt lat="39.8720666" lon="116.6731595">
        <ele>23.42793</ele>
        <time>2026-09-20T22:57:10Z</time>
      </trkpt>
      <trkpt lat="39.872102" lon="116.673271">
        <ele>23.3734</ele>
        <time>2026-09-20T22:57:14Z</time>
      </trkpt>
      <trkpt lat="39.8721617" lon="116.6733659">
        <ele>23.34868</ele>
        <time>2026-09-20T22:57:18.032000Z</time>
      </trkpt>
      <trkpt lat="39.8722415" lon="116.6734284">
        <ele>23.41819</ele>
        <time>2026-09-20T22:57:22Z</time>
      </trkpt>
      <trkpt lat="39.8723349" lon="116.6734625">
        <ele>23.64439</ele>
        <time>2026-09-20T22:57:25.993000Z</time>
      </trkpt>
      <trkpt lat="39.8724287" lon="116.6734615">
        <ele>23.8727</ele>
        <time>2026-09-20T22:57:29.974000Z</time>
      </trkpt>
      <trkpt lat="39.8725229" lon="116.6734301">
        <ele>24.02475</ele>
        <time>2026-09-20T22:57:33.955000Z</time>
      </trkpt>
      <trkpt lat="39.8726039" lon="116.6733778">
        <ele>24.10441</ele>
        <time>2026-09-20T22:57:37.936000Z</time>
      </trkpt>
      <trkpt lat="39.8726814" lon="116.6732969">
        <ele>24.12964</ele>
        <time>2026-09-20T22:57:41.917000Z</time>
      </trkpt>
      <trkpt lat="39.8727474" lon="116.6731959">
        <ele>24.0807</ele>
        <time>2026-09-20T22:57:45.898000Z</time>
      </trkpt>
      <trkpt lat="39.8728061" lon="116.673086">
        <ele>23.96452</ele>
        <time>2026-09-20T22:57:49.878000Z</time>
      </trkpt>
      <trkpt lat="39.8728694" lon="116.6729819">
        <ele>23.85297</ele>
        <time>2026-09-20T22:57:53.859000Z</time>
      </trkpt>
      <trkpt lat="39.8729303" lon="116.6728765">
        <ele>23.79766</ele>
        <time>2026-09-20T22:57:57.840000Z</time>
      </trkpt>
      <trkpt lat="39.873009" lon="116.6727941">
        <ele>23.80459</ele>
        <time>2026-09-20T22:58:01.821000Z</time>
      </trkpt>
      <trkpt lat="39.8730995" lon="116.6727348">
        <ele>23.84771</ele>
        <time>2026-09-20T22:58:05.802000Z</time>
      </trkpt>
      <trkpt lat="39.8731887" lon="116.6726648">
        <ele>23.89866</ele>
        <time>2026-09-20T22:58:09.783000Z</time>
      </trkpt>
      <trkpt lat="39.8732648" lon="116.6725735">
        <ele>23.93459</ele>
        <time>2026-09-20T22:58:13.763000Z</time>
      </trkpt>
      <trkpt lat="39.8733248" lon="116.6724641">
        <ele>23.9761</ele>
        <time>2026-09-20T22:58:17.744000Z</time>
      </trkpt>
      <trkpt lat="39.8733813" lon="116.6723537">
        <ele>24.02816</ele>
        <time>2026-09-20T22:58:21.725000Z</time>
      </trkpt>
      <trkpt lat="39.8734568" lon="116.672261">
        <ele>24.09823</ele>
        <time>2026-09-20T22:58:25.706000Z</time>
      </trkpt>
      <trkpt lat="39.8735478" lon="116.6721861">
        <ele>24.20444</ele>
        <time>2026-09-20T22:58:29.687000Z</time>
      </trkpt>
      <trkpt lat="39.8736518" lon="116.6721501">
        <ele>24.36294</ele>
        <time>2026-09-20T22:58:33.668000Z</time>
      </trkpt>
      <trkpt lat="39.8737607" lon="116.6721376">
        <ele>24.54785</ele>
        <time>2026-09-20T22:58:37.649000Z</time>
      </trkpt>
      <trkpt lat="39.8738604" lon="116.6721061">
        <ele>24.68186</ele>
        <time>2026-09-20T22:58:41.629000Z</time>
      </trkpt>
      <trkpt lat="39.8739423" lon="116.6720387">
        <ele>24.73786</ele>
        <time>2026-09-20T22:58:45.610000Z</time>
      </trkpt>
      <trkpt lat="39.8740083" lon="116.6719447">
        <ele>24.71884</ele>
        <time>2026-09-20T22:58:49.591000Z</time>
      </trkpt>
      <trkpt lat="39.8740513" lon="116.6718272">
        <ele>24.61118</ele>
        <time>2026-09-20T22:58:53.572000Z</time>
      </trkpt>
      <trkpt lat="39.8740892" lon="116.6717054">
        <ele>24.43299</ele>
        <time>2026-09-20T22:58:57.553000Z</time>
      </trkpt>
      <trkpt lat="39.8741239" lon="116.6715876">
        <ele>24.29</ele>
        <time>2026-09-20T22:59:01.534000Z</time>
      </trkpt>
      <trkpt lat="39.8742062" lon="116.6715262">
        <ele>24.26779</ele>
        <time>2026-09-20T22:59:06.510000Z</time>
      </trkpt>
      <trkpt lat="39.8743028" lon="116.6715873">
        <ele>24.27087</ele>
        <time>2026-09-20T22:59:11.486000Z</time>
      </trkpt>
      <trkpt lat="39.8743873" lon="116.6716748">
        <ele>24.2165</ele>
        <time>2026-09-20T22:59:16.462000Z</time>
      </trkpt>
      <trkpt lat="39.8744879" lon="116.6717088">
        <ele>24.21385</ele>
        <time>2026-09-20T22:59:22.433000Z</time>
      </trkpt>
      <trkpt lat="39.8745735" lon="116.6716642">
        <ele>24.2505</ele>
        <time>2026-09-20T22:59:27.409000Z</time>
      </trkpt>
      <trkpt lat="39.8746626" lon="116.6715844">
        <ele>24.23384</ele>
        <time>2026-09-20T22:59:32.385000Z</time>
      </trkpt>
      <trkpt lat="39.8747318" lon="116.6715004">
        <ele>24.17167</ele>
        <time>2026-09-20T22:59:36.366000Z</time>
      </trkpt>
      <trkpt lat="39.8747962" lon="116.6714056">
        <ele>24.08695</ele>
        <time>2026-09-20T22:59:40.347000Z</time>
      </trkpt>
      <trkpt lat="39.8748399" lon="116.6712944">
        <ele>24.01213</ele>
        <time>2026-09-20T22:59:44.328000Z</time>
      </trkpt>
      <trkpt lat="39.8748601" lon="116.6711688">
        <ele>23.95997</ele>
        <time>2026-09-20T22:59:48.308000Z</time>
      </trkpt>
      <trkpt lat="39.8748741" lon="116.6710392">
        <ele>23.91485</ele>
        <time>2026-09-20T22:59:52.289000Z</time>
      </trkpt>
      <trkpt lat="39.8748942" lon="116.67091">
        <ele>23.85705</ele>
        <time>2026-09-20T22:59:56.270000Z</time>
      </trkpt>
      <trkpt lat="39.8749181" lon="116.6707821">
        <ele>23.77251</ele>
        <time>2026-09-20T23:00:00.251000Z</time>
      </trkpt>
      <trkpt lat="39.8749255" lon="116.6706548">
        <ele>23.68251</ele>
        <time>2026-09-20T23:00:04.232000Z</time>
      </trkpt>
      <trkpt lat="39.8748718" lon="116.6705344">
        <ele>23.61995</ele>
        <time>2026-09-20T23:00:09.208000Z</time>
      </trkpt>
      <trkpt lat="39.8747624" lon="116.6705132">
        <ele>23.61503</ele>
        <time>2026-09-20T23:00:14Z</time>
      </trkpt>
      <trkpt lat="39.8746682" lon="116.670517">
        <ele>23.60817</ele>
        <time>2026-09-20T23:00:18Z</time>
      </trkpt>
      <trkpt lat="39.8745667" lon="116.6705215">
        <ele>23.57656</ele>
        <time>2026-09-20T23:00:22.145000Z</time>
      </trkpt>
      <trkpt lat="39.8744648" lon="116.6705244">
        <ele>23.5376</ele>
        <time>2026-09-20T23:00:26.126000Z</time>
      </trkpt>
      <trkpt lat="39.8743615" lon="116.6705265">
        <ele>23.49955</ele>
        <time>2026-09-20T23:00:30.107000Z</time>
      </trkpt>
      <trkpt lat="39.8742612" lon="116.6705311">
        <ele>23.4777</ele>
        <time>2026-09-20T23:00:34.088000Z</time>
      </trkpt>
      <trkpt lat="39.874158" lon="116.6705335">
        <ele>23.48055</ele>
        <time>2026-09-20T23:00:38.069000Z</time>
      </trkpt>
      <trkpt lat="39.8740527" lon="116.6705357">
        <ele>23.51748</ele>
        <time>2026-09-20T23:00:42.049000Z</time>
      </trkpt>
      <trkpt lat="39.8739483" lon="116.6705373">
        <ele>23.58734</ele>
        <time>2026-09-20T23:00:46.030000Z</time>
      </trkpt>
      <trkpt lat="39.8738452" lon="116.6705381">
        <ele>23.67436</ele>
        <time>2026-09-20T23:00:50.011000Z</time>
      </trkpt>
      <trkpt lat="39.8737443" lon="116.6705426">
        <ele>23.728</ele>
        <time>2026-09-20T23:00:53.992000Z</time>
      </trkpt>
      <trkpt lat="39.8736426" lon="116.6705515">
        <ele>23.68649</ele>
        <time>2026-09-20T23:00:57.972000Z</time>
      </trkpt>
      <trkpt lat="39.8735406" lon="116.6705639">
        <ele>23.58748</ele>
        <time>2026-09-20T23:01:01.953000Z</time>
      </trkpt>
      <trkpt lat="39.873441" lon="116.6705767">
        <ele>23.49849</ele>
        <time>2026-09-20T23:01:05.934000Z</time>
      </trkpt>
      <trkpt lat="39.8733445" lon="116.6705878">
        <ele>23.45212</ele>
        <time>2026-09-20T23:01:09.915000Z</time>
      </trkpt>
      <trkpt lat="39.8732459" lon="116.6705953">
        <ele>23.41832</ele>
        <time>2026-09-20T23:01:13.895000Z</time>
      </trkpt>
      <trkpt lat="39.8731482" lon="116.6706009">
        <ele>23.36876</ele>
        <time>2026-09-20T23:01:17.876000Z</time>
      </trkpt>
      <trkpt lat="39.8730569" lon="116.6706209">
        <ele>23.29877</ele>
        <time>2026-09-20T23:01:21.857000Z</time>
      </trkpt>
      <trkpt lat="39.8729518" lon="116.6706597">
        <ele>23.23694</ele>
        <time>2026-09-20T23:01:26.833000Z</time>
      </trkpt>
      <trkpt lat="39.8728826" lon="116.6707709">
        <ele>23.21166</ele>
        <time>2026-09-20T23:01:31.809000Z</time>
      </trkpt>
      <trkpt lat="39.8728439" lon="116.6708816">
        <ele>23.17575</ele>
        <time>2026-09-20T23:01:35.790000Z</time>
      </trkpt>
      <trkpt lat="39.8727342" lon="116.6709174">
        <ele>23.15753</ele>
        <time>2026-09-20T23:01:40.766000Z</time>
      </trkpt>
      <trkpt lat="39.8726285" lon="116.6709082">
        <ele>23.19122</ele>
        <time>2026-09-20T23:01:44.746000Z</time>
      </trkpt>
      <trkpt lat="39.8725289" lon="116.6709124">
        <ele>23.22942</ele>
        <time>2026-09-20T23:01:48.727000Z</time>
      </trkpt>
      <trkpt lat="39.872437" lon="116.6709444">
        <ele>23.24677</ele>
        <time>2026-09-20T23:01:52.708000Z</time>
      </trkpt>
      <trkpt lat="39.872366" lon="116.6710244">
        <ele>23.2431</ele>
        <time>2026-09-20T23:01:56.689000Z</time>
      </trkpt>
      <trkpt lat="39.8723218" lon="116.6711306">
        <ele>23.23185</ele>
        <time>2026-09-20T23:02:00.669000Z</time>
      </trkpt>
      <trkpt lat="39.8722958" lon="116.6712506">
        <ele>23.22349</ele>
        <time>2026-09-20T23:02:04.650000Z</time>
      </trkpt>
      <trkpt lat="39.8722843" lon="116.6713728">
        <ele>23.21431</ele>
        <time>2026-09-20T23:02:08.631000Z</time>
      </trkpt>
      <trkpt lat="39.8722806" lon="116.6715014">
        <ele>23.17962</ele>
        <time>2026-09-20T23:02:12.612000Z</time>
      </trkpt>
      <trkpt lat="39.8722852" lon="116.6716307">
        <ele>23.14832</ele>
        <time>2026-09-20T23:02:16.592000Z</time>
      </trkpt>
      <trkpt lat="39.872291" lon="116.6717689">
        <ele>23.12855</ele>
        <time>2026-09-20T23:02:20.573000Z</time>
      </trkpt>
      <trkpt lat="39.8722813" lon="116.6719092">
        <ele>23.1004</ele>
        <time>2026-09-20T23:02:24.554000Z</time>
      </trkpt>
      <trkpt lat="39.8722464" lon="116.6720388">
        <ele>23.07001</ele>
        <time>2026-09-20T23:02:28.535000Z</time>
      </trkpt>
      <trkpt lat="39.8721964" lon="116.6721545">
        <ele>23.04506</ele>
        <time>2026-09-20T23:02:32.516000Z</time>
      </trkpt>
      <trkpt lat="39.8721489" lon="116.6722674">
        <ele>23.02819</ele>
        <time>2026-09-20T23:02:36.496000Z</time>
      </trkpt>
      <trkpt lat="39.8721078" lon="116.6723837">
        <ele>23.02203</ele>
        <time>2026-09-20T23:02:40.477000Z</time>
      </trkpt>
      <trkpt lat="39.872071" lon="116.6725088">
        <ele>23.01584</ele>
        <time>2026-09-20T23:02:44.458000Z</time>
      </trkpt>
      <trkpt lat="39.8720349" lon="116.672635">
        <ele>23.00745</ele>
        <time>2026-09-20T23:02:48.439000Z</time>
      </trkpt>
      <trkpt lat="39.8720123" lon="116.6727619">
        <ele>23.02544</ele>
        <time>2026-09-20T23:02:52.419000Z</time>
      </trkpt>
      <trkpt lat="39.8720091" lon="116.6729012">
        <ele>23.11887</ele>
        <time>2026-09-20T23:02:56.400000Z</time>
      </trkpt>
      <trkpt lat="39.8720208" lon="116.6730395">
        <ele>23.2937</ele>
        <time>2026-09-20T23:03:00.381000Z</time>
      </trkpt>
      <trkpt lat="39.872045" lon="116.6731724">
        <ele>23.50633</ele>
        <time>2026-09-20T23:03:04.362000Z</time>
      </trkpt>
      <trkpt lat="39.872081" lon="116.6732942">
        <ele>23.71454</ele>
        <time>2026-09-20T23:03:08.342000Z</time>
      </trkpt>
      <trkpt lat="39.8721396" lon="116.6733966">
        <ele>23.91308</ele>
        <time>2026-09-20T23:03:12.323000Z</time>
      </trkpt>
      <trkpt lat="39.8722233" lon="116.6734701">
        <ele>24.08482</ele>
        <time>2026-09-20T23:03:16.304000Z</time>
      </trkpt>
      <trkpt lat="39.8723184" lon="116.6735073">
        <ele>24.217</ele>
        <time>2026-09-20T23:03:20.285000Z</time>
      </trkpt>
      <trkpt lat="39.8724167" lon="116.6734999">
        <ele>24.2831</ele>
        <time>2026-09-20T23:03:24.265000Z</time>
      </trkpt>
      <trkpt lat="39.8725115" lon="116.6734599">
        <ele>24.24675</ele>
        <time>2026-09-20T23:03:28.246000Z</time>
      </trkpt>
      <trkpt lat="39.8725978" lon="116.6734004">
        <ele>24.07171</ele>
        <time>2026-09-20T23:03:32.227000Z</time>
      </trkpt>
      <trkpt lat="39.872677" lon="116.6733206">
        <ele>23.70034</ele>
        <time>2026-09-20T23:03:36.208000Z</time>
      </trkpt>
      <trkpt lat="39.8727334" lon="116.6732284">
        <ele>23.25147</ele>
        <time>2026-09-20T23:03:40Z</time>
      </trkpt>
      <trkpt lat="39.8727722" lon="116.6731176">
        <ele>22.99407</ele>
        <time>2026-09-20T23:03:44Z</time>
      </trkpt>
      <trkpt lat="39.8728286" lon="116.673016">
        <ele>22.95619</ele>
        <time>2026-09-20T23:03:48Z</time>
      </trkpt>
      <trkpt lat="39.8729008" lon="116.6729272">
        <ele>23.0018</ele>
        <time>2026-09-20T23:03:52Z</time>
      </trkpt>
      <trkpt lat="39.8729865" lon="116.6728558">
        <ele>23.15581</ele>
        <time>2026-09-20T23:03:56Z</time>
      </trkpt>
      <trkpt lat="39.8730777" lon="116.6727944">
        <ele>23.49606</ele>
        <time>2026-09-20T23:04:00.092000Z</time>
      </trkpt>
      <trkpt lat="39.8731607" lon="116.6727369">
        <ele>23.79803</ele>
        <time>2026-09-20T23:04:04.073000Z</time>
      </trkpt>
      <trkpt lat="39.8732396" lon="116.6726656">
        <ele>23.94579</ele>
        <time>2026-09-20T23:04:08.053000Z</time>
      </trkpt>
      <trkpt lat="39.8732987" lon="116.6725649">
        <ele>23.93453</ele>
        <time>2026-09-20T23:04:12.034000Z</time>
      </trkpt>
      <trkpt lat="39.8733456" lon="116.6724436">
        <ele>23.83237</ele>
        <time>2026-09-20T23:04:16.015000Z</time>
      </trkpt>
      <trkpt lat="39.8733972" lon="116.6723354">
        <ele>23.79712</ele>
        <time>2026-09-20T23:04:19.995000Z</time>
      </trkpt>
      <trkpt lat="39.8734649" lon="116.6722396">
        <ele>23.97645</ele>
        <time>2026-09-20T23:04:23.976000Z</time>
      </trkpt>
      <trkpt lat="39.8735505" lon="116.6721625">
        <ele>24.2555</ele>
        <time>2026-09-20T23:04:27.957000Z</time>
      </trkpt>
      <trkpt lat="39.8736492" lon="116.6721218">
        <ele>24.56915</ele>
        <time>2026-09-20T23:04:31.938000Z</time>
      </trkpt>
      <trkpt lat="39.8737484" lon="116.6721073">
        <ele>24.86528</ele>
        <time>2026-09-20T23:04:35.918000Z</time>
      </trkpt>
      <trkpt lat="39.873842" lon="116.6720824">
        <ele>25.0971</ele>
        <time>2026-09-20T23:04:39.899000Z</time>
      </trkpt>
      <trkpt lat="39.8739241" lon="116.6720142">
        <ele>25.22154</ele>
        <time>2026-09-20T23:04:43.880000Z</time>
      </trkpt>
      <trkpt lat="39.8739864" lon="116.6719285">
        <ele>25.20069</ele>
        <time>2026-09-20T23:04:47.860000Z</time>
      </trkpt>
      <trkpt lat="39.8740251" lon="116.6717905">
        <ele>24.95738</ele>
        <time>2026-09-20T23:04:52.836000Z</time>
      </trkpt>
      <trkpt lat="39.8740499" lon="116.6716716">
        <ele>24.66873</ele>
        <time>2026-09-20T23:04:56.817000Z</time>
      </trkpt>
      <trkpt lat="39.8740889" lon="116.6715615">
        <ele>24.43839</ele>
        <time>2026-09-20T23:05:00.798000Z</time>
      </trkpt>
      <trkpt lat="39.8741842" lon="116.6715192">
        <ele>24.35007</ele>
        <time>2026-09-20T23:05:05.774000Z</time>
      </trkpt>
      <trkpt lat="39.8742741" lon="116.671578">
        <ele>24.37793</ele>
        <time>2026-09-20T23:05:09.754000Z</time>
      </trkpt>
      <trkpt lat="39.8743619" lon="116.6716456">
        <ele>24.42589</ele>
        <time>2026-09-20T23:05:13.735000Z</time>
      </trkpt>
      <trkpt lat="39.8744605" lon="116.6716791">
        <ele>24.47718</ele>
        <time>2026-09-20T23:05:17.716000Z</time>
      </trkpt>
      <trkpt lat="39.8745616" lon="116.6716658">
        <ele>24.52132</ele>
        <time>2026-09-20T23:05:21.696000Z</time>
      </trkpt>
      <trkpt lat="39.8746467" lon="116.6716076">
        <ele>24.53975</ele>
        <time>2026-09-20T23:05:25.677000Z</time>
      </trkpt>
      <trkpt lat="39.8747237" lon="116.6715265">
        <ele>24.51594</ele>
        <time>2026-09-20T23:05:29.658000Z</time>
      </trkpt>
      <trkpt lat="39.8747928" lon="116.6714346">
        <ele>24.44291</ele>
        <time>2026-09-20T23:05:33.638000Z</time>
      </trkpt>
      <trkpt lat="39.8748391" lon="116.6713241">
        <ele>24.32863</ele>
        <time>2026-09-20T23:05:37.619000Z</time>
      </trkpt>
      <trkpt lat="39.8748585" lon="116.6711913">
        <ele>24.18023</ele>
        <time>2026-09-20T23:05:41.600000Z</time>
      </trkpt>
      <trkpt lat="39.8748675" lon="116.6710555">
        <ele>24.01446</ele>
        <time>2026-09-20T23:05:45.581000Z</time>
      </trkpt>
      <trkpt lat="39.8748793" lon="116.6709173">
        <ele>23.83895</ele>
        <time>2026-09-20T23:05:49.561000Z</time>
      </trkpt>
      <trkpt lat="39.8749011" lon="116.670782">
        <ele>23.68739</ele>
        <time>2026-09-20T23:05:53.542000Z</time>
      </trkpt>
      <trkpt lat="39.8749238" lon="116.6706513">
        <ele>23.58146</ele>
        <time>2026-09-20T23:05:57.523000Z</time>
      </trkpt>
      <trkpt lat="39.8749558" lon="116.6705296">
        <ele>23.49522</ele>
        <time>2026-09-20T23:06:01.503000Z</time>
      </trkpt>
      <trkpt lat="39.8750047" lon="116.670418">
        <ele>23.39488</ele>
        <time>2026-09-20T23:06:05.484000Z</time>
      </trkpt>
      <trkpt lat="39.8750121" lon="116.6702774">
        <ele>23.25885</ele>
        <time>2026-09-20T23:06:10.460000Z</time>
      </trkpt>
      <trkpt lat="39.8749926" lon="116.6701579">
        <ele>23.17071</ele>
        <time>2026-09-20T23:06:14.441000Z</time>
      </trkpt>
      <trkpt lat="39.8750336" lon="116.6700343">
        <ele>23.13972</ele>
        <time>2026-09-20T23:06:19.417000Z</time>
      </trkpt>
      <trkpt lat="39.8750946" lon="116.6699465">
        <ele>23.14546</ele>
        <time>2026-09-20T23:06:23.397000Z</time>
      </trkpt>
      <trkpt lat="39.8751279" lon="116.6698297">
        <ele>23.15432</ele>
        <time>2026-09-20T23:06:27.378000Z</time>
      </trkpt>
      <trkpt lat="39.8751715" lon="116.6697111">
        <ele>23.15917</ele>
        <time>2026-09-20T23:06:31.359000Z</time>
      </trkpt>
      <trkpt lat="39.875242" lon="116.6696176">
        <ele>23.16054</ele>
        <time>2026-09-20T23:06:35.339000Z</time>
      </trkpt>
      <trkpt lat="39.8753315" lon="116.6695552">
        <ele>23.17254</ele>
        <time>2026-09-20T23:06:39.320000Z</time>
      </trkpt>
      <trkpt lat="39.8754297" lon="116.669528">
        <ele>23.21875</ele>
        <time>2026-09-20T23:06:43.301000Z</time>
      </trkpt>
      <trkpt lat="39.8755242" lon="116.6694887">
        <ele>23.30809</ele>
        <time>2026-09-20T23:06:47.281000Z</time>
      </trkpt>
      <trkpt lat="39.8756089" lon="116.669408">
        <ele>23.42038</ele>
        <time>2026-09-20T23:06:51.262000Z</time>
      </trkpt>
      <trkpt lat="39.8756644" lon="116.6692968">
        <ele>23.48572</ele>
        <time>2026-09-20T23:06:55.243000Z</time>
      </trkpt>
      <trkpt lat="39.8756811" lon="116.6691692">
        <ele>23.47004</ele>
        <time>2026-09-20T23:06:59.224000Z</time>
      </trkpt>
      <trkpt lat="39.8756662" lon="116.6690484">
        <ele>23.38956</ele>
        <time>2026-09-20T23:07:03.204000Z</time>
      </trkpt>
      <trkpt lat="39.8756315" lon="116.6689382">
        <ele>23.30971</ele>
        <time>2026-09-20T23:07:07Z</time>
      </trkpt>
      <trkpt lat="39.8755727" lon="116.6688301">
        <ele>23.26092</ele>
        <time>2026-09-20T23:07:11Z</time>
      </trkpt>
      <trkpt lat="39.8754979" lon="116.6687358">
        <ele>23.20265</ele>
        <time>2026-09-20T23:07:15Z</time>
      </trkpt>
      <trkpt lat="39.8754252" lon="116.6686377">
        <ele>23.11167</ele>
        <time>2026-09-20T23:07:19Z</time>
      </trkpt>
      <trkpt lat="39.8753687" lon="116.6685216">
        <ele>22.99609</ele>
        <time>2026-09-20T23:07:23Z</time>
      </trkpt>
      <trkpt lat="39.8753299" lon="116.6683907">
        <ele>22.88433</ele>
        <time>2026-09-20T23:07:27Z</time>
      </trkpt>
      <trkpt lat="39.8752968" lon="116.6682538">
        <ele>22.80714</ele>
        <time>2026-09-20T23:07:31Z</time>
      </trkpt>
      <trkpt lat="39.875261" lon="116.6681168">
        <ele>22.76734</ele>
        <time>2026-09-20T23:07:35Z</time>
      </trkpt>
      <trkpt lat="39.8752218" lon="116.6679826">
        <ele>22.7501</ele>
        <time>2026-09-20T23:07:39Z</time>
      </trkpt>
      <trkpt lat="39.8751757" lon="116.6678543">
        <ele>22.71966</ele>
        <time>2026-09-20T23:07:43Z</time>
      </trkpt>
      <trkpt lat="39.8751152" lon="116.6677383">
        <ele>22.63398</ele>
        <time>2026-09-20T23:07:46.992000Z</time>
      </trkpt>
      <trkpt lat="39.875036" lon="116.6676414">
        <ele>22.53592</ele>
        <time>2026-09-20T23:07:50.973000Z</time>
      </trkpt>
      <trkpt lat="39.8749409" lon="116.6675723">
        <ele>22.46746</ele>
        <time>2026-09-20T23:07:54.953000Z</time>
      </trkpt>
      <trkpt lat="39.8748434" lon="116.6675253">
        <ele>22.42506</ele>
        <time>2026-09-20T23:07:58.934000Z</time>
      </trkpt>
      <trkpt lat="39.8747415" lon="116.6675061">
        <ele>22.39574</ele>
        <time>2026-09-20T23:08:02.915000Z</time>
      </trkpt>
      <trkpt lat="39.8746418" lon="116.6674868">
        <ele>22.38065</ele>
        <time>2026-09-20T23:08:06.895000Z</time>
      </trkpt>
      <trkpt lat="39.8745406" lon="116.6674801">
        <ele>22.34445</ele>
        <time>2026-09-20T23:08:10.876000Z</time>
      </trkpt>
      <trkpt lat="39.8744397" lon="116.6674962">
        <ele>22.26583</ele>
        <time>2026-09-20T23:08:14.857000Z</time>
      </trkpt>
      <trkpt lat="39.8743442" lon="116.6675405">
        <ele>22.15832</ele>
        <time>2026-09-20T23:08:18.838000Z</time>
      </trkpt>
      <trkpt lat="39.8742545" lon="116.667603">
        <ele>22.03701</ele>
        <time>2026-09-20T23:08:22.818000Z</time>
      </trkpt>
      <trkpt lat="39.8741688" lon="116.6676748">
        <ele>21.92279</ele>
        <time>2026-09-20T23:08:26.799000Z</time>
      </trkpt>
      <trkpt lat="39.8740804" lon="116.6677409">
        <ele>21.83922</ele>
        <time>2026-09-20T23:08:30.780000Z</time>
      </trkpt>
      <trkpt lat="39.8739862" lon="116.6677887">
        <ele>21.79695</ele>
        <time>2026-09-20T23:08:34.760000Z</time>
      </trkpt>
      <trkpt lat="39.873886" lon="116.6678092">
        <ele>21.78621</ele>
        <time>2026-09-20T23:08:38.741000Z</time>
      </trkpt>
      <trkpt lat="39.873784" lon="116.6678033">
        <ele>21.79391</ele>
        <time>2026-09-20T23:08:42.722000Z</time>
      </trkpt>
      <trkpt lat="39.8736803" lon="116.6677819">
        <ele>21.82235</ele>
        <time>2026-09-20T23:08:46.703000Z</time>
      </trkpt>
      <trkpt lat="39.8735764" lon="116.6677498">
        <ele>21.88278</ele>
        <time>2026-09-20T23:08:50.683000Z</time>
      </trkpt>
      <trkpt lat="39.8734705" lon="116.6677282">
        <ele>21.95671</ele>
        <time>2026-09-20T23:08:54.664000Z</time>
      </trkpt>
      <trkpt lat="39.8733662" lon="116.6677324">
        <ele>22.00957</ele>
        <time>2026-09-20T23:08:58.645000Z</time>
      </trkpt>
      <trkpt lat="39.8732644" lon="116.6677702">
        <ele>22.02839</ele>
        <time>2026-09-20T23:09:02.626000Z</time>
      </trkpt>
      <trkpt lat="39.8731632" lon="116.6678257">
        <ele>22.02572</ele>
        <time>2026-09-20T23:09:06.606000Z</time>
      </trkpt>
      <trkpt lat="39.873056" lon="116.6678498">
        <ele>22.02161</ele>
        <time>2026-09-20T23:09:10.587000Z</time>
      </trkpt>
      <trkpt lat="39.8729494" lon="116.667832">
        <ele>22.04926</ele>
        <time>2026-09-20T23:09:14.568000Z</time>
      </trkpt>
      <trkpt lat="39.8728463" lon="116.6677886">
        <ele>22.13273</ele>
        <time>2026-09-20T23:09:18.548000Z</time>
      </trkpt>
      <trkpt lat="39.8727403" lon="116.6677426">
        <ele>22.23634</ele>
        <time>2026-09-20T23:09:22.529000Z</time>
      </trkpt>
      <trkpt lat="39.8726337" lon="116.6677113">
        <ele>22.27774</ele>
        <time>2026-09-20T23:09:26.510000Z</time>
      </trkpt>
      <trkpt lat="39.8725254" lon="116.6676965">
        <ele>22.21363</ele>
        <time>2026-09-20T23:09:30.490000Z</time>
      </trkpt>
      <trkpt lat="39.8724218" lon="116.6676994">
        <ele>22.06615</ele>
        <time>2026-09-20T23:09:34.471000Z</time>
      </trkpt>
      <trkpt lat="39.8723163" lon="116.667713">
        <ele>21.85833</ele>
        <time>2026-09-20T23:09:38.451000Z</time>
      </trkpt>
      <trkpt lat="39.8722112" lon="116.6677238">
        <ele>21.64282</ele>
        <time>2026-09-20T23:09:42.431000Z</time>
      </trkpt>
      <trkpt lat="39.8721045" lon="116.6677216">
        <ele>21.45824</ele>
        <time>2026-09-20T23:09:46.412000Z</time>
      </trkpt>
      <trkpt lat="39.872002" lon="116.6676982">
        <ele>21.29042</ele>
        <time>2026-09-20T23:09:50.392000Z</time>
      </trkpt>
      <trkpt lat="39.8719051" lon="116.6676579">
        <ele>21.11497</ele>
        <time>2026-09-20T23:09:54.373000Z</time>
      </trkpt>
      <trkpt lat="39.8718088" lon="116.667602">
        <ele>20.95721</ele>
        <time>2026-09-20T23:09:58.353000Z</time>
      </trkpt>
      <trkpt lat="39.8717083" lon="116.6675507">
        <ele>20.81859</ele>
        <time>2026-09-20T23:10:02.334000Z</time>
      </trkpt>
      <trkpt lat="39.871603" lon="116.6675202">
        <ele>20.72123</ele>
        <time>2026-09-20T23:10:06.315000Z</time>
      </trkpt>
      <trkpt lat="39.8714959" lon="116.6675028">
        <ele>20.66967</ele>
        <time>2026-09-20T23:10:10.295000Z</time>
      </trkpt>
      <trkpt lat="39.8713879" lon="116.6675025">
        <ele>20.64943</ele>
        <time>2026-09-20T23:10:14.276000Z</time>
      </trkpt>
      <trkpt lat="39.8712816" lon="116.6675132">
        <ele>20.65158</ele>
        <time>2026-09-20T23:10:18.257000Z</time>
      </trkpt>
      <trkpt lat="39.8711786" lon="116.6675235">
        <ele>20.67349</ele>
        <time>2026-09-20T23:10:22.237000Z</time>
      </trkpt>
      <trkpt lat="39.8710818" lon="116.6675438">
        <ele>20.69369</ele>
        <time>2026-09-20T23:10:26.218000Z</time>
      </trkpt>
      <trkpt lat="39.8710111" lon="116.6676163">
        <ele>20.67718</ele>
        <time>2026-09-20T23:10:30.199000Z</time>
      </trkpt>
      <trkpt lat="39.8709672" lon="116.6677372">
        <ele>20.64873</ele>
        <time>2026-09-20T23:10:34.179000Z</time>
      </trkpt>
      <trkpt lat="39.8709066" lon="116.6678408">
        <ele>20.66503</ele>
        <time>2026-09-20T23:10:38.160000Z</time>
      </trkpt>
      <trkpt lat="39.8708135" lon="116.6678824">
        <ele>20.74124</ele>
        <time>2026-09-20T23:10:41.997000Z</time>
      </trkpt>
      <trkpt lat="39.8707053" lon="116.6678948">
        <ele>20.89522</ele>
        <time>2026-09-20T23:10:46.121000Z</time>
      </trkpt>
      <trkpt lat="39.8705987" lon="116.6678886">
        <ele>20.98171</ele>
        <time>2026-09-20T23:10:50.102000Z</time>
      </trkpt>
      <trkpt lat="39.8704963" lon="116.6678748">
        <ele>21.03735</ele>
        <time>2026-09-20T23:10:53.997000Z</time>
      </trkpt>
      <trkpt lat="39.870396" lon="116.6678522">
        <ele>21.24057</ele>
        <time>2026-09-20T23:10:57.997000Z</time>
      </trkpt>
      <trkpt lat="39.8703029" lon="116.667801">
        <ele>21.59217</ele>
        <time>2026-09-20T23:11:01.997000Z</time>
      </trkpt>
      <trkpt lat="39.8702095" lon="116.667764">
        <ele>21.92201</ele>
        <time>2026-09-20T23:11:05.997000Z</time>
      </trkpt>
      <trkpt lat="39.8701058" lon="116.6677763">
        <ele>22.01596</ele>
        <time>2026-09-20T23:11:09.997000Z</time>
      </trkpt>
      <trkpt lat="39.8700031" lon="116.6677779">
        <ele>21.83806</ele>
        <time>2026-09-20T23:11:13.986000Z</time>
      </trkpt>
      <trkpt lat="39.8698994" lon="116.6677528">
        <ele>21.58352</ele>
        <time>2026-09-20T23:11:17.967000Z</time>
      </trkpt>
      <trkpt lat="39.8697944" lon="116.6677257">
        <ele>21.35888</ele>
        <time>2026-09-20T23:11:21.948000Z</time>
      </trkpt>
      <trkpt lat="39.8696938" lon="116.6677157">
        <ele>21.18147</ele>
        <time>2026-09-20T23:11:25.929000Z</time>
      </trkpt>
      <trkpt lat="39.8695978" lon="116.6677485">
        <ele>21.06779</ele>
        <time>2026-09-20T23:11:29.910000Z</time>
      </trkpt>
      <trkpt lat="39.8695213" lon="116.6678299">
        <ele>21.02656</ele>
        <time>2026-09-20T23:11:33.891000Z</time>
      </trkpt>
      <trkpt lat="39.8694762" lon="116.6679413">
        <ele>21.04885</ele>
        <time>2026-09-20T23:11:37.872000Z</time>
      </trkpt>
      <trkpt lat="39.8694701" lon="116.6680708">
        <ele>21.10959</ele>
        <time>2026-09-20T23:11:41.853000Z</time>
      </trkpt>
      <trkpt lat="39.8694946" lon="116.6681996">
        <ele>21.17128</ele>
        <time>2026-09-20T23:11:45.834000Z</time>
      </trkpt>
      <trkpt lat="39.869545" lon="116.6683146">
        <ele>21.16602</ele>
        <time>2026-09-20T23:11:49.815000Z</time>
      </trkpt>
      <trkpt lat="39.8696255" lon="116.6683858">
        <ele>21.06395</ele>
        <time>2026-09-20T23:11:53.796000Z</time>
      </trkpt>
      <trkpt lat="39.8697213" lon="116.6683973">
        <ele>20.897</ele>
        <time>2026-09-20T23:11:57.777000Z</time>
      </trkpt>
      <trkpt lat="39.8698164" lon="116.6683656">
        <ele>20.7623</ele>
        <time>2026-09-20T23:12:01.758000Z</time>
      </trkpt>
      <trkpt lat="39.8699126" lon="116.668336">
        <ele>20.72702</ele>
        <time>2026-09-20T23:12:05.739000Z</time>
      </trkpt>
      <trkpt lat="39.8700097" lon="116.6683297">
        <ele>20.76382</ele>
        <time>2026-09-20T23:12:09.720000Z</time>
      </trkpt>
      <trkpt lat="39.8701114" lon="116.6683211">
        <ele>20.82111</ele>
        <time>2026-09-20T23:12:13.700000Z</time>
      </trkpt>
      <trkpt lat="39.8702137" lon="116.6682893">
        <ele>20.85218</ele>
        <time>2026-09-20T23:12:17.681000Z</time>
      </trkpt>
      <trkpt lat="39.8703109" lon="116.6682301">
        <ele>20.84565</ele>
        <time>2026-09-20T23:12:21.662000Z</time>
      </trkpt>
      <trkpt lat="39.8704041" lon="116.6681623">
        <ele>20.81269</ele>
        <time>2026-09-20T23:12:25.643000Z</time>
      </trkpt>
      <trkpt lat="39.8705044" lon="116.6681196">
        <ele>20.76439</ele>
        <time>2026-09-20T23:12:29.623000Z</time>
      </trkpt>
      <trkpt lat="39.8706076" lon="116.6681171">
        <ele>20.74164</ele>
        <time>2026-09-20T23:12:33.604000Z</time>
      </trkpt>
      <trkpt lat="39.870709" lon="116.6681376">
        <ele>20.76707</ele>
        <time>2026-09-20T23:12:37.585000Z</time>
      </trkpt>
      <trkpt lat="39.870812" lon="116.6681592">
        <ele>20.82398</ele>
        <time>2026-09-20T23:12:41.566000Z</time>
      </trkpt>
      <trkpt lat="39.8709188" lon="116.6681564">
        <ele>20.90203</ele>
        <time>2026-09-20T23:12:45.546000Z</time>
      </trkpt>
      <trkpt lat="39.8710237" lon="116.6681305">
        <ele>21.00002</ele>
        <time>2026-09-20T23:12:49.527000Z</time>
      </trkpt>
      <trkpt lat="39.8711219" lon="116.6680872">
        <ele>21.10633</ele>
        <time>2026-09-20T23:12:53.508000Z</time>
      </trkpt>
      <trkpt lat="39.871218" lon="116.6680582">
        <ele>21.18689</ele>
        <time>2026-09-20T23:12:57.489000Z</time>
      </trkpt>
      <trkpt lat="39.8713125" lon="116.6680286">
        <ele>21.17589</ele>
        <time>2026-09-20T23:13:01.469000Z</time>
      </trkpt>
      <trkpt lat="39.8714142" lon="116.6680067">
        <ele>21.06664</ele>
        <time>2026-09-20T23:13:05.450000Z</time>
      </trkpt>
      <trkpt lat="39.8715163" lon="116.6680095">
        <ele>20.9432</ele>
        <time>2026-09-20T23:13:09.431000Z</time>
      </trkpt>
      <trkpt lat="39.8716165" lon="116.6680315">
        <ele>20.86088</ele>
        <time>2026-09-20T23:13:13.412000Z</time>
      </trkpt>
      <trkpt lat="39.8717128" lon="116.668065">
        <ele>20.8288</ele>
        <time>2026-09-20T23:13:17.392000Z</time>
      </trkpt>
      <trkpt lat="39.8717998" lon="116.6681237">
        <ele>20.85288</ele>
        <time>2026-09-20T23:13:21.373000Z</time>
      </trkpt>
      <trkpt lat="39.871895" lon="116.6681757">
        <ele>20.93683</ele>
        <time>2026-09-20T23:13:25.354000Z</time>
      </trkpt>
      <trkpt lat="39.8719993" lon="116.6682021">
        <ele>21.07135</ele>
        <time>2026-09-20T23:13:29.335000Z</time>
      </trkpt>
      <trkpt lat="39.8721024" lon="116.6682078">
        <ele>21.22107</ele>
        <time>2026-09-20T23:13:33.315000Z</time>
      </trkpt>
      <trkpt lat="39.8722057" lon="116.6682141">
        <ele>21.35659</ele>
        <time>2026-09-20T23:13:37.296000Z</time>
      </trkpt>
      <trkpt lat="39.8723063" lon="116.6682422">
        <ele>21.48398</ele>
        <time>2026-09-20T23:13:41.277000Z</time>
      </trkpt>
      <trkpt lat="39.8724002" lon="116.6683017">
        <ele>21.57133</ele>
        <time>2026-09-20T23:13:45.258000Z</time>
      </trkpt>
      <trkpt lat="39.872481" lon="116.6683907">
        <ele>21.60681</ele>
        <time>2026-09-20T23:13:49.238000Z</time>
      </trkpt>
      <trkpt lat="39.8725486" lon="116.668503">
        <ele>21.62042</ele>
        <time>2026-09-20T23:13:53.219000Z</time>
      </trkpt>
      <trkpt lat="39.8725944" lon="116.6686329">
        <ele>21.64592</ele>
        <time>2026-09-20T23:13:57.200000Z</time>
      </trkpt>
      <trkpt lat="39.8726152" lon="116.6687714">
        <ele>21.68555</ele>
        <time>2026-09-20T23:14:01.181000Z</time>
      </trkpt>
      <trkpt lat="39.8726121" lon="116.6689099">
        <ele>21.71705</ele>
        <time>2026-09-20T23:14:05.161000Z</time>
      </trkpt>
      <trkpt lat="39.8725889" lon="116.6690465">
        <ele>21.7145</ele>
        <time>2026-09-20T23:14:09.142000Z</time>
      </trkpt>
      <trkpt lat="39.8725564" lon="116.6691814">
        <ele>21.67932</ele>
        <time>2026-09-20T23:14:13.123000Z</time>
      </trkpt>
      <trkpt lat="39.872527" lon="116.6693177">
        <ele>21.62237</ele>
        <time>2026-09-20T23:14:17.104000Z</time>
      </trkpt>
      <trkpt lat="39.8725083" lon="116.669454">
        <ele>21.58948</ele>
        <time>2026-09-20T23:14:21.085000Z</time>
      </trkpt>
      <trkpt lat="39.8725022" lon="116.6695866">
        <ele>21.60541</ele>
        <time>2026-09-20T23:14:25Z</time>
      </trkpt>
      <trkpt lat="39.8725122" lon="116.6697235">
        <ele>21.63719</ele>
        <time>2026-09-20T23:14:29.046000Z</time>
      </trkpt>
      <trkpt lat="39.8725465" lon="116.669853">
        <ele>21.61641</ele>
        <time>2026-09-20T23:14:33Z</time>
      </trkpt>
      <trkpt lat="39.872602" lon="116.6699634">
        <ele>21.61412</ele>
        <time>2026-09-20T23:14:37Z</time>
      </trkpt>
      <trkpt lat="39.8726784" lon="116.6700487">
        <ele>21.6621</ele>
        <time>2026-09-20T23:14:40.988000Z</time>
      </trkpt>
      <trkpt lat="39.8727698" lon="116.6701058">
        <ele>21.6659</ele>
        <time>2026-09-20T23:14:44.969000Z</time>
      </trkpt>
      <trkpt lat="39.8728674" lon="116.670139">
        <ele>21.618</ele>
        <time>2026-09-20T23:14:48.950000Z</time>
      </trkpt>
      <trkpt lat="39.8729679" lon="116.6701555">
        <ele>21.53323</ele>
        <time>2026-09-20T23:14:52.931000Z</time>
      </trkpt>
      <trkpt lat="39.8730712" lon="116.6701556">
        <ele>21.41289</ele>
        <time>2026-09-20T23:14:56.911000Z</time>
      </trkpt>
      <trkpt lat="39.8731737" lon="116.6701425">
        <ele>21.26455</ele>
        <time>2026-09-20T23:15:00.892000Z</time>
      </trkpt>
      <trkpt lat="39.873276" lon="116.6701167">
        <ele>21.12461</ele>
        <time>2026-09-20T23:15:04.873000Z</time>
      </trkpt>
      <trkpt lat="39.8733758" lon="116.670078">
        <ele>21.00853</ele>
        <time>2026-09-20T23:15:08.854000Z</time>
      </trkpt>
      <trkpt lat="39.8734703" lon="116.6700165">
        <ele>20.9451</ele>
        <time>2026-09-20T23:15:12.834000Z</time>
      </trkpt>
      <trkpt lat="39.8735561" lon="116.6699367">
        <ele>20.93969</ele>
        <time>2026-09-20T23:15:16.815000Z</time>
      </trkpt>
      <trkpt lat="39.8736385" lon="116.6698571">
        <ele>21.00186</ele>
        <time>2026-09-20T23:15:20.796000Z</time>
      </trkpt>
      <trkpt lat="39.8737274" lon="116.6698017">
        <ele>21.11178</ele>
        <time>2026-09-20T23:15:24.777000Z</time>
      </trkpt>
      <trkpt lat="39.8738252" lon="116.669787">
        <ele>21.20825</ele>
        <time>2026-09-20T23:15:28.758000Z</time>
      </trkpt>
      <trkpt lat="39.8739273" lon="116.6698052">
        <ele>21.2413</ele>
        <time>2026-09-20T23:15:32.738000Z</time>
      </trkpt>
      <trkpt lat="39.8740317" lon="116.6698253">
        <ele>21.21875</ele>
        <time>2026-09-20T23:15:36.719000Z</time>
      </trkpt>
      <trkpt lat="39.8741423" lon="116.6698325">
        <ele>21.16795</ele>
        <time>2026-09-20T23:15:40.700000Z</time>
      </trkpt>
      <trkpt lat="39.8742502" lon="116.6698171">
        <ele>21.14406</ele>
        <time>2026-09-20T23:15:44.681000Z</time>
      </trkpt>
      <trkpt lat="39.8743468" lon="116.6697605">
        <ele>21.19582</ele>
        <time>2026-09-20T23:15:48.661000Z</time>
      </trkpt>
      <trkpt lat="39.8744324" lon="116.6696696">
        <ele>21.3514</ele>
        <time>2026-09-20T23:15:52.642000Z</time>
      </trkpt>
      <trkpt lat="39.8745149" lon="116.6695789">
        <ele>21.6077</ele>
        <time>2026-09-20T23:15:56.623000Z</time>
      </trkpt>
      <trkpt lat="39.8746151" lon="116.6695274">
        <ele>21.93328</ele>
        <time>2026-09-20T23:16:00.604000Z</time>
      </trkpt>
      <trkpt lat="39.8747204" lon="116.6695095">
        <ele>22.29421</ele>
        <time>2026-09-20T23:16:04.584000Z</time>
      </trkpt>
      <trkpt lat="39.874825" lon="116.6695198">
        <ele>22.65092</ele>
        <time>2026-09-20T23:16:08.565000Z</time>
      </trkpt>
      <trkpt lat="39.8749197" lon="116.6695815">
        <ele>22.95197</ele>
        <time>2026-09-20T23:16:12.546000Z</time>
      </trkpt>
      <trkpt lat="39.8750181" lon="116.6696501">
        <ele>23.17509</ele>
        <time>2026-09-20T23:16:16.527000Z</time>
      </trkpt>
      <trkpt lat="39.8751192" lon="116.6696697">
        <ele>23.30288</ele>
        <time>2026-09-20T23:16:20.507000Z</time>
      </trkpt>
      <trkpt lat="39.8752139" lon="116.6696132">
        <ele>23.32613</ele>
        <time>2026-09-20T23:16:24.488000Z</time>
      </trkpt>
      <trkpt lat="39.8753132" lon="116.6695434">
        <ele>23.28327</ele>
        <time>2026-09-20T23:16:28.469000Z</time>
      </trkpt>
      <trkpt lat="39.8754157" lon="116.6695116">
        <ele>23.23924</ele>
        <time>2026-09-20T23:16:32.450000Z</time>
      </trkpt>
      <trkpt lat="39.8755183" lon="116.6694798">
        <ele>23.24566</ele>
        <time>2026-09-20T23:16:36.430000Z</time>
      </trkpt>
      <trkpt lat="39.8756102" lon="116.6694076">
        <ele>23.29958</ele>
        <time>2026-09-20T23:16:40.411000Z</time>
      </trkpt>
      <trkpt lat="39.875674" lon="116.6692975">
        <ele>23.33302</ele>
        <time>2026-09-20T23:16:44.392000Z</time>
      </trkpt>
      <trkpt lat="39.8756974" lon="116.6691667">
        <ele>23.2809</ele>
        <time>2026-09-20T23:16:48.373000Z</time>
      </trkpt>
      <trkpt lat="39.8756794" lon="116.6690406">
        <ele>23.14393</ele>
        <time>2026-09-20T23:16:52.354000Z</time>
      </trkpt>
      <trkpt lat="39.8756445" lon="116.6689232">
        <ele>22.99695</ele>
        <time>2026-09-20T23:16:56.334000Z</time>
      </trkpt>
      <trkpt lat="39.8755866" lon="116.6688137">
        <ele>22.932</ele>
        <time>2026-09-20T23:17:00.315000Z</time>
      </trkpt>
      <trkpt lat="39.8755092" lon="116.6687218">
        <ele>22.92254</ele>
        <time>2026-09-20T23:17:04.296000Z</time>
      </trkpt>
      <trkpt lat="39.8754304" lon="116.6686282">
        <ele>22.88188</ele>
        <time>2026-09-20T23:17:08.277000Z</time>
      </trkpt>
      <trkpt lat="39.8753698" lon="116.6685159">
        <ele>22.76611</ele>
        <time>2026-09-20T23:17:12.257000Z</time>
      </trkpt>
      <trkpt lat="39.8753314" lon="116.6683909">
        <ele>22.61757</ele>
        <time>2026-09-20T23:17:16.238000Z</time>
      </trkpt>
    </trkseg>
  </trk>
</gpx>